OBJECTID,NAME,POLY_TYP,MBL_UNIT,Address,Hyperlink,BBQ,Picnic_Area,Playground,Par_course_fitness,Soccer_field,Baseball_Softball,Basketball,Tennis,Dog_Park,Hiking_Trail,Biking_Trail,Restroom,Wheelchair_Accessible,Rock_Climbing,Swimming,Clubhouse,Running_Track,Skating,Volleyball_Court,Ampitheater,Vista_Point,Other_Ath_Amenities,Hours,Website,Virtual_Tour,Online_Reservation,Google_Street_View,Direction,Shape,Shape.STArea(),Shape.STLength(),x,y
1,King School Park,Park,SD,Hopkins Street east of Colusa Ave,http://www.cityofberkeley.info/WorkArea/linkit.aspx?LinkIdentifier=id&ItemID=12650,No,Yes,Yes,No,No,No,Yes,Yes,No,No,No,Yes,Yes,No,Yes,No,Yes,No,No,No,No,Gym,"School Days: 4 p.m. to dusk
Non-School Days: 8 a.m. to dusk
Tot play area: dawn to dusk
King Pool hours 510-644-8518",http://www.cityofberkeley.info/WorkArea/linkit.aspx?LinkIdentifier=id&ItemID=12650,,https://apm.activecommunities.com/cityofberkeley/Home,https://goo.gl/maps/bpveZSNPViQ2,https://goo.gl/maps/xb8eTYFH9XT2,,15246.031005859375,512.1138714989415,,
2,Adventure Playground,Park,7,"162 University Avenue, Berkeley Marina ",http://www.cityofberkeley.info/ContentDisplay.aspx?id=8656,No,No,Yes,Yes,No,No,No,No,No,No,No,Yes,Yes,No,No,No,No,No,No,No,No,Free-Wheeling disabled Par Course,Saturday and Sunday 11am - 4pm,http://www.cityofberkeley.info/adventureplayground/,,,https://goo.gl/maps/wnBKVAVHt9v,https://goo.gl/maps/nnKjK2USQbt,,3453.202880859375,239.98964435145362,,
3,Shorebird Park,Park,7,"160 University Avenue, Berkeley Mariina",http://www.cityofberkeley.info/WorkArea/linkit.aspx?LinkIdentifier=id&ItemID=12876,Yes,Yes,Yes,No ,No,No,No,No,No,Yes,No,Yes,Yes,No,No,No,No,No,No,No,No,"Disabled-accessible playground equipment
Nature Center
Shoreline area with beach",6 a.m. to 10 p.m.,http://www.cityofberkeley.info/WorkArea/linkit.aspx?LinkIdentifier=id&ItemID=12876,,https://apm.activecommunities.com/cityofberkeley/Home,https://goo.gl/maps/PTDV7dvrHgr,https://goo.gl/maps/xkRMKiF7APB2,,25378.623046875,649.5155836726666,,
4,Cesar Chavez Park,Park,7,"11 Spinnaker Wy, North of west end of Uni., Marina",http://www.cityofberkeley.info/WorkArea/linkit.aspx?LinkIdentifier=id&ItemID=12102,Yes,Yes,No,No,No,No,No,No,Yes,Yes,No,Yes,Yes,No,No,No,No,No,No,No,No,"Wildlife sanctuary, kyte flying",6am - 10pm,http://www.cityofberkeley.info/WorkArea/linkit.aspx?LinkIdentifier=id&ItemID=56000,http://berkeley.maps.arcgis.com/apps/MapSeries/?appid=9f3e1f5879f94163af5d3d2f85b29fe4,https://apm.activecommunities.com/cityofberkeley/Home,https://goo.gl/maps/Y4us8kNfKpx,https://goo.gl/maps/63fo83PxagS2,,234418.11645507812,2754.7500263889733,,
5,Horseshoe Park,Park,7,"101 Seawall Drive, Berkeley Marina",http://www.cityofberkeley.info/WorkArea/linkit.aspx?LinkIdentifier=id&ItemID=12608,No,No,No,No,No,No,No,No,No,No,No,Yes,No,No,No,No,No,No,No,No,Yes,Shoreline area,6am - 10pm,http://www.cityofberkeley.info/WorkArea/linkit.aspx?LinkIdentifier=id&ItemID=12608,,,https://goo.gl/maps/QhyK5bHHpQH2,https://goo.gl/maps/bs729n3K1A12,,3336.5634765625,232.79179320975683,,
6,Halcyon Commons Park,Park,2,Center of Halcyon Court at Prince Street,http://www.cityofberkeley.info/WorkArea/linkit.aspx?LinkIdentifier=id&ItemID=12586,No,Yes,Yes,No,No,No,No,No,No,No,No,No,Yes,No,No,No,No,No,No,No,No,"Wisteria-covered arbor, community garden",6am - 10pm,http://www.cityofberkeley.info/WorkArea/linkit.aspx?LinkIdentifier=id&ItemID=12586,,https://apm.activecommunities.com/cityofberkeley/Home,https://goo.gl/maps/cHytzEEsqCq,https://goo.gl/maps/d81R343VLeo,,929.1533203125,150.95598485424014,,
7,Greg Brown Mini-Park,Park,2,1907 Harmon Street,http://www.cityofberkeley.info/WorkArea/linkit.aspx?LinkIdentifier=id&ItemID=12566,Yes,Yes,Yes,No,No,No,Yes,No,No,No,No,No,Yes,No,No,Yes,No,No,No,No,No,,Varies ,http://www.cityofberkeley.info/WorkArea/linkit.aspx?LinkIdentifier=id&ItemID=12566,,https://apm.activecommunities.com/cityofberkeley/Home,https://goo.gl/maps/2Vyc6r7TLyT2,https://goo.gl/maps/2EZ85n9d8au,,1864.742431640625,277.44446505466067,,
8,Cesar Chavez  ( Protected Natural area),Park,7,"11 Spinnaker Wy, North of west end of Uni., Marina",http://www.cityofberkeley.info/WorkArea/linkit.aspx?LinkIdentifier=id&ItemID=12102,,,,,,,,,,,,,,,,,,,,,,,,,,,,,,57995.427490234375,1143.6726778856857,,
9,Cesar Chavez  (Dog Park),Park,7,"11 Spinnaker Wy, North of west end of Uni., Marina",http://www.cityofberkeley.info/WorkArea/linkit.aspx?LinkIdentifier=id&ItemID=12102,,,,,,,,,,,,,,,,,,,,,,,,,,,,,,59936.727783203125,994.9294541899567,,
10,Greg Brown Park,Park,2,1907 Harmon Street,http://www.cityofberkeley.info/WorkArea/linkit.aspx?LinkIdentifier=id&ItemID=12566,,,,,,,,,,,,,,,,,,,,,,,,,,,,,,2182.70166015625,278.47212047880936,,
11,Aquatic Park,Park,3,"80  Bolivar Drive, at the foot of Bancroft Way",http://www.cityofberkeley.info/ContentDisplay.aspx?id=8656,Yes,Yes,Yes,Yes,Yes,No,No,No,No,Yes,Yes,No,Yes,No,No,No,No,No,No,No,No,"Wetlands and Aquatic Park Lake, Bird-watching, Water sports (rowing, kayaking, and canoeing and water-skiing), Frisbee golf in the meadows on the east side of the park.  ",6am - 10pm,http://www.cityofberkeley.info/WorkArea/linkit.aspx?LinkIdentifier=id&ItemID=12016,http://berkeley.maps.arcgis.com/apps/MapSeries/?appid=9f3e1f5879f94163af5d3d2f85b29fe4,https://apm.activecommunities.com/cityofberkeley/Home,https://goo.gl/maps/p3LkLJ31WZp,https://goo.gl/maps/USgZzg1dZMS2,,54525.2060546875,937.8254241447746,,
12,Cragmont Park,Park,1,"960 Regal Rd, at Easter Way",http://www.cityofberkeley.info/WorkArea/linkit.aspx?LinkIdentifier=id&ItemID=12130,Yes,Yes,No,No,No,No,Yes,No,No,No,No,Yes,No,Yes,No,No,No,No,No,No,Yes,Gazebo,6am - 10pm,http://www.cityofberkeley.info/WorkArea/linkit.aspx?LinkIdentifier=id&ItemID=12130,,https://apm.activecommunities.com/cityofberkeley/Home,https://goo.gl/maps/mX35rzW6arM2,https://goo.gl/maps/LNnZ8VPX4mD2,,12807.384521484375,470.1462064077752,,
13,Dorothy Bolte Park,Park,1,540 Spruce Street at Michigan Avenue,http://www.cityofberkeley.info/WorkArea/linkit.aspx?LinkIdentifier=id&ItemID=12214,No,Yes,Yes,No,No,No,No,No,No,No,No,No,Yes,No,No,No,No,No,No,No,Yes,,6am - 10pm,http://www.cityofberkeley.info/WorkArea/linkit.aspx?LinkIdentifier=id&ItemID=12214,,https://apm.activecommunities.com/cityofberkeley/Home,https://goo.gl/maps/p4UZPBvGENJ2,https://goo.gl/maps/76G9MUSqe8q,,4716.019287109375,289.0059801034546,,
14,George Florence Park,Park,1,2121 Tenth Street between Allston and Addison,http://www.cityofberkeley.info/WorkArea/linkit.aspx?LinkIdentifier=id&ItemID=12496,No,Yes,Yes,No,No,No,No,No,No,No,No,No,Yes,No,No,No,No,No,No,No,No,,,http://www.cityofberkeley.info/Parks_Rec_Waterfront/Trees_Parks/Parks__George_Florence_Mini_Park.aspx,,https://apm.activecommunities.com/cityofberkeley/Home,https://goo.gl/maps/cTqHc26LPX72,https://goo.gl/maps/qcham5v8VQC2,,2001.813720703125,179.62539631867156,,
15,Harrison Park,Park,5,1100 4th Street  at Harrison Street,http://www.cityofberkeley.info/WorkArea/linkit.aspx?LinkIdentifier=id&ItemID=12594,No,No,No,No,No,No,No,No,No,No,No,Yes,Yes,No,No,No,No,Yes,No,No,No,"Two lighted fields for field sports, field house with meeting room",6am - 9:30pm,http://www.cityofberkeley.info/WorkArea/linkit.aspx?LinkIdentifier=id&ItemID=12594,http://berkeley.maps.arcgis.com/apps/MapSeries/?appid=9f3e1f5879f94163af5d3d2f85b29fe4,,https://goo.gl/maps/xcAUMvcv5wJ2,https://goo.gl/maps/3P7LDFuRVXn,,43624.1982421875,879.7289685220887,,
16,James Kenney Park,Park,3,1720 Eighth Street between Delaware and Virginia,http://www.cityofberkeley.info/WorkArea/linkit.aspx?LinkIdentifier=id&ItemID=12620,Yes,Yes,Yes,No,No,No,No,No,No,Yes,No,No,Yes,No,No,Yes,No,No,No,Yes,No,,6am - 10pm,http://www.cityofberkeley.info/WorkArea/linkit.aspx?LinkIdentifier=id&ItemID=12620,http://berkeley.maps.arcgis.com/apps/MapSeries/?appid=9f3e1f5879f94163af5d3d2f85b29fe4,https://apm.activecommunities.com/cityofberkeley/Home,https://goo.gl/maps/H44yQZiepP62,https://goo.gl/maps/sxs2GbBqH3M2,,14902.603271484375,526.8255164857256,,
17,Solano Peralta Park,Park,1,1559 Solano Ave at Peralta and Capistrano,http://www.cityofberkeley.info/WorkArea/linkit.aspx?LinkIdentifier=id&ItemID=12894,No,Yes,Yes,No,No,No,No,No,No,No,No,No,Yes,No,No,No,No,No,No,Yes,No,Urban plaza,6 a.m. to 10 p.m.,http://www.cityofberkeley.info/WorkArea/linkit.aspx?LinkIdentifier=id&ItemID=12894,,https://apm.activecommunities.com/cityofberkeley/Home,https://goo.gl/maps/DCsjwgRgTZs,https://goo.gl/maps/iuFRaMck9L12,,554.48583984375,98.90147502410511,,
18,Karl Linn Garden,Park,1,Karl Linn Garden,N/A,,,,,,,,,,,,,,,,,,,,,,,,,,,,,,567.737548828125,144.39046450038592,,
19,Ashby Place Park,Park,2,Ashby Place Park,N/A,,,,,,,,,,,,,,,,,,,,,,,,,,,,,,2501.49951171875,411.81206568297097,,
20,BART - Short Street Park / North,Park,3,BART - Short Street Park / North,N/A,,,,,,,,,,,,,,,,,,,,,,,,,,,,,,165.685546875,50.18772950424139,,
21,"Berkeley Lawn Bowling Club - Greens, Clubhouse",Park,3,"Berkeley Lawn Bowling Club - Greens, Clubhouse",N/A,,,,,,,,,,,,,,,,,,,,,,,,,,,,,,5202.781982421875,411.14465554294725,,
22,Strawberry Creek Park,Park,3,1260 Allston Way,http://www.cityofberkeley.info/WorkArea/linkit.aspx?LinkIdentifier=id&ItemID=12900,Yes,Yes,Yes,No,Yes,No,Yes,Yes,No,Yes,No,No,Yes,No,No,No,No,No,Yes,No,No,,6 a.m. to 10 p.m.,http://www.cityofberkeley.info/WorkArea/linkit.aspx?LinkIdentifier=id&ItemID=12900,http://berkeley.maps.arcgis.com/apps/MapSeries/?appid=9f3e1f5879f94163af5d3d2f85b29fe4,https://apm.activecommunities.com/cityofberkeley/Home,https://goo.gl/maps/35LTZPapzy32,https://goo.gl/maps/4jtfXEgXAmm,,14103.652587890625,901.589403265011,,
23,George Florence Park,Park,4,2121 Tenth Street between Allston and Addison,http://www.cityofberkeley.info/WorkArea/linkit.aspx?LinkIdentifier=id&ItemID=12496,No,Yes,Yes,No,No,No,No,No,No,No,No,No,Yes,No,No,No,No,No,No,No,No,,,http://www.cityofberkeley.info/Parks_Rec_Waterfront/Trees_Parks/Parks__George_Florence_Mini_Park.aspx,,https://apm.activecommunities.com/cityofberkeley/Home,https://goo.gl/maps/cTqHc26LPX72,https://goo.gl/maps/qcham5v8VQC2,,2018.340576171875,180.44314092268934,,
24,Bateman Mall Park,Park,2,"3027 Colby Street, near Prince Street",http://www.cityofberkeley.info/WorkArea/linkit.aspx?LinkIdentifier=id&ItemID=12030,No,Yes,Yes,No,No,No,No,No,No,No,No,No,Yes,No,No,No,No,No,No,No,No,,6am - 10pm,http://www.cityofberkeley.info/WorkArea/linkit.aspx?LinkIdentifier=id&ItemID=12030,,https://apm.activecommunities.com/cityofberkeley/Home,https://goo.gl/maps/L6LKM9ZSsdy,https://goo.gl/maps/s4CCtW8cHwv,,2235.643310546875,193.0252762066821,,
25,Marina Mall,Park,7,"201 University Ave, Berkeley Marina",http://www.cityofberkeley.info/WorkArea/linkit.aspx?LinkIdentifier=id&ItemID=12696,No,Yes,No,No,No,No,No,No,No,No,No,Yes,Yes,No,No,No,No,No,No,No,No,"Shoreline access
Access to K Dock",6 a.m. to 10 p.m.,http://www.cityofberkeley.info/WorkArea/linkit.aspx?LinkIdentifier=id&ItemID=12696,,https://apm.activecommunities.com/cityofberkeley/Home,https://goo.gl/maps/52rGcD3XfNS2,https://goo.gl/maps/BqRtXRiHV972,,503.5380859375,90.4974718335429,,
26,Live Oak Park,Park,1,1301 Shattuck Avenue,http://www.cityofberkeley.info/WorkArea/linkit.aspx?LinkIdentifier=id&ItemID=12676,Yes,Yes,Yes,No,No,No,Yes,Yes,No,Yes,No,Yes,Yes,No,No,No,No,No,Yes,No,No,"Recreation Center
Art and Garden Center
Indoor Theater",6am - 10pm,http://www.cityofberkeley.info/WorkArea/linkit.aspx?LinkIdentifier=id&ItemID=12676,http://berkeley.maps.arcgis.com/apps/MapSeries/?appid=9f3e1f5879f94163af5d3d2f85b29fe4,https://apm.activecommunities.com/cityofberkeley/Home,https://goo.gl/maps/YzqWjFSpE3n,https://goo.gl/maps/ZRfp3WH7tzk,,20024.449462890625,846.977385250264,,
27,Virginia-McGee Tot Lot,Park,1,1644 Virginia Street,http://www.cityofberkeley.info/WorkArea/linkit.aspx?LinkIdentifier=id&ItemID=12936,No,Yes,Yes,No,No,No,No,No,No,No,No,Yes,Yes,No,No,No,No,No,No,No,No,,6 a.m. to 10 p.m.,http://www.cityofberkeley.info/WorkArea/linkit.aspx?LinkIdentifier=id&ItemID=12936,,https://apm.activecommunities.com/cityofberkeley/Home,https://goo.gl/maps/yH9PwrsEveT2,https://goo.gl/maps/gxTEM2SYo4r,,1701.902099609375,164.12293748391042,,
28,UCB - People's Park,Park,UC,2556 Haste Street,http://www.cityofberkeley.info/WorkArea/linkit.aspx?LinkIdentifier=id&ItemID=12760,No,Yes,Yes,No,No,No,Yes,No,No,No,No,Yes,Yes,No,No,No,No,No,No,No,No,"Stage
Community gardens
Recreation building",6 a.m. to 10 p.m.,http://www.cityofberkeley.info/WorkArea/linkit.aspx?LinkIdentifier=id&ItemID=12760,,https://apm.activecommunities.com/cityofberkeley/Home,https://goo.gl/maps/gLy8FEZRrbD2,https://goo.gl/maps/cyfHsWQrt7z,,11116.05712890625,436.08643681047954,,
29,Monterey - Colusa Park,Park,1,Monterey - Colusa Park,N/A,,,,,,,,,,,,,,,,,,,,,,,,,,,,,,460.08984375,106.38916874861391,,
30,North Transition Parkway - Gardens,Park,1,North Transition Parkway - Gardens,N/A,,,,,,,,,,,,,,,,,,,,,,,,,,,,,,2368.8349609375,322.546814201163,,
31,Ohlone Greenway - Hopkins to Gilman,Park,1,Ohlone Park East at 1933 Hearst Ave,http://www.cityofberkeley.info/WorkArea/linkit.aspx?LinkIdentifier=id&ItemID=12716,,,,,,,,,,,,,,,,,,,,,,,,,,,,,,4029.234619140625,670.5771927001325,,
32,Ohlone Greenway - Gilman to Santa Fe,Park,1,Ohlone Park West at 1701 Hearst Avenue,http://www.cityofberkeley.info/WorkArea/linkit.aspx?LinkIdentifier=id&ItemID=12716,,,,,,,,,,,,,,,,,,,,,,,,,,,,,,2014.10302734375,252.45764603758406,,
33,63rd Street Mini-Park,Park,2,1615 63rd Street between King and California,http://www.cityofberkeley.info/WorkArea/linkit.aspx?LinkIdentifier=id&ItemID=12886,No,Yes,Yes,No,No,No,No,No,No,No,No,No,Yes,No,No,No,No,No,No,No,No,,6 a.m. to 10 p.m.,http://www.cityofberkeley.info/WorkArea/linkit.aspx?LinkIdentifier=id&ItemID=12886,,https://apm.activecommunities.com/cityofberkeley/Home,https://goo.gl/maps/TzWLnCpFunP2,https://goo.gl/maps/UaXmp5rMfcB2,,770.267578125,143.59329908471554,,
34,Aquatic Park,Park,3,"80  Bolivar Drive, at the foot of Bancroft Way",http://www.cityofberkeley.info/ContentDisplay.aspx?id=8656,Yes,Yes,Yes,Yes,Yes,No,No,No,No,Yes,Yes,No,Yes,No,No,No,No,No,No,No,No,"Wetlands and Aquatic Park Lake, Bird-watching, Water sports (rowing, kayaking, and canoeing and water-skiing), Frisbee golf in the meadows on the east side of the park.  ",6am - 10pm,http://www.cityofberkeley.info/WorkArea/linkit.aspx?LinkIdentifier=id&ItemID=12016,http://berkeley.maps.arcgis.com/apps/MapSeries/?appid=9f3e1f5879f94163af5d3d2f85b29fe4,https://apm.activecommunities.com/cityofberkeley/Home,https://goo.gl/maps/p3LkLJ31WZp,https://goo.gl/maps/USgZzg1dZMS2,,181220.70849609375,1998.5078754124602,,
35,Aquatic Park,Park,3,"80  Bolivar Drive, at the foot of Bancroft Way",http://www.cityofberkeley.info/ContentDisplay.aspx?id=8656,Yes,Yes,Yes,Yes,Yes,No,No,No,No,Yes,Yes,No,Yes,No,No,No,No,No,No,No,No,"Wetlands and Aquatic Park Lake, Bird-watching, Water sports (rowing, kayaking, and canoeing and water-skiing), Frisbee golf in the meadows on the east side of the park.  ",6am - 10pm,http://www.cityofberkeley.info/WorkArea/linkit.aspx?LinkIdentifier=id&ItemID=12016,http://berkeley.maps.arcgis.com/apps/MapSeries/?appid=9f3e1f5879f94163af5d3d2f85b29fe4,https://apm.activecommunities.com/cityofberkeley/Home,https://goo.gl/maps/p3LkLJ31WZp,https://goo.gl/maps/USgZzg1dZMS2,,122644.16577148438,1923.912665838666,,
36,Aquatic Park,Park,3,"80  Bolivar Drive, at the foot of Bancroft Way",http://www.cityofberkeley.info/ContentDisplay.aspx?id=8656,Yes,Yes,Yes,Yes,Yes,No,No,No,No,Yes,Yes,No,Yes,No,No,No,No,No,No,No,No,"Wetlands and Aquatic Park Lake, Bird-watching, Water sports (rowing, kayaking, and canoeing and water-skiing), Frisbee golf in the meadows on the east side of the park.  ",6am - 10pm,http://www.cityofberkeley.info/WorkArea/linkit.aspx?LinkIdentifier=id&ItemID=12016,http://berkeley.maps.arcgis.com/apps/MapSeries/?appid=9f3e1f5879f94163af5d3d2f85b29fe4,https://apm.activecommunities.com/cityofberkeley/Home,https://goo.gl/maps/p3LkLJ31WZp,https://goo.gl/maps/USgZzg1dZMS2,,285.275146484375,68.662290816383,,
37,Aquatic Park,Park,3,"80  Bolivar Drive, at the foot of Bancroft Way",http://www.cityofberkeley.info/ContentDisplay.aspx?id=8656,Yes,Yes,Yes,Yes,Yes,No,No,No,No,Yes,Yes,No,Yes,No,No,No,No,No,No,No,No,"Wetlands and Aquatic Park Lake, Bird-watching, Water sports (rowing, kayaking, and canoeing and water-skiing), Frisbee golf in the meadows on the east side of the park.  ",6am - 10pm,http://www.cityofberkeley.info/WorkArea/linkit.aspx?LinkIdentifier=id&ItemID=12016,http://berkeley.maps.arcgis.com/apps/MapSeries/?appid=9f3e1f5879f94163af5d3d2f85b29fe4,https://apm.activecommunities.com/cityofberkeley/Home,https://goo.gl/maps/p3LkLJ31WZp,https://goo.gl/maps/USgZzg1dZMS2,,2703.624267578125,344.8964314108708,,
38,Aquatic Park,Park,3,"80  Bolivar Drive, at the foot of Bancroft Way",http://www.cityofberkeley.info/ContentDisplay.aspx?id=8656,Yes,Yes,Yes,Yes,Yes,No,No,No,No,Yes,Yes,No,Yes,No,No,No,No,No,No,No,No,"Wetlands and Aquatic Park Lake, Bird-watching, Water sports (rowing, kayaking, and canoeing and water-skiing), Frisbee golf in the meadows on the east side of the park.  ",6am - 10pm,http://www.cityofberkeley.info/WorkArea/linkit.aspx?LinkIdentifier=id&ItemID=12016,http://berkeley.maps.arcgis.com/apps/MapSeries/?appid=9f3e1f5879f94163af5d3d2f85b29fe4,https://apm.activecommunities.com/cityofberkeley/Home,https://goo.gl/maps/p3LkLJ31WZp,https://goo.gl/maps/USgZzg1dZMS2,,1112.190185546875,176.7884049260098,,
39,Aquatic Park,Park,3,"80  Bolivar Drive, at the foot of Bancroft Way",http://www.cityofberkeley.info/ContentDisplay.aspx?id=8656,Yes,Yes,Yes,Yes,Yes,No,No,No,No,Yes,Yes,No,Yes,No,No,No,No,No,No,No,No,"Wetlands and Aquatic Park Lake, Bird-watching, Water sports (rowing, kayaking, and canoeing and water-skiing), Frisbee golf in the meadows on the east side of the park.  ",6am - 10pm,http://www.cityofberkeley.info/WorkArea/linkit.aspx?LinkIdentifier=id&ItemID=12016,http://berkeley.maps.arcgis.com/apps/MapSeries/?appid=9f3e1f5879f94163af5d3d2f85b29fe4,https://apm.activecommunities.com/cityofberkeley/Home,https://goo.gl/maps/p3LkLJ31WZp,https://goo.gl/maps/USgZzg1dZMS2,,2040.89404296875,233.63114543733934,,
40,Aquatic Park,Park,3,"80  Bolivar Drive, at the foot of Bancroft Way",http://www.cityofberkeley.info/ContentDisplay.aspx?id=8656,Yes,Yes,Yes,Yes,Yes,No,No,No,No,Yes,Yes,No,Yes,No,No,No,No,No,No,No,No,"Wetlands and Aquatic Park Lake, Bird-watching, Water sports (rowing, kayaking, and canoeing and water-skiing), Frisbee golf in the meadows on the east side of the park.  ",6am - 10pm,http://www.cityofberkeley.info/WorkArea/linkit.aspx?LinkIdentifier=id&ItemID=12016,http://berkeley.maps.arcgis.com/apps/MapSeries/?appid=9f3e1f5879f94163af5d3d2f85b29fe4,https://apm.activecommunities.com/cityofberkeley/Home,https://goo.gl/maps/p3LkLJ31WZp,https://goo.gl/maps/USgZzg1dZMS2,,4407.9619140625,287.59097412940605,,
41,Aquatic Park,Park,3,"80  Bolivar Drive, at the foot of Bancroft Way",http://www.cityofberkeley.info/ContentDisplay.aspx?id=8656,Yes,Yes,Yes,Yes,Yes,No,No,No,No,Yes,Yes,No,Yes,No,No,No,No,No,No,No,No,"Wetlands and Aquatic Park Lake, Bird-watching, Water sports (rowing, kayaking, and canoeing and water-skiing), Frisbee golf in the meadows on the east side of the park.  ",6am - 10pm,http://www.cityofberkeley.info/WorkArea/linkit.aspx?LinkIdentifier=id&ItemID=12016,http://berkeley.maps.arcgis.com/apps/MapSeries/?appid=9f3e1f5879f94163af5d3d2f85b29fe4,https://apm.activecommunities.com/cityofberkeley/Home,https://goo.gl/maps/p3LkLJ31WZp,https://goo.gl/maps/USgZzg1dZMS2,,6320.79345703125,885.1218459316882,,
42,Aquatic Park,Park,3,"80  Bolivar Drive, at the foot of Bancroft Way",http://www.cityofberkeley.info/ContentDisplay.aspx?id=8656,Yes,Yes,Yes,Yes,Yes,No,No,No,No,Yes,Yes,No,Yes,No,No,No,No,No,No,No,No,"Wetlands and Aquatic Park Lake, Bird-watching, Water sports (rowing, kayaking, and canoeing and water-skiing), Frisbee golf in the meadows on the east side of the park.  ",6am - 10pm,http://www.cityofberkeley.info/WorkArea/linkit.aspx?LinkIdentifier=id&ItemID=12016,http://berkeley.maps.arcgis.com/apps/MapSeries/?appid=9f3e1f5879f94163af5d3d2f85b29fe4,https://apm.activecommunities.com/cityofberkeley/Home,https://goo.gl/maps/p3LkLJ31WZp,https://goo.gl/maps/USgZzg1dZMS2,,7492.1591796875,569.1031857603203,,
43,Aquatic Park,Park,3,"80  Bolivar Drive, at the foot of Bancroft Way",http://www.cityofberkeley.info/ContentDisplay.aspx?id=8656,Yes,Yes,Yes,Yes,Yes,No,No,No,No,Yes,Yes,No,Yes,No,No,No,No,No,No,No,No,"Wetlands and Aquatic Park Lake, Bird-watching, Water sports (rowing, kayaking, and canoeing and water-skiing), Frisbee golf in the meadows on the east side of the park.  ",6am - 10pm,http://www.cityofberkeley.info/WorkArea/linkit.aspx?LinkIdentifier=id&ItemID=12016,http://berkeley.maps.arcgis.com/apps/MapSeries/?appid=9f3e1f5879f94163af5d3d2f85b29fe4,https://apm.activecommunities.com/cityofberkeley/Home,https://goo.gl/maps/p3LkLJ31WZp,https://goo.gl/maps/USgZzg1dZMS2,,932.932373046875,125.65939689907447,,
44,Ohlone Greenway - Santa Fe to Albany,Park,1,on Hearst Ave from Milvia to Sac Street,http://www.cityofberkeley.info/WorkArea/linkit.aspx?LinkIdentifier=id&ItemID=12716,,,,,,,,,,,,,,,,,,,,,,,,,,,,,,1184.741455078125,173.33979500126244,,
45,Ohlone Park - MLK to Sacramento,Park,1,on Hearst Ave from Milvia to Sac Street,http://www.cityofberkeley.info/WorkArea/linkit.aspx?LinkIdentifier=id&ItemID=12716,,,,,,,,,,,,,,,,,,,,,,,,,,,,,,38102.177001953125,1917.7216887549253,,
46,Old City Hall Complex,Park,2,Old City Hall Complex,N/A,,,,,,,,,,,,,,,,,,,,,,,,,,,,,,2614.617431640625,301.92307121408896,,
47,Aquatic Park,Park,3,"80  Bolivar Drive, at the foot of Bancroft Way",http://www.cityofberkeley.info/ContentDisplay.aspx?id=8656,Yes,Yes,Yes,Yes,Yes,No,No,No,No,Yes,Yes,No,Yes,No,No,No,No,No,No,No,No,"Wetlands and Aquatic Park Lake, Bird-watching, Water sports (rowing, kayaking, and canoeing and water-skiing), Frisbee golf in the meadows on the east side of the park.  ",6am - 10pm,http://www.cityofberkeley.info/WorkArea/linkit.aspx?LinkIdentifier=id&ItemID=12016,http://berkeley.maps.arcgis.com/apps/MapSeries/?appid=9f3e1f5879f94163af5d3d2f85b29fe4,https://apm.activecommunities.com/cityofberkeley/Home,https://goo.gl/maps/p3LkLJ31WZp,https://goo.gl/maps/USgZzg1dZMS2,,1921.94677734375,185.78606373844727,,
48,Bay Trail - Beach and University Avenue Ped Bridge,Park,5,West I-80 from Emeryville to Richmond,http://www.cityofberkeley.info/WorkArea/linkit.aspx?LinkIdentifier=id&ItemID=12960,No,No,No,No,No,No,No,No,No,Yes,Yes,No,Yes,No,No,No,No,No,No,No,No,Incredible views of the bay and waterfront,N/A,http://www.cityofberkeley.info/WorkArea/linkit.aspx?LinkIdentifier=id&ItemID=12960,,,https://goo.gl/maps/iXxYD8g3yo82,https://goo.gl/maps/j134Mqv7aG32,,60751.45654296875,4269.842461959407,,
49,Becky Temko Tot Park,Park,2,2424 Roosevelt St bet. Dwight and Channing,http://www.cityofberkeley.info/WorkArea/linkit.aspx?LinkIdentifier=id&ItemID=12036,No,No,Yes,No,No,No,No,No,No,No,No,No,Yes,No,No,No,No,No,No,No,No,,Dawn to Dusk,http://www.cityofberkeley.info/WorkArea/linkit.aspx?LinkIdentifier=id&ItemID=12036,,,https://goo.gl/maps/V3rtm7Cz3ep,https://goo.gl/maps/MVB3pEnQFvF2,,635.610107421875,111.4142279540427,,
50,Charlie Dorr Mini-Park,Park,3,2208 Acton Street between Allston and Bancroft,http://www.cityofberkeley.info/WorkArea/linkit.aspx?LinkIdentifier=id&ItemID=12112,No,Yes,Yes,No,No,No,No,No,No,No,No,No,Yes,No,No,No,No,No,No,No,No,,6am - 10pm,http://www.cityofberkeley.info/WorkArea/linkit.aspx?LinkIdentifier=id&ItemID=12112,,https://apm.activecommunities.com/cityofberkeley/Home,https://goo.gl/maps/xEopDaLde3U2,https://goo.gl/maps/z4PARgHgNLA2,,951.55908203125,149.38728118033356,,
51,Berkeley Rose Garden,Park,1,"1200  Euclid Avenue, across from Codornices Park",http://www.cityofberkeley.info/WorkArea/linkit.aspx?LinkIdentifier=id&ItemID=12048,No,No,No,No,No,No,No,No,No,No,No,Yes,Yes,No,No,No,No,No,No,No,No,,Dawn to Dusk,http://www.cityofberkeley.info/WorkArea/linkit.aspx?LinkIdentifier=id&ItemID=12048,http://berkeley.maps.arcgis.com/apps/MapSeries/?appid=9f3e1f5879f94163af5d3d2f85b29fe4,,https://goo.gl/maps/WjFr7qbGEcH2,https://goo.gl/maps/2LGimmwM22F2,,15167.407470703125,653.4903728422278,,
52,Codornices Park,Park,1,"1201 Euclid Avenue, across from Rose Garden",http://www.cityofberkeley.info/WorkArea/linkit.aspx?LinkIdentifier=id&ItemID=12118,Yes,Yes,Yes,No,No,Yes,Yes,No,No,Yes,No,Yes,Yes,No,No,No,No,No,No,No,Yes,,Dawn to Dusk,http://www.cityofberkeley.info/WorkArea/linkit.aspx?LinkIdentifier=id&ItemID=12118,http://berkeley.maps.arcgis.com/apps/MapSeries/?appid=9f3e1f5879f94163af5d3d2f85b29fe4,https://apm.activecommunities.com/cityofberkeley/Home,https://goo.gl/maps/ioEv87qWM9D2,https://goo.gl/maps/5P84WYC3jA32,,44966.880126953125,914.3489504479726,,
53,Berkeley Way Mini Park,Park,3,"1294 Berkeley Way, at West Street",http://www.cityofberkeley.info/WorkArea/linkit.aspx?LinkIdentifier=id&ItemID=12054,No,No,Yes,No,Yes,No,No,No,No,No,No,No,Yes,No,No,No,No,No,No,No,No,,6am - 10pm,http://www.cityofberkeley.info/WorkArea/linkit.aspx?LinkIdentifier=id&ItemID=12054,,,https://goo.gl/maps/pxTXJGSeVAz,https://goo.gl/maps/ADJVyjnG4xn,,2088.43310546875,238.7729953949465,,
54,Ohlone Park - Milvia to Bonita,Park,1,on Hearst Ave from Milvia to Sac Street,http://www.cityofberkeley.info/WorkArea/linkit.aspx?LinkIdentifier=id&ItemID=12716,,,,,,,,,,,,,,,,,,,,,,,,,,,,,,3347.372314453125,264.13687846013005,,
55,Cedar-Rose Park,Park,1,1300 Rose Street between Hopkins and Cedar Streets,http://www.cityofberkeley.info/WorkArea/linkit.aspx?LinkIdentifier=id&ItemID=12072,Yes,Yes,Yes,No,Yes,No,Yes,Yes,No,No,No,Yes,Yes,No,No,No,No,No,Yes,Yes,No,Community gardens,6am - 10pm,http://www.cityofberkeley.info/WorkArea/linkit.aspx?LinkIdentifier=id&ItemID=12072,http://berkeley.maps.arcgis.com/apps/MapSeries/?appid=9f3e1f5879f94163af5d3d2f85b29fe4,https://apm.activecommunities.com/cityofberkeley/Home,https://goo.gl/maps/jiEHDddYsVz,https://goo.gl/maps/vAuCWzT7vc32,,19551.79345703125,1053.9533888570168,,
56,Contra Costa Rock Park,Park,1,869-A Contra Costa Ave bet. Los Angeles & Yosemite,http://www.cityofberkeley.info/WorkArea/linkit.aspx?LinkIdentifier=id&ItemID=12120,No,Yes,No,No,No,No,No,No,No,No,No,No,No,Yes,No,No,No,No,No,No,Yes,,6am - 10pm,http://www.cityofberkeley.info/WorkArea/linkit.aspx?LinkIdentifier=id&ItemID=12120,,https://apm.activecommunities.com/cityofberkeley/Home,https://goo.gl/maps/Do15qYp3ADw,https://goo.gl/maps/GmfYroyYhdF2,,693.672607421875,108.44152381693034,,
57,Frederick Park,Park,1,780 Arlington Avenue at Yosemite Road,http://www.cityofberkeley.info/WorkArea/linkit.aspx?LinkIdentifier=id&ItemID=12220,No,No,No,No,No,No,No,No,No,No,No,No,Yes,No,No,No,No,No,No,No,No,,6am - 10pm,http://www.cityofberkeley.info/WorkArea/linkit.aspx?LinkIdentifier=id&ItemID=12220,,,https://goo.gl/maps/AppRQ9SnEuu,https://goo.gl/maps/Lkb41tcVq5P2,,921.58642578125,126.53540366325106,,
58,Great Stoneface Park,Park,1,"1930 Thousand Oaks Blvd, at Yosemite Rd",http://www.cityofberkeley.info/WorkArea/linkit.aspx?LinkIdentifier=id&ItemID=12556,Yes,Yes,No,No,No,No,No,No,No,No,No,No,No,Yes,No,No,No,No,No,No,No,,6am - 10pm,http://www.cityofberkeley.info/WorkArea/linkit.aspx?LinkIdentifier=id&ItemID=12556,,https://apm.activecommunities.com/cityofberkeley/Home,https://goo.gl/maps/iTrhX3svPnH2,https://goo.gl/maps/LcPEciJmFMM2,,3208.655517578125,215.77894349170526,,
59,Glendale - La Loma Park,Park,1,1310 La Loma at Glendale Avenue,http://www.cityofberkeley.info/WorkArea/linkit.aspx?LinkIdentifier=id&ItemID=12504,Yes,Yes,Yes,No,No,Yes,Yes,No,No,No,No,Yes,Yes,Yes,No,Yes,No,No,No,No,Yes,Rock outcrop,6am - 10pm,http://www.cityofberkeley.info/WorkArea/linkit.aspx?LinkIdentifier=id&ItemID=12504,,https://apm.activecommunities.com/cityofberkeley/Home,https://goo.gl/maps/n1FT8YbiSEr,https://goo.gl/maps/KPZSzjzbznL2,,22877.4267578125,793.0902305803772,,
60,Grizzly Peak Park,Park,1,50 Whitaker Ave between Miller and Sterling,http://www.cityofberkeley.info/WorkArea/linkit.aspx?LinkIdentifier=id&ItemID=12570,Yes,Yes,Yes,No,No,No,Yes,No,No,No,No,No,Yes,No,No,No,No,No,No,No,Yes,,6am - 10pm,http://www.cityofberkeley.info/WorkArea/linkit.aspx?LinkIdentifier=id&ItemID=12570,,https://apm.activecommunities.com/cityofberkeley/Home,https://goo.gl/maps/Nw9kmR3oy322,https://goo.gl/maps/SzhZtk9Tu8v,,1113.729736328125,145.88126517358094,,
61,Grotto Rock Park,Park,1,"879 Santa Barbara Road, north of Indian Rock Ave",http://www.cityofberkeley.info/WorkArea/linkit.aspx?LinkIdentifier=id&ItemID=12572,No,No,No,No,No,No,No,No,No,No,No,No,No,Yes,No,No,No,No,No,No,No,,6am - 10pm,http://www.cityofberkeley.info/WorkArea/linkit.aspx?LinkIdentifier=id&ItemID=12572,,,https://goo.gl/maps/NUoYz6ZJZ232,https://goo.gl/maps/ekn9yZfTdoE2,,1576.21337890625,164.52015596986237,,
62,YAP & Grove Street Park,Park,2,1730 Oregon Street at Martin Luther King Jr. Way,http://www.cityofberkeley.info/WorkArea/linkit.aspx?LinkIdentifier=id&ItemID=12580,Yes,Yes,Yes,No,No,Yes,Yes,Yes,No,No,No,Yes,Yes,No,No,Yes,No,No,Yes,No,No,Gym,6am - 10pm,http://www.cityofberkeley.info/WorkArea/linkit.aspx?LinkIdentifier=id&ItemID=12580,http://berkeley.maps.arcgis.com/apps/MapSeries/?appid=9f3e1f5879f94163af5d3d2f85b29fe4,https://apm.activecommunities.com/cityofberkeley/Home,,,,11663.5908203125,507.4307234863568,,
63,Haskell-Mabel Mini Park,Park,3,1255 Haskell St at the Corner of Haskell and Mabel,http://www.cityofberkeley.info/WorkArea/linkit.aspx?LinkIdentifier=id&ItemID=12604,No,No,Yes,No,No,No,No,No,No,No,No,No,Yes,No,No,No,No,No,No,No,No,,6am - 10pm,http://www.cityofberkeley.info/WorkArea/linkit.aspx?LinkIdentifier=id&ItemID=12604,,,https://goo.gl/maps/arcVqz37Tfq,https://goo.gl/maps/P4LaNenPD2G2,,469.9814453125,93.39760075483862,,
64,Indian Rock Park,Park,1,950  Indian Rock Avenue at Shattuck Avenue,http://www.cityofberkeley.info/WorkArea/linkit.aspx?LinkIdentifier=id&ItemID=12614,Yes,Yes,No,No,No,No,No,No,No,No,No,No,No,Yes,No,No,No,No,No,No,Yes,,6am - 10pm,http://www.cityofberkeley.info/WorkArea/linkit.aspx?LinkIdentifier=id&ItemID=12614,http://berkeley.maps.arcgis.com/apps/MapSeries/?appid=9f3e1f5879f94163af5d3d2f85b29fe4,https://apm.activecommunities.com/cityofberkeley/Home,https://goo.gl/maps/yLYmpLwyiLE2,https://goo.gl/maps/b7mUHuwq1Zs,,5568.657958984375,429.4380616659571,,
65,John Hinkel Park,Park,1,41 Somerset Avenue bet Southampton and San Diego,http://www.cityofberkeley.info/WorkArea/linkit.aspx?LinkIdentifier=id&ItemID=12628,Yes,Yes,Yes,No,No,No,No,No,No,Yes,No,No,Yes,No,No,Yes,No,No,No,Yes,No,Oak groves,6am - 10pm,http://www.cityofberkeley.info/WorkArea/linkit.aspx?LinkIdentifier=id&ItemID=12628,,https://apm.activecommunities.com/cityofberkeley/Home,https://goo.gl/maps/VcMhoLqWcbU2,https://goo.gl/maps/hzD7zs7EwLE2,,19190.818359375,776.850178928135,,
66,M L King Jr.  Civic Center Park,Park,2,2151 Martin Luther King Jr. Way,http://www.cityofberkeley.info/WorkArea/linkit.aspx?LinkIdentifier=id&ItemID=12700,No,No,Yes,No,No,No,No,No,No,No,No,Yes,Yes,No,No,No,No,No,No,No,No,"Festival space available for rental
Peace Wall
Staging area
Farmer's market",6 a.m. to 10 p.m.,http://www.cityofberkeley.info/WorkArea/linkit.aspx?LinkIdentifier=id&ItemID=12700,,,https://goo.gl/maps/ToyLrZ4d7N52,https://goo.gl/maps/qPmd2H2JqF52,,11338.33935546875,639.890565372965,,
67,Monkey Island Park,Park,2,Claremont Boulevard at Oak Knoll Terrace,http://www.cityofberkeley.info/WorkArea/linkit.aspx?LinkIdentifier=id&ItemID=12704,No,No,No,No,No,No,No,No,No,No,No,No,No,No,No,No,No,No,No,No,No,,6 a.m. to 10 p.m.,http://www.cityofberkeley.info/WorkArea/linkit.aspx?LinkIdentifier=id&ItemID=12704,,,https://goo.gl/maps/CUnxVMsMc6B2,https://goo.gl/maps/H1PvzsJboME2,,1160.736083984375,239.74490188739236,,
68,Mortar Rock Park,Park,1,901 Indian Rock Avenue at San Diego Road,http://www.cityofberkeley.info/WorkArea/linkit.aspx?LinkIdentifier=id&ItemID=12708,No,No,No,No,No,No,No,No,No,No,No,No,No,Yes,No,No,No,No,No,No,No,,Dawn to Dusk,http://www.cityofberkeley.info/WorkArea/linkit.aspx?LinkIdentifier=id&ItemID=12708,,,https://goo.gl/maps/NvZjsgombML2,https://goo.gl/maps/mX6JLKp7EHP2,,1701.0078125,158.52378688457406,,
69,Oak Park,Park,2,35 Domingo Avenue and El Camino Real,http://www.cityofberkeley.info/WorkArea/linkit.aspx?LinkIdentifier=id&ItemID=12714,No,No,No,No,No,No,No,No,No,No,No,No,No,No,No,No,No,No,No,No,No,"Hillside landscaping
Pleasant place to sit",6 a.m. to 10 p.m.,http://www.cityofberkeley.info/WorkArea/linkit.aspx?LinkIdentifier=id&ItemID=12714,,,https://goo.gl/maps/GNxPUAqjFir,https://goo.gl/maps/XKBoY3jq16x,,1245.597412109375,149.34316745992004,,
70,Presentation Park,Park,2,2199 California Street at  Allston Way,http://www.cityofberkeley.info/WorkArea/linkit.aspx?LinkIdentifier=id&ItemID=12764,Yes,Yes,Yes,No,No,No,No,No,No,No,No,No,Yes,No,No,No,No,No,No,No,No,,12 p.m. to 5 p.m.,http://www.cityofberkeley.info/WorkArea/linkit.aspx?LinkIdentifier=id&ItemID=12764,,https://apm.activecommunities.com/cityofberkeley/Home,https://goo.gl/maps/Xuxi6zop8aE2,https://goo.gl/maps/n3pGQCMoXZr,,915.212646484375,118.12619918309346,,
71,Prince Street Mini Park,Park,2,1631 Prince Street beetween California and King,http://www.cityofberkeley.info/WorkArea/linkit.aspx?LinkIdentifier=id&ItemID=12772,No,Yes,Yes,No,No,No,No,No,No,No,No,No,Yes,No,No,No,No,No,No,No,No,,6 a.m. to 10 p.m.,http://www.cityofberkeley.info/WorkArea/linkit.aspx?LinkIdentifier=id&ItemID=12772,,https://apm.activecommunities.com/cityofberkeley/Home,https://goo.gl/maps/xLibVtxDCBz,https://goo.gl/maps/YzcWu3xd2L12,,1792.596435546875,169.4811974814511,,
72,Remillard Park,Park,1,80 Poppy Lane at Keeler Avenue and Miller Avenue,http://www.cityofberkeley.info/WorkArea/linkit.aspx?LinkIdentifier=id&ItemID=12788,No,Yes,Yes,No,No,No,No,No,No,No,No,No,No,Yes,No,No,No,No,No,No,No,,6 a.m. to 10 p.m.,http://www.cityofberkeley.info/WorkArea/linkit.aspx?LinkIdentifier=id&ItemID=12788,,https://apm.activecommunities.com/cityofberkeley/Home,https://goo.gl/maps/PUQP8MfgoKB2,https://goo.gl/maps/wrSnTerzaK32,,7637.517822265625,508.9780839801994,,
73,Thousand Oaks School Park,Park,SD,1780 Tacoma Ave. at Ensenada Ave,http://www.cityofberkeley.info/WorkArea/linkit.aspx?LinkIdentifier=id&ItemID=12922,No,Yes,Yes,No,No,No,No,No,No,No,No,No,Yes,No,No,No,No,No,No,No,No,,8 a.m. to dusk,http://www.cityofberkeley.info/WorkArea/linkit.aspx?LinkIdentifier=id&ItemID=12922,,https://apm.activecommunities.com/cityofberkeley/Home,https://goo.gl/maps/zEMBoCZsvB12,https://goo.gl/maps/qnK7LnVMgPD2,,5402.759765625,302.6782654766832,,
74,Willard Park,Park,2,"2730 Hillegass Avenue,  at Derby Street",http://www.cityofberkeley.info/WorkArea/linkit.aspx?LinkIdentifier=id&ItemID=12952,No,Yes,Yes,No,Yes,No,No,Yes,No,No,No,Yes,Yes,No,No,Yes,No,No,No,No,No,"Tennis practice wall
Adjacent swim center",6 a.m. to 10 p.m.,http://www.cityofberkeley.info/WorkArea/linkit.aspx?LinkIdentifier=id&ItemID=12952,http://berkeley.maps.arcgis.com/apps/MapSeries/?appid=9f3e1f5879f94163af5d3d2f85b29fe4,https://apm.activecommunities.com/cityofberkeley/Home,https://goo.gl/maps/wZGzG1oaN822,https://goo.gl/maps/VhDfrYYs3VH2,,12073.874267578125,446.9546847383611,,
75,San Pablo Park,Park,3,2800 Park Street between Russell and Ward Streets,http://www.cityofberkeley.info/WorkArea/linkit.aspx?LinkIdentifier=id&ItemID=12844,Yes,Yes,Yes,No,No,Yes,Yes,Yes,No,No,No,Yes,Yes,No,No,Yes,No,No,No,No,No,Rec building,6 a.m. to 10 p.m.,http://www.cityofberkeley.info/WorkArea/linkit.aspx?LinkIdentifier=id&ItemID=12844,http://berkeley.maps.arcgis.com/apps/MapSeries/?appid=9f3e1f5879f94163af5d3d2f85b29fe4,https://apm.activecommunities.com/cityofberkeley/Home,https://goo.gl/maps/EbXB1b9vqq12,https://goo.gl/maps/osY2VuYxG612,,45842.829833984375,917.1562665862681,,
76,Malcolm X School Park,Park,SD,"3081 King Street, near Ashby Ave and Ellis",http://www.cityofberkeley.info/WorkArea/linkit.aspx?LinkIdentifier=id&ItemID=12692,No,No,Yes,No,No,No,Yes,No,No,No,No,No,Yes,No,No,No,No,No,No,Yes,No,Community garden,"School Days: 4 p.m. to dusk
Non-School Days: 8 a.m. to dusk",http://www.cityofberkeley.info/WorkArea/linkit.aspx?LinkIdentifier=id&ItemID=12692,,,https://goo.gl/maps/8x7D2Peqdi72,https://goo.gl/maps/sdaZjJmFFqQ2,,3640.427490234375,244.44192919389195,,
77,Le Conte School Park,Park,SD,"2221 Russell Street, between Ellsworth and Fulton",http://www.cityofberkeley.info/WorkArea/linkit.aspx?LinkIdentifier=id&ItemID=12668,No,No,Yes,No,No,Yes,No,No,No,No,No,No,Yes,No,No,No,No,No,No,No,No,,"School Days: 4 p.m. to dusk
Non-School Days: 8 a.m. to dusk",http://www.cityofberkeley.info/WorkArea/linkit.aspx?LinkIdentifier=id&ItemID=12668,,,https://goo.gl/maps/kcvgSrDL9op,https://goo.gl/maps/to8PVooCfSH2,,4387.578857421875,286.1556920029091,,
78,Washington School Park,Park,SD,"2300 Martin Luther King Jr. Way, 94704",http://www.cityofberkeley.info/WorkArea/linkit.aspx?LinkIdentifier=id&ItemID=12946,No,No,Yes,No,No,No,Yes,No,No,No,No,No,Yes,No,No,No,No,No,No,No,No,,"School Days: 4 p.m. to dusk
Non-School Days: 8 a.m. to dusk",http://www.cityofberkeley.info/WorkArea/linkit.aspx?LinkIdentifier=id&ItemID=12946,,,https://goo.gl/maps/oEg3M64mQR42,https://goo.gl/maps/MWapxaB2cWt,,2470.694091796875,203.91241086740348,,
79,Harrison Skate Park,Park,5,1100 4th Street  at Harrison Street,http://www.cityofberkeley.info/WorkArea/linkit.aspx?LinkIdentifier=id&ItemID=12594,No,No,No,No,No,No,No,No,No,No,No,Yes,Yes,No,No,No,No,No,No,No,No,,6am - 9:30pm,http://www.cityofberkeley.info/WorkArea/linkit.aspx?LinkIdentifier=id&ItemID=12594,,,https://goo.gl/maps/xcAUMvcv5wJ2,https://goo.gl/maps/3P7LDFuRVXn,,1983.315673828125,190.34583604361353,,
80,Terrace View Park,Park,1,1421 Queens Road near Fairlawn Drive,http://www.ci.berkeley.ca.us/ContentDisplay.aspx?id=12912,Yes,Yes,Yes,No,No,No,Yes,No,No,No,No,No,No,No,No,No,No,No,No,No,No,"Tetherball pole, tot play area, school-age play area.",6 a.m. to 10 p.m.,http://www.cityofberkeley.info/WorkArea/linkit.aspx?LinkIdentifier=id&ItemID=12912,"
https://apm.activecommunities.com/cityofberkeley/Home
",https://apm.activecommunities.com/cityofberkeley/Home,"https://goo.gl/maps/gB8EEksPuxj
https://goo.gl/maps/gB8EEksPuxj
",https://goo.gl/maps/Xq2gTaJxkYE2,,3706.698486328125,258.31235746232034,,
81,Rosa Parks School Park,Park,SD,"920 Allston Way, 94710",http://www.cityofberkeley.info/WorkArea/linkit.aspx?LinkIdentifier=id&ItemID=12794,No,No,Yes,No,No,Yes,Yes,No,No,No,No,No,Yes,No,No,No,No,No,No,No,No,"Gym
Soccer Practice area, 
Mini-track","School Days: 4 p.m. to dusk
Non-School Days: 8 a.m. to dusk",http://www.cityofberkeley.info/WorkArea/linkit.aspx?LinkIdentifier=id&ItemID=12794,,,https://goo.gl/maps/R7P8tPVhph32,https://goo.gl/maps/jiUnCLe5oEw,,15161.7861328125,588.0027732222667,,
82,John Muir School Park,Park,SD,"2955 Claremont Ave., 94705",http://www.cityofberkeley.info/WorkArea/linkit.aspx?LinkIdentifier=id&ItemID=12636,No,No,Yes,No,No,No,No,No,No,No,No,No,Yes,No,No,No,No,No,No,No,No,,School days: 4pm - dusk. Non-school days: 8am - dusk,http://www.cityofberkeley.info/WorkArea/linkit.aspx?LinkIdentifier=id&ItemID=12636,,,https://goo.gl/maps/7twAL6WF27t,https://goo.gl/maps/iP7zG9wJocs,,20701.02001953125,603.4522864048012,,
