the_geom,t_addl,street_nam,f_addl,x,t_zip,fullname,i_strno,z,speed,y,str_nam,id,mounttype,poletype
POINT (-122.27756006207463 37.84786000307448),1599,ALCATRAZ,1501,563559.531186,94702,ALCATRAZ,3301,-9.264,35,4189180.85915,SACRAMENTO ST,1,Single Pole,SINGLE POLE
POINT (-122.27760829315804 37.84782135037986),1599,ALCATRAZ,1501,563555.320199,94702,ALCATRAZ,3301,-4.693,35,4189176.53804,SACRAMENTO ST,2,Pole Mast,MASTARM POLE
POINT (-122.27763212962303 37.84797591015274),1599,ALCATRAZ,1501,563553.090967,94702,ALCATRAZ,3243,-7.294,35,4189193.67047,SACRAMENTO ST,3,Single Pole,SINGLE POLE
POINT (-122.27760546394191 37.84798132378773),1599,ALCATRAZ,1501,563555.43275,94702,ALCATRAZ,3243,-4.026,35,4189194.28887,SACRAMENTO ST,4,Single Pole,SINGLE POLE
POINT (-122.27795518661136 37.847808467749374),1499,ALCATRAZ,1401,563524.81268,94702,ALCATRAZ,1444,-8.329,35,4189174.87294,ALCATRAZ AVE,5,Single Pole,SINGLE POLE
POINT (-122.27792481976883 37.84780693050423),1499,ALCATRAZ,1401,563527.48508,94702,ALCATRAZ,1444,-3.497,35,4189174.72273,ALCATRAZ AVE,6,Single Pole,SINGLE POLE
POINT (-122.27878604196809 37.84748088393368),1499,ALCATRAZ,1401,563451.994177,94702,ALCATRAZ,1416,-7.407,35,4189137.96145,ALCATRAZ AVE,7,Single Pole,SINGLE POLE
POINT (-122.27797866035482 37.84793152765757),1499,ALCATRAZ,1401,563522.64133,94702,ALCATRAZ,1499,-9.666,35,4189188.51065,ALCATRAZ AVE,8,Pole Mast,MASTARM POLE
POINT (-122.27795869716135 37.84792682216454),1499,ALCATRAZ,1401,563524.401453,94702,ALCATRAZ,1499,-0.169,35,4189188.00165,ALCATRAZ AVE,9,Pole Mast,MASTARM POLE
POINT (-122.277837619465 37.847768473757874),3311,SACRAMENTO,3301,563535.189957,94702,SACRAMENTO,0,-8.836,35,4189170.51487,ALCATRAZ AVE,10,Pole Mast,MASTARM POLE
POINT (-122.27783918841382 37.847781133963544),3311,SACRAMENTO,3301,563535.040964,94702,SACRAMENTO,0,-2.745,35,4189171.91845,ALCATRAZ AVE,11,Pole Mast,MASTARM POLE
POINT (-122.27760929490609 37.847804651013135),3311,SACRAMENTO,3301,563555.247433,94702,SACRAMENTO,3301,-10.357,35,4189174.68448,SACRAMENTO ST,12,Single Pole,SINGLE POLE
POINT (-122.27760461883452 37.84780325506195),3311,SACRAMENTO,3301,563555.659494,94702,SACRAMENTO,3301,0.341,35,4189174.53344,SACRAMENTO ST,13,Single Pole,SINGLE POLE
POINT (-122.27791614939221 37.847977470043844),3299,SACRAMENTO,3221,563528.101547,94702,SACRAMENTO,1499,-1.637,35,4189193.65028,ALCATRAZ AVE,14,Single Pole,SINGLE POLE
POINT (-122.27769022637418 37.84800917192452),3299,SACRAMENTO,3221,563547.950783,94702,SACRAMENTO,3243,-10.542,35,4189197.32117,SACRAMENTO ST,15,Pole Mast,MASTARM POLE
POINT (-122.27768637700258 37.84801624150806),3299,SACRAMENTO,3221,563548.283438,94702,SACRAMENTO,3243,0.154,35,4189198.10822,SACRAMENTO ST,16,Pole Mast,MASTARM POLE
POINT (-122.27127000259054 37.8487215986786),1817,ALCATRAZ,1801,564112.185627,94703,ALCATRAZ,0,-4.498,35,4189280.75514,M L KING JR WAY,17,Single Pole,SINGLE POLE
POINT (-122.27115754224732 37.848909656375966),1817,ALCATRAZ,1801,564121.916895,94703,ALCATRAZ,0,-4.677,35,4189301.69789,ALCATRAZ AVE,18,Single Pole,SINGLE POLE
POINT (-122.2718114206099 37.84698128606938),0,62ND,0,564066.057751,94703,62ND,1728,0.059,35,4189087.29363,SIXTY-SECOND ST,19,Single Pole,SINGLE POLE
POINT (-122.2719057500315 37.847258684176936),0,62ND,0,564057.518498,94703,62ND,3370,-0.956,35,4189118.00683,ADELINE ST,20,Single Pole,SINGLE POLE
POINT (-122.27155352758245 37.84722858102311),0,ADELINE,0,564088.533189,94703,ADELINE,3372,-3.336,35,4189114.90777,M L KING JR WAY,21,Single Pole,SINGLE POLE
POINT (-122.27144287328106 37.84716223710204),0,ADELINE,0,564098.326587,94703,ADELINE,3372,-3.318,35,4189107.62321,M L KING JR WAY,22,Single Pole,SINGLE POLE
POINT (-122.27162966337494 37.84704729045478),0,ADELINE,0,564081.992098,94703,ADELINE,3372,-3.958,35,4189094.74114,M L KING JR WAY,23,Pole Mast,MASTARM POLE
POINT (-122.27153736322634 37.84715955627462),0,ADELINE,0,564090.015581,94703,ADELINE,3372,-2.731,35,4189107.261,M L KING JR WAY,24,Pole Mast,MASTARM POLE
POINT (-122.27161672362698 37.847306751015914),3349,ADELINE,3331,564082.905141,94703,ADELINE,3372,-2.943,35,4189123.53747,M L KING JR WAY,25,Single Pole,SINGLE POLE
POINT (-122.27925038753352 37.85333023144054),1499,ASHBY,1437,563406.130685,94702,ASHBY,1441,-7.908,35,4189786.63983,ASHBY AVE,26,Pole Mast,MASTARM POLE
POINT (-122.2791899730675 37.85335589192394),1499,ASHBY,1437,563411.424072,94702,ASHBY,1441,-6.14,35,4189789.52788,ASHBY AVE,27,Single Pole,SINGLE POLE
POINT (-122.27921738914691 37.85321463758819),1499,ASHBY,1437,563409.132823,94702,ASHBY,0,-10.263,35,4189773.83736,SACRAMENTO ST,28,Single Pole,SINGLE POLE
POINT (-122.27921020003227 37.85319753838092),1499,ASHBY,1437,563409.780002,94702,ASHBY,0,-7.868,35,4189771.94497,SACRAMENTO ST,29,Single Pole,SINGLE POLE
POINT (-122.29139474984497 37.8515905996083),2949,7TH,2929,562339.212386,94710,7TH,2936,-19.012,35,4189585.44733,SEVENTH ST,30,Single Pole,SINGLE POLE
POINT (-122.29119675037539 37.85166282206706),2949,7TH,2929,562356.570735,94703,7TH,929,-21.758,35,4189593.59246,POTTER ST,31,Pole Mast,MASTARM POLE
POINT (-122.27157586187528 37.84879006344512),1799,ALCATRAZ,1735,564085.217068,94703,ALCATRAZ,3286,-7.921,35,4189288.14091,ADELINE ST,32,Single Pole,SINGLE POLE
POINT (-122.27171925491731 37.84850892793174),3329,ADELINE,3301,564072.844151,94703,ADELINE,3300,-4.287,35,4189256.85071,ADELINE ST,33,Pole Mast,MASTARM POLE
POINT (-122.26990172134906 37.84902271614839),1899,ALCATRAZ,1819,564232.304516,94703,ALCATRAZ,1859,2.913,35,4189315.10522,ALCATRAZ AVE,34,Single Pole,SINGLE POLE
POINT (-122.27007367900936 37.84886645664185),1899,ALCATRAZ,1819,564217.31121,94703,ALCATRAZ,1850,-0.434,35,4189297.64966,ALCATRAZ AVE,35,Single Pole,SINGLE POLE
POINT (-122.27096108717242 37.84660099031841),3401,"MARTIN LUTHER KING JR, OA",3401,564141.200252,94703,MARTIN LUTHER KING JR,3363,-2.409,35,4189045.68255,M L KING JR WAY,36,Single Pole,SINGLE POLE
POINT (-122.2600196635634 37.85287540421096),6700,"TELEGRAPH, OA",6610,565098.328818,94703,"TELEGRAPH, OA",3201,26.575,35,4189749.41012,TELEGRAPH AVE,37,Single Pole,SINGLE POLE
POINT (-122.29111216284437 37.85151744312335),999,POTTER,901,562364.135053,94710,POTTER,901,-22.471,25,4189577.51884,ASHBY,38,Pole Mast,MASTARM POLE
POINT (-122.29113214233844 37.851489651177),999,POTTER,901,562362.400707,94710,POTTER,901,-22.68,25,4189574.42216,ASHBY,39,Single Pole,SINGLE POLE
POINT (-122.2791308649193 37.85313439831378),3015,SACRAMENTO,3001,563416.813052,94702,SACRAMENTO,0,-8.727,35,4189764.99337,SACRAMENTO ST,40,Pole Mast,MASTARM POLE
POINT (-122.27885145509181 37.85318850012274),3015,SACRAMENTO,3001,563441.348348,94703,SACRAMENTO,1500,-10.723,35,4189771.18568,ASHBY AVE,41,Single Pole,SINGLE POLE
POINT (-122.2909640820914 37.850916069656435),3009,7TH,3001,562377.669184,94703,7TH,0,-18.841,25,4189510.89493,SEVENTH ST,42,Single Pole,SINGLE POLE
POINT (-122.29230555549199 37.85040811159676),899,ASHBY,701,562260.077705,94703,ASHBY,819,-23.517,35,4189453.64071,FOLGER AVE,43,Single Pole,SINGLE POLE
POINT (-122.29134081846601 37.85100260505516),899,ASHBY,701,562344.452061,94710,ASHBY,2950,-21.389,35,4189520.24504,SEVENTH ST,44,Pole Mast,MASTARM POLE
POINT (-122.2912606413817 37.850834219233356),899,ASHBY,701,562351.647821,94710,ASHBY,840,-22.217,35,4189501.61547,ASHBY AVE,45,Single Pole,SINGLE POLE
POINT (-122.28928228370691 37.85173290657258),0,ASHBY,0,562524.938124,94710,ASHBY,1001,-20.201,35,4189602.64937,ASHBY AVE,46,Single Pole,SINGLE POLE
POINT (-122.2523282755244 37.85124364918755),2723,"ALCATRAZ, OA",2701,565776.422306,94705,ALCATRAZ,3201,34.008,35,4189573.75548,COLLEGE AVE,47,Single Pole,SINGLE POLE
POINT (-122.25236058608198 37.851203734150886),2723,"ALCATRAZ, OA",2701,565773.615259,94705,ALCATRAZ,3201,34.194,35,4189569.30353,COLLEGE AVE,48,Single Pole,SINGLE POLE
POINT (-122.25235945295032 37.851358038352544),2723,"ALCATRAZ, OA",2701,565773.578459,94705,ALCATRAZ,3185,33.425,35,4189586.42527,COLLEGE AVE,49,Single Pole,SINGLE POLE
POINT (-122.28356210621556 37.85272400199825),1399,ASHBY,1301,563027.329169,94702,ASHBY,3001,-16.223,35,4189716.45826,MABEL ST,50,Pole Mast,MASTARM POLE
POINT (-122.28363690597057 37.852821667157585),1399,ASHBY,1301,563020.665543,94702,ASHBY,1303,-13.118,35,4189727.2444,ASHBY AVE,51,Single Pole,SINGLE POLE
POINT (-122.28944793267013 37.85150830027714),3099,9TH,3001,562510.554636,94710,9TH,3014,-19.544,25,4189577.61766,NINTH ST,52,Single Pole,SINGLE POLE
POINT (-122.28924048819766 37.85154652416422),3099,9TH,3001,562528.772037,94710,9TH,1000,-18.781,25,4189581.99824,ASHBY AVE,53,Pole Mast,MASTARM POLE
POINT (-122.29179721764386 37.85344013041402),919,HEINZ,901,562302.248293,94710,HEINZ,914,-20.328,25,4189790.38664,HEINZ AVE,54,Single Pole,SINGLE POLE
POINT (-122.27138822857532 37.84892878811081),3299,ADELINE,3251,564101.604473,94703,ADELINE,3280,-4.561,35,4189303.662,ADELINE ST,55,Single Pole,SINGLE POLE
POINT (-122.27120122962572 37.84889444973093),3299,ADELINE,3251,564118.086267,94703,ADELINE,0,-1.335,35,4189299.98032,ALCATRAZ AVE,56,Pole Mast,MASTARM POLE
POINT (-122.29142253943752 37.85154356057627),899,POTTER,801,562336.807151,94710,POTTER,2936,-16.152,25,4189580.20962,SEVENTH ST,57,Pole Mast,MASTARM POLE
POINT (-122.29133666357494 37.85137682414631),2999,7TH,2951,562344.50291,94710,7TH,2950,-20.655,35,4189561.76804,SEVENTH ST,58,Pole Mast,MASTARM POLE
POINT (-122.27069855807046 37.8510175686979),3199,MARTIN LUTHER KING JR,3125,564160.47073,94703,MARTIN LUTHER KING JR,3140,-0.572,25,4189535.88893,M L KING JR WAY,59,Single Pole,SINGLE POLE
POINT (-122.27085418532526 37.85104892682784),3199,MARTIN LUTHER KING JR,3125,564146.752666,94703,MARTIN LUTHER KING JR,3140,2.324,25,4189539.26144,M L KING JR WAY,60,Pole Mast,MASTARM POLE
POINT (-122.2707705909355 37.851321540203564),3199,MARTIN LUTHER KING JR,3125,564153.870383,94703,MARTIN LUTHER KING JR,1840,2.223,25,4189569.56537,WOOLSEY ST,61,Single Pole,SINGLE POLE
POINT (-122.27064948719249 37.85132988332263),3199,MARTIN LUTHER KING JR,3125,564164.517056,94703,MARTIN LUTHER KING JR,1840,-1.807,25,4189570.57392,WOOLSEY ST,62,Pole Mast,MASTARM POLE
POINT (-122.27061866943842 37.85133868014639),3199,MARTIN LUTHER KING JR,3125,564167.220851,94703,MARTIN LUTHER KING JR,1840,8.093,25,4189571.57147,WOOLSEY ST,63,Pole Mast,MASTARM POLE
POINT (-122.27051218792232 37.85126003151091),3199,ADELINE,3101,564176.656719,94703,ADELINE,3175,0.402,35,4189562.91832,ADELINE ST,64,Single Pole,SINGLE POLE
POINT (-122.27891193183949 37.85339742468127),2999,SACRAMENTO,2951,563435.848658,94702,SACRAMENTO,2979,-8.954,35,4189794.32568,SACRAMENTO ST,65,Pole Mast,MASTARM POLE
POINT (-122.27881527941096 37.853256890528435),1599,ASHBY,1501,563444.471749,94703,ASHBY,1500,-10.064,35,4189778.79823,ASHBY AVE,66,Pole Mast,MASTARM POLE
POINT (-122.27884882438428 37.8533855079412),1599,ASHBY,1501,563441.410884,94702,ASHBY,2979,-10.489,35,4189793.04602,SACRAMENTO ST,67,Single Pole,SINGLE POLE
POINT (-122.29197845895874 37.85338555002216),899,HEINZ,701,562286.349909,94710,HEINZ,2910,-18.085,25,4189784.20999,SEVENTH ST,68,Pole Mast,MASTARM POLE
POINT (-122.29200668244901 37.853533859330305),899,HEINZ,701,562283.741636,94710,HEINZ,2850,-18.939,25,4189800.64636,SEVENTH ST,69,Single Pole,SINGLE POLE
POINT (-122.28683918624778 37.85202673090794),1199,ASHBY,1001,562739.622051,94702,ASHBY,3000,-16.542,35,4189636.88799,SAN PABLO AVE,70,Single Pole,SINGLE POLE
POINT (-122.28687354562882 37.85220707458154),1199,ASHBY,1001,562736.44552,94710,ASHBY,1099,-16.707,35,4189656.87388,ASHBY AVE,71,Pole Mast,MASTARM POLE
POINT (-122.28684785236861 37.852261782622975),1199,ASHBY,1001,562738.659231,94710,ASHBY,1099,-17.718,35,4189662.96129,ASHBY AVE,72,Single Pole,SINGLE POLE
POINT (-122.29098167579302 37.8511550757262),999,ASHBY,901,562375.919427,94710,ASHBY,901,-21.614,35,4189537.40166,ASHBY,73,Single Pole,SINGLE POLE
POINT (-122.29092393795072 37.850989461080836),999,ASHBY,901,562381.138721,94703,ASHBY,0,-21.315,35,4189519.06447,SEVENTH ST,74,Pole Mast,MASTARM POLE
POINT (-122.28953005217684 37.85167113442211),999,ASHBY,901,562503.192587,94710,ASHBY,931,-20.218,35,4189595.63001,ASHBY AVE,75,Pole Mast,MASTARM POLE
POINT (-122.28676797247265 37.852022061694186),3015,SAN PABLO,3001,562745.890719,94702,SAN PABLO,3000,-16.004,35,4189636.4177,SAN PABLO AVE,76,Pole Mast,MASTARM POLE
POINT (-122.2743438865485 37.8537868894644),3049,KING,3001,563837.379596,94703,KING,1654,-0.571,25,4189840.65045,ASHBY AVE,77,Single Pole,SINGLE POLE
POINT (-122.27429107192037 37.85379531644432),3049,KING,3001,563842.019066,94703,KING,1654,0.297,25,4189841.62188,ASHBY AVE,78,Single Pole,SINGLE POLE
POINT (-122.27415356989033 37.85382613229869),3049,KING,3001,563854.088793,94703,KING,3081,-1.158,25,4189845.13433,KING ST,79,Single Pole,SINGLE POLE
POINT (-122.26027569404442 37.852850041678124),2335,WOOLSEY,2301,565075.827058,94609,WOOLSEY,6699,23.661,25,4189746.41791,TELEGRAPH AVE,80,Pole Mast,MASTARM POLE
POINT (-122.26031091556797 37.85287428602456),2335,WOOLSEY,2301,565072.706407,94609,WOOLSEY,6699,23.289,25,4189749.08393,TELEGRAPH AVE,81,Single Pole,SINGLE POLE
POINT (-122.26030965783197 37.85299504429038),2335,WOOLSEY,2301,565072.711113,94705,WOOLSEY,3120,23.188,25,4189762.48221,TELEGRAPH AVE,82,Single Pole,SINGLE POLE
POINT (-122.26027271303317 37.853031658899226),2335,WOOLSEY,2301,565075.929566,94705,WOOLSEY,3120,24.897,25,4189766.57101,TELEGRAPH AVE,83,Single Pole,SINGLE POLE
POINT (-122.28386602719283 37.85277424038483),1299,ASHBY,1201,563000.549254,94702,ASHBY,2936,-13.44,35,4189721.82734,MABEL ST,84,Pole Mast,MASTARM POLE
POINT (-122.28647150340537 37.85211111976639),1299,ASHBY,1201,562771.89632,94702,ASHBY,1200,-16.783,35,4189646.49831,ASHBY AVE,85,Pole Mast,MASTARM POLE
POINT (-122.28382059560687 37.85266779872549),1299,ASHBY,1201,563004.637393,94702,ASHBY,3000,-16.164,35,4189710.04833,MABEL ST,86,Single Pole,SINGLE POLE
POINT (-122.28652730492678 37.85223314536669),1299,ASHBY,1201,562766.88473,94702,ASHBY,2995,-13.983,35,4189660.00021,SAN PABLO AVE,87,Single Pole,SINGLE POLE
POINT (-122.2743272576696 37.85381656845703),1699,ASHBY,1601,563838.816994,94703,ASHBY,1654,-0.092,35,4189843.95486,ASHBY AVE,88,Single Pole,SINGLE POLE
POINT (-122.27438714869906 37.8539144476807),1699,ASHBY,1601,563833.463884,94703,ASHBY,2998,-1.473,35,4189854.77385,KING ST,89,Pole Mast,MASTARM POLE
POINT (-122.27435571497487 37.853938588921714),1699,ASHBY,1601,563836.208057,94703,ASHBY,2998,2.296,35,4189857.47371,KING ST,90,Pole Mast,MASTARM POLE
POINT (-122.27414090538767 37.8538521412961),1799,ASHBY,1703,563855.180096,94703,ASHBY,3081,-2.152,35,4189848.02884,KING ST,91,Pole Mast,MASTARM POLE
POINT (-122.27412493312693 37.85386283944161),1799,ASHBY,1703,563856.576675,94703,ASHBY,3081,-1.593,35,4189849.22695,KING ST,92,Pole Mast,MASTARM POLE
POINT (-122.2682228975137 37.85735411935778),2899,ADELINE,2825,564372.759981,94703,ADELINE,2870,11.46,35,4190240.64326,ADELINE ST,93,Single Pole,SINGLE POLE
POINT (-122.26804721758296 37.85736811145336),2899,ADELINE,2825,564388.202189,94703,ADELINE,2020,18.575,35,4190242.31663,OREGON ST,94,Single Pole,SINGLE POLE
POINT (-122.26778183203359 37.85744737055213),2099,OREGON,2063,564411.47928,94703,OREGON,2020,7.87,25,4190251.29373,OREGON ST,95,Single Pole,SINGLE POLE
POINT (-122.2677735619086 37.85762974994865),2099,OREGON,2063,564412.048068,94703,OREGON,2801,12.745,25,4190271.5348,ADELINE ST,96,Pole Mast,MASTARM POLE
POINT (-122.26340600370166 37.85577536589253),2999,FULTON,2901,564797.878643,94705,FULTON,2201,18.394,25,4190068.81074,ASHBY AVE,97,Single Pole,SINGLE POLE
POINT (-122.25995916499711 37.853053152114725),2399,WOOLSEY,2341,565103.494062,94705,WOOLSEY,3115,22.986,25,4189769.17395,TELEGRAPH AVE,98,Single Pole,SINGLE POLE
POINT (-122.26002598066297 37.85291277009265),2399,WOOLSEY,2341,565097.739959,94703,WOOLSEY,3201,23.179,25,4189753.55198,TELEGRAPH AVE,99,Single Pole,SINGLE POLE
POINT (-122.25999367470502 37.85309584156608),3199,TELEGRAPH,3101,565100.421416,94705,TELEGRAPH,3115,25.329,35,4189773.88642,TELEGRAPH AVE,100,Pole Mast,MASTARM POLE
POINT (-122.2524891297232 37.851357409646766),3199,COLLEGE,3101,565762.170276,94705,COLLEGE,3170,35.112,35,4189586.26403,COLLEGE AVE,101,Pole Mast,MASTARM POLE
POINT (-122.24824047374003 37.854600763905374),3069,CLAREMONT,3023,566133.052553,94705,CLAREMONT,3070,53.29,35,4189949.12015,CLAREMONT AVE,102,Single Pole,SINGLE POLE
POINT (-122.24804353008341 37.8545586687861),3069,CLAREMONT,3023,566150.416307,94705,CLAREMONT,5,49.046,35,4189944.58972,THE UPLANDS,103,Pole Mast,MASTARM POLE
POINT (-122.2665835641642 37.855192262269206),3015,SHATTUCK,3001,564518.855269,94705,SHATTUCK,3000,20.974,25,4190001.91304,SHATTUCK AVE,104,Single Pole,SINGLE POLE
POINT (-122.2599761651951 37.85507720672734),2399,WEBSTER,2325,565100.219355,94705,WEBSTER,3030,25.612,25,4189993.73486,TELEGRAPH AVE,105,Pole Mast,MASTARM POLE
POINT (-122.26002909098156 37.855105556951656),2399,WEBSTER,2325,565095.538084,94705,WEBSTER,3030,25.881,25,4189996.84343,TELEGRAPH AVE,106,Single Pole,SINGLE POLE
POINT (-122.25995146632269 37.85525083170129),2399,WEBSTER,2325,565102.238678,94705,WEBSTER,3000,25.937,25,4190013.0155,TELEGRAPH AVE,107,Single Pole,SINGLE POLE
POINT (-122.25999731447708 37.85521918791984),2399,WEBSTER,2325,565098.233013,94705,WEBSTER,3000,26.391,25,4190009.47302,TELEGRAPH AVE,108,Single Pole,SINGLE POLE
POINT (-122.25966908841588 37.85515966994077),2419,WEBSTER,2401,565127.160261,94705,WEBSTER,0,27.77,25,4190003.09809,TELEGRAPH AVE,109,Single Pole,SINGLE POLE
POINT (-122.25973155244066 37.855133915233225),2419,WEBSTER,2401,565121.688211,94705,WEBSTER,0,27.862,25,4190000.19752,TELEGRAPH AVE,110,Single Pole,SINGLE POLE
POINT (-122.2596560239754 37.855292079743094),2419,WEBSTER,2401,565128.19355,94705,WEBSTER,3021,28.257,25,4190017.79832,TELEGRAPH AVE,111,Single Pole,SINGLE POLE
POINT (-122.24818831132428 37.85435827416642),3099,CLAREMONT,3071,566137.858721,94705,CLAREMONT,2,46.246,35,4189922.25243,THE UPLANDS,112,Single Pole,SINGLE POLE
POINT (-122.24832613676207 37.854468028473974),3099,CLAREMONT,3071,566125.636294,94705,CLAREMONT,3070,64.673,35,4189934.33286,CLAREMONT AVE,113,Pole Mast,MASTARM POLE
POINT (-122.24831660932887 37.85450402027529),3099,CLAREMONT,3071,566126.441642,94705,CLAREMONT,3070,59.607,35,4189938.33276,CLAREMONT AVE,114,Single Pole,SINGLE POLE
POINT (-122.26666173448962 37.8553380322957),2099,ASHBY,2041,564511.851497,94705,ASHBY,2996,16.304,35,4190018.03244,SHATTUCK AVE,115,Single Pole,SINGLE POLE
POINT (-122.26638837687312 37.8552554807513),2119,ASHBY,2101,564535.970426,94705,ASHBY,3001,14.234,35,4190009.0623,SHATTUCK AVE,116,Pole Mast,MASTARM POLE
POINT (-122.26359966598437 37.85560656530536),2199,ASHBY,2151,564780.990823,94705,ASHBY,2180,21.801,35,4190049.94771,ASHBY AVE,117,Single Pole,SINGLE POLE
POINT (-122.2636123348822 37.85574506160381),2199,ASHBY,2151,564779.755031,94705,ASHBY,2185,20.24,35,4190065.30461,ASHBY AVE,118,Single Pole,SINGLE POLE
POINT (-122.29345916098849 37.85855963785532),2599,7TH,2541,562151.742986,94710,7TH,927,-18.853,35,4190357.29603,PARKER ST,119,Pole Mast,MASTARM POLE
POINT (-122.29365342169599 37.85854855927912),2599,7TH,2541,562134.663749,94710,7TH,2530,-17.98,35,4190355.93737,SEVENTH ST,120,Single Pole,SINGLE POLE
POINT (-122.26342349163566 37.855621227903455),3099,FULTON,3001,564796.475842,94705,FULTON,3001,17.389,25,4190051.69652,FULTON ST,121,Single Pole,SINGLE POLE
POINT (-122.2437527538808 37.857925002706),29,DOMINGO,1,566524.860744,94705,DOMINGO,2,67.764,25,4190321.13889,TUNNEL RD,122,Single Pole,SINGLE POLE
POINT (-122.24395586858915 37.858002609580616),29,DOMINGO,1,566506.922876,94705,DOMINGO,3048,69.472,25,4190329.60513,ASHBY AVE,123,Single Pole,SINGLE POLE
POINT (-122.25930162701036 37.85763734318194),2421,RUSSELL,2401,565157.30524,94705,RUSSELL,2905,30.187,25,4190278.25613,TELEGRAPH AVE,124,Single Pole,SINGLE POLE
POINT (-122.25934902405764 37.85759524990993),2421,RUSSELL,2401,565153.173457,94705,RUSSELL,2905,29.835,25,4190273.5531,TELEGRAPH AVE,125,Single Pole,SINGLE POLE
POINT (-122.2593089875863 37.85774628371548),2421,RUSSELL,2401,565156.561891,94705,RUSSELL,2855,32.943,25,4190290.33807,TELEGRAPH AVE,126,Single Pole,SINGLE POLE
POINT (-122.25970679731797 37.85530196619929),3029,TELEGRAPH,3001,565123.718541,94705,TELEGRAPH,3021,28.789,35,4190018.86022,TELEGRAPH AVE,127,Pole Mast,MASTARM POLE
POINT (-122.25959510380886 37.856098326350214),3029,TELEGRAPH,3001,565132.843332,94705,TELEGRAPH,3001,30.207,35,4190107.2956,TELEGRAPH AVE,128,Single Pole,SINGLE POLE
POINT (-122.2598194664416 37.8560442370981),3029,TELEGRAPH,3001,565113.152985,94705,TELEGRAPH,3000,26.345,35,4190101.13771,TELEGRAPH AVE,129,Single Pole,SINGLE POLE
POINT (-122.27137814257574 37.8560083587344),2999,MARTIN LUTHER KING J,2901,564096.362326,94703,MARTIN LUTHER KING J,2900,2.759,35,4190089.15803,M L KING JR WAY,130,Pole Mast,MASTARM POLE
POINT (-122.27117572647744 37.856063595514954),2999,MARTIN LUTHER KING J,2901,564114.120587,94703,MARTIN LUTHER KING J,1902,4.514,35,4190095.42598,RUSSELL ST,131,Single Pole,SINGLE POLE
POINT (-122.25964545051038 37.85758793175183),2399,RUSSELL,2301,565127.103347,94705,RUSSELL,2900,25.751,25,4190272.53409,TELEGRAPH AVE,132,Single Pole,SINGLE POLE
POINT (-122.2596141402015 37.857559664103285),2399,RUSSELL,2301,565129.882513,94705,RUSSELL,2900,26.965,25,4190269.42044,TELEGRAPH AVE,133,Single Pole,SINGLE POLE
POINT (-122.25964011553286 37.85770397935218),2399,RUSSELL,2301,565127.470107,94705,RUSSELL,2850,28.794,25,4190285.41376,TELEGRAPH AVE,134,Single Pole,SINGLE POLE
POINT (-122.25960351825468 37.85773785506381),2399,RUSSELL,2301,565130.659951,94705,RUSSELL,2850,28.916,25,4190289.19723,TELEGRAPH AVE,135,Single Pole,SINGLE POLE
POINT (-122.29243979293454 37.85540721715818),2799,7TH,2741,562244.065156,94710,7TH,901,-18.523,35,4190008.20951,GRAYSON ST,136,Pole Mast,MASTARM POLE
POINT (-122.29258628178584 37.85536262788955),2799,7TH,2741,562231.215756,94710,7TH,801,-17.724,35,4190003.16452,GRAYSON ST,137,Single Pole,SINGLE POLE
POINT (-122.28810417683265 37.85611225712744),1099,GRAYSON,1025,562624.877119,94702,GRAYSON,2802,-16.596,25,4190089.33421,SAN PABLO AVE,138,Pole Mast,MASTARM POLE
POINT (-122.28815835638672 37.85612054221107),1099,GRAYSON,1025,562620.103884,94702,GRAYSON,2802,-17.4,25,4190090.21654,SAN PABLO AVE,139,Single Pole,SINGLE POLE
POINT (-122.28815562522485 37.85626033364034),1099,GRAYSON,1025,562620.225775,94702,GRAYSON,2748,-15.521,25,4190105.72939,SAN PABLO AVE,140,Single Pole,SINGLE POLE
POINT (-122.27141458751045 37.85605377062096),1899,RUSSELL,1831,564093.116482,94703,RUSSELL,2900,5.393,25,4190094.17132,M L KING JR WAY,141,Single Pole,SINGLE POLE
POINT (-122.27139831865202 37.85620110722055),1899,RUSSELL,1831,564094.420179,94703,RUSSELL,2828,3.286,25,4190110.5301,M L KING JR WAY,142,Single Pole,SINGLE POLE
POINT (-122.27143396837987 37.856161012931395),1899,RUSSELL,1831,564091.31876,94703,RUSSELL,2828,6.123,25,4190106.05646,M L KING JR WAY,143,Single Pole,SINGLE POLE
POINT (-122.27116329738247 37.85620582117536),1923,RUSSELL,1901,564115.090871,94703,RUSSELL,1901,4.203,25,4190111.21406,RUSSELL ST,144,Single Pole,SINGLE POLE
POINT (-122.27118507515 37.85609187379425),1923,RUSSELL,1901,564113.274448,94703,RUSSELL,1902,4.79,25,4190098.55728,RUSSELL ST,145,Single Pole,SINGLE POLE
POINT (-122.28015419077282 37.85787298722005),1499,WARD,1447,563322.733866,94702,WARD,2738,-5.673,25,4190290.0526,SACRAMENTO ST,146,Single Pole,SINGLE POLE
POINT (-122.28019950680076 37.85784426511413),1499,WARD,1447,563318.771715,94702,WARD,2738,-5.432,25,4190286.83533,SACRAMENTO ST,147,Single Pole,SINGLE POLE
POINT (-122.2801652980769 37.85773658928105),1499,WARD,1447,563321.873231,94702,WARD,1450,-6.011,25,4190274.91127,WARD ST,148,Single Pole,SINGLE POLE
POINT (-122.28011830143532 37.857704118550586),1499,WARD,1447,563326.035525,94702,WARD,1450,-6.301,25,4190271.34055,WARD ST,149,Pole Mast,MASTARM POLE
POINT (-122.27996651075573 37.85774605688092),2799,SACRAMENTO,2731,563339.352364,94702,SACRAMENTO,1450,-6.017,35,4190276.09684,WARD ST,150,Single Pole,SINGLE POLE
POINT (-122.27154638784194 37.85965497493506),2723,MARTIN LUTHER KING J,2701,564078.404206,94703,MARTIN LUTHER KING J,2701,6.285,35,4190493.64095,M L KING JR WAY,151,Single Pole,SINGLE POLE
POINT (-122.259405456111 37.85946351201109),2399,STUART,2301,565146.56406,94705,STUART,2800,32.255,25,4190480.80036,TELEGRAPH AVE,152,Single Pole,SINGLE POLE
POINT (-122.25941083319812 37.85957688971308),2399,STUART,2301,565145.991881,94705,STUART,2744,32.702,25,4190493.37632,TELEGRAPH AVE,153,Single Pole,SINGLE POLE
POINT (-122.2593518701884 37.85963012051777),2399,STUART,2301,565151.131517,94705,STUART,2744,32.425,25,4190499.32343,TELEGRAPH AVE,154,Single Pole,SINGLE POLE
POINT (-122.27092524308895 37.854162175532295),3099,MARTIN LUTHER KING J,3001,564137.802889,94703,MARTIN LUTHER KING J,0,0.656,25,4189884.63248,ADELINE ST,155,Pole Mast,MASTARM POLE
POINT (-122.27124828228717 37.85412865885518),3099,MARTIN LUTHER KING J,3001,564109.414101,94703,MARTIN LUTHER KING J,0,4.34,25,4189880.69152,ASHBY AVE,156,Single Pole,SINGLE POLE
POINT (-122.2693182386278 37.85476702049498),2969,ADELINE,2901,564278.65068,94703,ADELINE,2982,3.984,35,4189952.84563,ADELINE ST,157,Single Pole,SINGLE POLE
POINT (-122.26930354221264 37.854664957790355),2969,ADELINE,2901,564280.031613,94703,ADELINE,2990,4.862,35,4189941.53203,ADELINE ST,158,Pole Mast,MASTARM POLE
POINT (-122.26646550228507 37.85541225640267),2999,SHATTUCK,2901,564529.049398,94705,SHATTUCK,2999,17.414,25,4190026.40399,SHATTUCK AVE,159,Single Pole,SINGLE POLE
POINT (-122.29369103903751 37.85849412051311),899,PARKER,749,562131.400116,94710,PARKER,2530,-14.398,25,4190349.87213,SEVENTH ST,160,Pole Mast,MASTARM POLE
POINT (-122.29356608616187 37.858310440533515),2699,7TH,2601,562142.545863,94710,7TH,2600,-17.926,35,4190329.57573,SEVENTH ST,161,Pole Mast,MASTARM POLE
POINT (-122.29339258270821 37.858352821122416),2699,7TH,2601,562157.77354,94710,7TH,910,-19.761,35,4190334.39337,PARKER ST,162,Single Pole,SINGLE POLE
POINT (-122.2711994783539 37.85624270975912),2899,MARTIN LUTHER KING J,2825,564111.876155,94703,MARTIN LUTHER KING J,1901,1.645,35,4190115.28221,RUSSELL ST,163,Pole Mast,MASTARM POLE
POINT (-122.26843327511878 37.857314337558954),2059,OREGON,2001,564354.288549,94703,OREGON,2870,14.266,25,4190236.08456,ADELINE ST,164,Pole Mast,MASTARM POLE
POINT (-122.26842165449388 37.857494741289045),2059,OREGON,2001,564355.153017,94703,OREGON,2820,6.915,25,4190256.10824,ADELINE ST,165,Single Pole,SINGLE POLE
POINT (-122.27981173483977 37.857765786894824),1599,WARD,1501,563352.950344,94703,WARD,1500,-9.463,25,4190278.39093,WARD ST,166,Single Pole,SINGLE POLE
POINT (-122.27978292885479 37.857800502499984),1599,WARD,1501,563355.455002,94703,WARD,1500,-9.073,25,4190282.26161,WARD ST,167,Single Pole,SINGLE POLE
POINT (-122.2798476892346 37.85793105448004),1599,WARD,1501,563349.646428,94703,WARD,1500,-6.303,25,4190296.7035,DERBY ST,168,Pole Mast,MASTARM POLE
POINT (-122.27979672610621 37.857914503255),1599,WARD,1501,563354.143461,94703,WARD,1500,-6.472,25,4190294.90073,DERBY ST,169,Single Pole,SINGLE POLE
POINT (-122.26799758587619 37.857627484516605),2823,ADELINE,2801,564392.343313,94703,ADELINE,2801,13.767,35,4190271.1295,ADELINE ST,170,Single Pole,SINGLE POLE
POINT (-122.26815297504878 37.85756773929913),2823,ADELINE,2801,564378.724964,94703,ADELINE,2820,7,35,4190264.39296,ADELINE ST,171,Single Pole,SINGLE POLE
POINT (-122.29335373857408 37.858402860422345),939,PARKER,901,562161.148175,94710,PARKER,910,-20.403,25,4190339.97124,PARKER ST,172,Single Pole,SINGLE POLE
POINT (-122.2529711784101 37.85715233805421),2959,COLLEGE,2901,565714.616859,94705,COLLEGE,2959,39.61,35,4190228.8818,COLLEGE AVE,173,Single Pole,SINGLE POLE
POINT (-122.28000645964526 37.857919436158184),2725,SACRAMENTO,2701,563335.689666,94702,SACRAMENTO,2738,-6.226,35,4190295.30651,SACRAMENTO ST,174,Single Pole,SINGLE POLE
POINT (-122.25933277935366 37.85779589814372),2899,TELEGRAPH,2851,565154.425442,94705,TELEGRAPH,2855,32.701,35,4190295.82689,TELEGRAPH AVE,175,Pole Mast,MASTARM POLE
POINT (-122.24397522437086 37.85819403854877),2969,DOMINGO,2901,566505.048684,94705,DOMINGO,2942,79.08,25,4190350.83085,DOMINGO AVE,176,Single Pole,SINGLE POLE
POINT (-122.24367479647957 37.858188531936634),2969,DOMINGO,2901,566531.480992,94705,DOMINGO,1,80.692,25,4190350.43357,TUNNEL RD,177,Single Pole,SINGLE POLE
POINT (-122.24380731619956 37.858214346178954),2969,DOMINGO,2901,566519.800263,94705,DOMINGO,1,74.031,25,4190353.20391,TUNNEL RD,178,Single Pole,SINGLE POLE
POINT (-122.28791273517312 37.85634726218665),2739,SAN PABLO,2723,562641.520157,94702,SAN PABLO,2733,-18.866,35,4190115.53625,SAN PABLO AVE,179,Pole Mast,MASTARM POLE
POINT (-122.27124618110398 37.85432500811734),1899,ASHBY,1821,564109.428796,94703,ASHBY,2946,1.292,35,4189902.4783,M L KING JR WAY,180,Pole Mast,MASTARM POLE
POINT (-122.24190291402334 37.85729388608067),59,TUNNEL,1,566688.156751,94705,TUNNEL,48,92.231,35,4190252.43593,TUNNEL RD,181,Pole Mast,MASTARM POLE
POINT (-122.24179537271401 37.85745914136797),59,TUNNEL,1,566697.46804,94705,TUNNEL,0,89.026,35,4190270.84754,TUNNEL RD,182,Single Pole,SINGLE POLE
POINT (-122.24209963650816 37.85743143599389),59,TUNNEL,1,566670.72669,94705,TUNNEL,20,87.829,35,4190267.55683,OAK RIDGE RD,183,Single Pole,SINGLE POLE
POINT (-122.24202410483069 37.85757901137655),59,TUNNEL,1,566677.238927,94705,TUNNEL,20,86.727,35,4190283.98394,OAK RIDGE RD,184,Pole Mast,MASTARM POLE
POINT (-122.24363903926326 37.85794378887673),59,TUNNEL,1,566534.846735,94705,TUNNEL,2,79.281,35,4190323.30471,TUNNEL RD,185,Pole Mast,MASTARM POLE
POINT (-122.2436738586104 37.85810865880356),59,TUNNEL,1,566531.635477,94705,TUNNEL,1,85.561,35,4190341.57252,TUNNEL RD,186,Single Pole,SINGLE POLE
POINT (-122.24402606491242 37.85815470271081),3099,ASHBY,3001,566500.611735,94705,ASHBY,2942,75.624,35,4190346.42979,DOMINGO AVE,187,Pole Mast,MASTARM POLE
POINT (-122.24521350131441 37.857992402613654),3099,ASHBY,3001,566396.300518,94705,ASHBY,2935,65.651,35,4190327.5771,CLAREMONT AVE,188,Pole Mast,MASTARM POLE
POINT (-122.2451223091806 37.858134196956655),3099,ASHBY,3001,566404.195126,94705,ASHBY,3009,65.858,35,4190343.37493,ASHBY AVE,189,Pole Mast,MASTARM POLE
POINT (-122.24545909324006 37.8581020236028),2999,ASHBY,2937,566374.598089,94705,ASHBY,2924,65.87,35,4190339.56499,CLAREMONT AVE,190,Pole Mast,MASTARM POLE
POINT (-122.24552467710818 37.85797623859986),2999,ASHBY,2937,566368.941045,94705,ASHBY,2940,69.722,35,4190325.56284,CLAREMONT AVE,191,Single Pole,SINGLE POLE
POINT (-122.25294525624952 37.856983787750345),2997,COLLEGE,2961,565717.046668,94705,COLLEGE,2961,40.441,35,4190210.19914,COLLEGE AVE,192,Single Pole,SINGLE POLE
POINT (-122.25956422873752 37.85631650926607),2999,TELEGRAPH,2913,565135.366989,94705,TELEGRAPH,2999,28.442,35,4190131.52457,TELEGRAPH AVE,193,Single Pole,SINGLE POLE
POINT (-122.26718706069356 37.859381606195356),0,WARD,0,564462.115858,94703,,2747,17.898,25,4190466.31141,ADELINE ST,194,Single Pole,SINGLE POLE
POINT (-122.25933290738791 37.85942915263722),2849,TELEGRAPH,2801,565152.976273,94705,TELEGRAPH,2800,31.077,35,4190477.03869,TELEGRAPH AVE,195,Pole Mast,MASTARM POLE
POINT (-122.27187885118035 37.85979488505768),1899,DERBY,1801,564049.0379,94704,DERBY,2640,7.503,25,4190508.93604,M L KING JR WAY,196,Single Pole,SINGLE POLE
POINT (-122.27179823588521 37.859678771296956),1899,DERBY,1801,564056.22934,94703,DERBY,2700,6.943,25,4190496.10764,M L KING JR WAY,197,Pole Mast,MASTARM POLE
POINT (-122.2590503079387 37.859518497121805),2499,STUART,2401,565177.756917,94705,STUART,2801,31.458,25,4190487.14951,TELEGRAPH AVE,198,Single Pole,SINGLE POLE
POINT (-122.25911762300252 37.85948640116173),2499,STUART,2401,565171.863286,94705,STUART,2801,30.137,25,4190483.54096,TELEGRAPH AVE,199,Single Pole,SINGLE POLE
POINT (-122.2590378211744 37.85962990846194),2499,STUART,2401,565178.757502,94705,STUART,2455,33.526,25,4190499.51936,STUART ST,200,Single Pole,SINGLE POLE
POINT (-122.25815580192362 37.85646472247802),2999,FLORENCE,2901,565259.136172,94705,FLORENCE,2935,31.166,25,4190148.95232,FLORENCE ST,201,Pole Mast,MASTARM POLE
POINT (-122.25317941632336 37.85693643751201),2699,ASHBY,2627,565696.489775,94705,ASHBY,0,41.412,35,4190204.78076,COLLEGE AVE,202,Single Pole,SINGLE POLE
POINT (-122.25318249642012 37.857092082388064),2699,ASHBY,2627,565696.080688,94705,ASHBY,2944,40.103,35,4190222.04712,COLLEGE AVE,203,Single Pole,SINGLE POLE
POINT (-122.27154024035572 37.85969848469547),1999,DERBY,1901,564078.907527,94703,DERBY,2701,7.108,25,4190498.47268,M L KING JR WAY,204,Single Pole,SINGLE POLE
POINT (-122.2715814257381 37.85981916851442),1999,DERBY,1901,564075.179724,94703,DERBY,0,7.873,25,4190511.83405,MILVIA ST,205,Single Pole,SINGLE POLE
POINT (-122.27203978749084 37.863442848377844),2499,MARTIN LUTHER KING J,2425,564031.724278,94704,MARTIN LUTHER KING J,2489,47.863,35,4190913.57297,M L KING JR WAY,206,Pole Mast,MASTARM POLE
POINT (-122.2723037229856 37.86420055734904),2499,MARTIN LUTHER KING J,2425,564007.853161,94704,MARTIN LUTHER KING J,2424,15.311,35,4190997.46119,M L KING JR WAY,207,Single Pole,SINGLE POLE
POINT (-122.26329893699842 37.865478994582304),2299,HASTE,2231,564798.80104,94704,HASTE,2420,30.718,25,4191145.51848,ELLSWORTH ST,208,Single Pole,SINGLE POLE
POINT (-122.26326391118765 37.86535994816197),2299,HASTE,2231,564801.986503,94704,HASTE,2426,30.748,25,4191132.33509,ELLSWORTH ST,209,Single Pole,SINGLE POLE
POINT (-122.26310371304847 37.864607419367175),2499,ELLSWORTH,2425,564816.736768,94704,ELLSWORTH,2247,50.988,25,4191048.95176,DWIGHT WAY,210,Single Pole,SINGLE POLE
POINT (-122.26297813253115 37.864623857922794),2499,ELLSWORTH,2425,564827.767542,94704,ELLSWORTH,2491,48.39,25,4191050.86301,ELLSWORTH ST,211,Single Pole,SINGLE POLE
POINT (-122.29152242227671 37.86780184584175),2129,SAN PABLO,2111,562314.329897,94702,SAN PABLO,2111,-18.664,35,4191384.02525,SAN PABLO AVE,212,Single Pole,SINGLE POLE
POINT (-122.25983831137032 37.8562422750718),2399,ASHBY,2301,565111.321417,94705,ASHBY,2996,26.824,35,4190123.09744,TELEGRAPH AVE,213,Pole Mast,MASTARM POLE
POINT (-122.2598688180312 37.856099620849925),2399,ASHBY,2301,565108.762928,94705,ASHBY,3000,28.144,35,4190107.24779,TELEGRAPH AVE,214,Single Pole,SINGLE POLE
POINT (-122.25799620970827 37.856499229646154),2499,ASHBY,2441,565273.144874,94705,ASHBY,2935,32.495,35,4190152.89283,FLORENCE ST,215,Single Pole,SINGLE POLE
POINT (-122.25786742829992 37.856371787245415),2499,ASHBY,2441,565284.586048,94705,ASHBY,2450,32.526,35,4190138.84319,ASHBY AVE,216,Pole Mast,MASTARM POLE
POINT (-122.25953610366507 37.856143745547435),2431,ASHBY,2401,565137.993619,94705,ASHBY,3001,29.476,35,4190112.37619,TELEGRAPH AVE,217,Pole Mast,MASTARM POLE
POINT (-122.25811281830195 37.85632631855961),2439,ASHBY,2433,565263.03915,94705,ASHBY,2437,31.412,35,4190133.62665,WEBSTER ST,218,Single Pole,SINGLE POLE
POINT (-122.27082124888241 37.85423816682691),1967,ASHBY,1901,564146.886199,94703,ASHBY,0,-1.473,35,4189893.13514,ADELINE ST,219,Single Pole,SINGLE POLE
POINT (-122.27098726239575 37.85440918245395),1967,ASHBY,1901,564132.133713,94703,ASHBY,1901,-1.642,35,4189911.99492,ASHBY AVE,220,Single Pole,SINGLE POLE
POINT (-122.26934140297925 37.854422659002026),3019,ADELINE,3001,564276.912262,94703,ADELINE,0,1.916,35,4189914.6224,ADELINE ST,221,Single Pole,SINGLE POLE
POINT (-122.26929939943992 37.85441776660468),3019,ADELINE,3001,564280.611348,94703,ADELINE,0,4.48,35,4189914.10877,ADELINE ST,222,Pole Mast,MASTARM POLE
POINT (-122.2692871332825 37.85445816760324),3019,ADELINE,3001,564281.655687,94703,ADELINE,1985,6.195,35,4189918.59966,ASHBY AVE,223,Pole Mast,MASTARM POLE
POINT (-122.27416860374423 37.853971658737564),2999,KING,2921,563852.641029,94703,KING,2949,-1.45,25,4189861.27083,KING ST,224,Single Pole,SINGLE POLE
POINT (-122.27417618519466 37.854020047296686),2999,KING,2921,563851.931575,94703,KING,2949,-3.074,25,4189866.63459,KING ST,225,Single Pole,SINGLE POLE
POINT (-122.27431732470639 37.85398973152182),2999,KING,2921,563839.541236,94703,KING,2998,-1.552,25,4189863.17402,KING ST,226,Single Pole,SINGLE POLE
POINT (-122.29260816520919 37.85532145841232),899,GRAYSON,701,562229.324678,94710,GRAYSON,801,-17.105,25,4189998.58206,GRAYSON ST,227,Pole Mast,MASTARM POLE
POINT (-122.29185610273345 37.85359897824358),2899,7TH,2801,562296.93386,94710,7TH,901,-19.04,35,4189807.97198,HEINZ AVE,228,Pole Mast,MASTARM POLE
POINT (-122.29252729341705 37.85519073179045),2899,7TH,2801,562236.548823,94710,7TH,2800,-16.101,35,4189984.13129,SEVENTH ST,229,Pole Mast,MASTARM POLE
POINT (-122.29236059999789 37.855301018443164),925,GRAYSON,901,562251.120899,94710,GRAYSON,906,-17.206,25,4189996.47926,GRAYSON ST,230,Pole Mast,MASTARM POLE
POINT (-122.29237538835828 37.85526576032509),925,GRAYSON,901,562249.849456,94710,GRAYSON,906,-17.225,25,4189992.55725,GRAYSON ST,231,Single Pole,SINGLE POLE
POINT (-122.26873148096256 37.85500893371382),2049,ASHBY,2001,564330.05888,94703,ASHBY,2035,10.748,35,4189980.09119,ASHBY AVE,232,Single Pole,SINGLE POLE
POINT (-122.27233556605711 37.86431069113859),2423,MARTIN LUTHER KING J,2401,564004.956355,94704,MARTIN LUTHER KING J,2422,15.232,35,4191009.65846,M L KING JR WAY,233,Single Pole,SINGLE POLE
POINT (-122.27213076841868 37.86435972910381),2423,MARTIN LUTHER KING J,2401,564022.928261,94704,MARTIN LUTHER KING J,1903,13.951,35,4191015.23999,HASTE ST,234,Single Pole,SINGLE POLE
POINT (-122.26558094082137 37.86518679742602),2199,HASTE,2101,564598.33307,94704,HASTE,2137,25.628,25,4191111.51768,HASTE ST,235,Pole Mast,MASTARM POLE
POINT (-122.26556015218303 37.86506017949036),2199,HASTE,2101,564600.272292,94704,HASTE,2424,24.868,25,4191097.48335,FULTON ST,236,Pole Mast,MASTARM POLE
POINT (-122.26736099104669 37.86498525720993),2199,HASTE,2101,564441.93609,94704,HASTE,2429,21.901,25,4191087.926,SHATTUCK AVE,237,Single Pole,SINGLE POLE
POINT (-122.27206753411511 37.864223614300315),1999,HASTE,1901,564028.608657,94704,HASTE,2429,16.207,25,4191000.18172,M L KING JR WAY,238,Single Pole,SINGLE POLE
POINT (-122.26512793136037 37.86420586674965),2299,DWIGHT,2201,564639.036517,94704,DWIGHT,2511,47.942,35,4191002.99535,FULTON ST,239,Single Pole,SINGLE POLE
POINT (-122.26303421603853 37.86445614050894),2521,ELLSWORTH,2501,564822.981652,94704,ELLSWORTH,2248,47.862,25,4191032.21523,DWIGHT WAY,240,Single Pole,SINGLE POLE
POINT (-122.26749648945474 37.86388014860806),2099,DWIGHT,2001,564430.979751,94704,DWIGHT,2500,52.925,35,4190965.21854,SHATTUCK AVE,241,Single Pole,SINGLE POLE
POINT (-122.26767506550568 37.86399634280382),2099,DWIGHT,2001,564415.170508,94704,DWIGHT,2484,48.415,35,4190977.98677,SHATTUCK AVE,242,Single Pole,SINGLE POLE
POINT (-122.29414551448319 37.860076942313455),899,DWIGHT,851,562090.092817,94710,DWIGHT,740,-16.758,25,4190525.18603,DWIGHT WAY,243,Pole Mast,MASTARM POLE
POINT (-122.2941812634316 37.86010951398816),899,DWIGHT,851,562086.920718,94710,DWIGHT,740,-22.093,25,4190528.77705,DWIGHT WAY,244,Single Pole,SINGLE POLE
POINT (-122.29435624038004 37.860187688326896),899,DWIGHT,851,562071.463832,94710,DWIGHT,851,-20.734,25,4190537.33377,DWIGHT WAY,245,Single Pole,SINGLE POLE
POINT (-122.2938801358712 37.8601165907497),923,DWIGHT,901,562113.403838,94710,DWIGHT,2520,-19.022,35,4190529.7618,EIGHTH ST,246,Single Pole,SINGLE POLE
POINT (-122.25833869531154 37.865093695171964),2519,DWIGHT,2501,565235.440763,94704,DWIGHT,2502,49.768,35,4191106.22503,DWIGHT WAY,247,Single Pole,SINGLE POLE
POINT (-122.25908913956164 37.85966478696174),2799,TELEGRAPH,2731,565174.212359,94705,TELEGRAPH,2455,33.096,35,4190503.35353,STUART ST,248,Pole Mast,MASTARM POLE
POINT (-122.29433886509561 37.86025079017179),899,DWIGHT,801,562072.938869,94710,DWIGHT,851,-18.276,25,4190544.34637,DWIGHT WAY,249,Single Pole,SINGLE POLE
POINT (-122.29509682048997 37.86059286866453),899,DWIGHT,801,562005.978942,94710,DWIGHT,2437,-21.619,25,4190581.79694,SIXTH ST,250,Single Pole,SINGLE POLE
POINT (-122.27161560089942 37.85985676648318),2699,MARTIN LUTHER KING J,2625,564072.141376,94703,MARTIN LUTHER KING J,0,8.27,35,4190515.98238,MILVIA ST,251,Pole Mast,MASTARM POLE
POINT (-122.28964977567351 37.86099448692744),1099,DWIGHT,1051,562484.788417,94702,DWIGHT,2500,-17.504,35,4190629.98943,SAN PABLO AVE,252,Pole Mast,MASTARM POLE
POINT (-122.28972889916929 37.861016452008656),1099,DWIGHT,1051,562477.810129,94702,DWIGHT,2500,-16.087,35,4190632.37297,SAN PABLO AVE,253,Single Pole,SINGLE POLE
POINT (-122.2897631667168 37.86112066625375),1099,DWIGHT,1051,562474.707608,94702,DWIGHT,2448,-18.364,35,4190643.9134,SAN PABLO AVE,254,Single Pole,SINGLE POLE
POINT (-122.28940385127109 37.8610341650997),1113,DWIGHT,1101,562506.388008,94702,DWIGHT,2501,-18.672,35,4190634.55663,SAN PABLO AVE,255,Single Pole,SINGLE POLE
POINT (-122.28937299477866 37.86107663802256),1113,DWIGHT,1101,562509.066719,94702,DWIGHT,2501,-14.55,35,4190639.28941,SAN PABLO AVE,256,Single Pole,SINGLE POLE
POINT (-122.2670967558863 37.8639599571613),2199,DWIGHT,2101,564466.070936,94704,DWIGHT,2104,47.918,35,4190974.3496,DWIGHT WAY,257,Single Pole,SINGLE POLE
POINT (-122.26721213328946 37.86391516092984),2199,DWIGHT,2101,564455.961891,94704,DWIGHT,2104,47.564,35,4190969.29929,DWIGHT WAY,258,Single Pole,SINGLE POLE
POINT (-122.26535066987066 37.864175803459396),2199,DWIGHT,2101,564619.470392,94704,DWIGHT,2180,47.946,35,4190999.5048,DWIGHT WAY,259,Single Pole,SINGLE POLE
POINT (-122.26712499669338 37.864072004984216),2199,DWIGHT,2101,564463.489305,94704,DWIGHT,2107,48.252,35,4190986.76224,DWIGHT WAY,260,Single Pole,SINGLE POLE
POINT (-122.26539879577369 37.864258725211826),2199,DWIGHT,2101,564615.164424,94704,DWIGHT,2175,26.158,35,4191008.67272,DWIGHT WAY,261,Pole Mast,MASTARM POLE
POINT (-122.27240104646478 37.8650857199217),1899,CHANNING,1827,563998.526389,94704,CHANNING,2400,9.521,25,4191095.6045,M L KING JR WAY,262,Pole Mast,MASTARM POLE
POINT (-122.27247213831792 37.86522099080566),1899,CHANNING,1827,563992.156353,94703,CHANNING,1843,10.863,25,4191110.5642,CHANNING WAY,263,Single Pole,SINGLE POLE
POINT (-122.29400691804688 37.860291232328095),2499,7TH,2401,562102.105031,94710,7TH,907,-19.429,35,4190549.05403,DWIGHT WAY,264,Pole Mast,MASTARM POLE
POINT (-122.28122254657474 37.8620973174928),1499,DWIGHT,1451,563225.143297,94702,DWIGHT,2500,-3.78,35,4190758.02466,SACRAMENTO ST,265,Single Pole,SINGLE POLE
POINT (-122.28131201448772 37.862221306593916),1499,DWIGHT,1451,563217.167313,94702,DWIGHT,2452,-2.612,35,4190771.72096,SACRAMENTO ST,266,Single Pole,SINGLE POLE
POINT (-122.28127783200722 37.86225279012499),1499,DWIGHT,1451,563220.147877,94702,DWIGHT,2452,-2.37,35,4190775.23688,SACRAMENTO ST,267,Single Pole,SINGLE POLE
POINT (-122.28107823846287 37.86210492933842),2549,SACRAMENTO,2501,563237.830765,94702,SACRAMENTO,2500,-3.979,35,4190758.96676,SACRAMENTO ST,268,Single Pole,SINGLE POLE
POINT (-122.2969579136736 37.865221351980686),819,ALLSTON,801,561838.400525,94710,ALLSTON,2200,-19.244,25,4191094.09947,SIXTH ST,269,Single Pole,SINGLE POLE
POINT (-122.29694146484256 37.8652639859025),819,ALLSTON,801,561839.810943,94710,ALLSTON,815,-22.1,25,4191098.84134,ALLSTON WAY,270,Single Pole,SINGLE POLE
POINT (-122.29689028700297 37.86511618265787),2299,6TH,2201,561844.436239,94710,6TH,2200,-22.263,35,4191082.47549,SIXTH ST,271,Pole Mast,MASTARM POLE
POINT (-122.29671191476267 37.86516599356054),2299,6TH,2201,561860.084822,94710,6TH,2207,-22.852,35,4191088.1202,SIXTH ST,272,Single Pole,SINGLE POLE
POINT (-122.28089075449542 37.86215920316439),1525,DWIGHT,1501,563254.276599,94702,DWIGHT,1518,-4.059,35,4190765.11514,DWIGHT WAY,273,Single Pole,SINGLE POLE
POINT (-122.28090437657033 37.86213142737846),1525,DWIGHT,1501,563253.101396,94702,DWIGHT,1518,-4.304,35,4190762.02478,DWIGHT WAY,274,Single Pole,SINGLE POLE
POINT (-122.28093324118421 37.86228455677223),1525,DWIGHT,1501,563250.431902,94703,DWIGHT,2495,-4.036,35,4190778.99525,SACRAMENTO ST,275,Single Pole,SINGLE POLE
POINT (-122.25883999996259 37.86151498326516),2699,TELEGRAPH,2629,565194.4984,94704,TELEGRAPH,2655,36.735,35,4190708.80933,TELEGRAPH AVE,276,Pole Mast,MASTARM POLE
POINT (-122.24707801432321 37.862567191470006),2939,DERBY,2935,566228.188002,94704,DERBY,2951,78.299,25,4190833.83392,DERBY ST,277,Single Pole,SINGLE POLE
POINT (-122.24727389531984 37.86248856873531),2939,DERBY,2935,566211.029067,94704,DERBY,2951,82.561,25,4190824.97193,DERBY ST,278,Pole Mast,MASTARM POLE
POINT (-122.24728792857255 37.86242105255527),2939,DERBY,2935,566209.854477,94705,DERBY,2700,82.113,25,4190817.4705,CLAREMONT BLVD,279,Single Pole,SINGLE POLE
POINT (-122.24690152431425 37.86245610153525),2981,DERBY,2941,566243.812002,94705,DERBY,2701,80.457,25,4190821.63351,CLAREMONT BLVD,280,Single Pole,SINGLE POLE
POINT (-122.24695523430256 37.86258537574746),2981,DERBY,2941,566238.972675,94704,DERBY,2951,77.586,25,4190835.93926,DERBY ST,281,Single Pole,SINGLE POLE
POINT (-122.27225927256855 37.86340704579086),1899,DWIGHT,1821,564012.449423,94704,DWIGHT,2488,46.716,35,4190909.45036,M L KING JR WAY,282,Single Pole,SINGLE POLE
POINT (-122.27219197251888 37.863250561921646),2529,MARTIN LUTHER KING J,2501,564018.504624,94704,MARTIN LUTHER KING J,2500,9.182,35,4190892.13368,M L KING JR WAY,283,Pole Mast,MASTARM POLE
POINT (-122.2719922135546 37.86343312039809),1999,DWIGHT,1901,564035.917913,94704,DWIGHT,2489,47.385,35,4190912.52605,M L KING JR WAY,284,Single Pole,SINGLE POLE
POINT (-122.2719670331543 37.863313991338615),1999,DWIGHT,1901,564038.235879,94704,DWIGHT,2500,46.184,35,4190899.32564,MILVIA ST,285,Single Pole,SINGLE POLE
POINT (-122.27197983461107 37.863289447172505),1999,DWIGHT,1901,564037.131204,94704,DWIGHT,2500,45.794,35,4190896.59411,MILVIA ST,286,Single Pole,SINGLE POLE
POINT (-122.28112024505836 37.86228863059147),2499,SACRAMENTO,2401,563233.979346,94702,SACRAMENTO,2452,-3.839,35,4190779.32013,SACRAMENTO ST,287,Single Pole,SINGLE POLE
POINT (-122.26523077831621 37.86416442097271),2527,FULTON,2501,564630.025953,94704,FULTON,2180,48.42,25,4190998.32518,DWIGHT WAY,288,Single Pole,SINGLE POLE
POINT (-122.26515848250075 37.864167855250855),2527,FULTON,2501,564636.382516,94704,FULTON,2511,47.531,25,4190998.75692,FULTON ST,289,Single Pole,SINGLE POLE
POINT (-122.2628945070815 37.86450004574958),2399,DWIGHT,2301,564835.23214,94704,DWIGHT,2503,47.981,35,4191037.18416,ELLSWORTH ST,290,Single Pole,SINGLE POLE
POINT (-122.2607726647845 37.86474050705901),2517,DANA,2501,565021.658839,94704,DANA,2500,34.924,25,4191065.33961,DANA ST,291,Single Pole,SINGLE POLE
POINT (-122.2606424416891 37.86477344186524),2517,DANA,2501,565033.084951,94704,DANA,2501,34.36,25,4191069.08398,DANA ST,292,Single Pole,SINGLE POLE
POINT (-122.26757611033142 37.86478085218118),2099,HASTE,2001,564423.192131,94704,HASTE,2450,23.171,25,4191065.09785,SHATTUCK AVE,293,Single Pole,SINGLE POLE
POINT (-122.26772870629244 37.8647945771623),2099,HASTE,2001,564409.757472,94704,HASTE,2450,22.278,25,4191066.5159,SHATTUCK AVE,294,Single Pole,SINGLE POLE
POINT (-122.26776526427368 37.86490470902778),2099,HASTE,2001,564406.445796,94704,HASTE,2440,22.735,25,4191078.70979,SHATTUCK AVE,295,Single Pole,SINGLE POLE
POINT (-122.26726358266089 37.86408377317504),2499,SHATTUCK,2451,564451.289437,94704,SHATTUCK,2107,21.037,35,4190987.97134,DWIGHT WAY,296,Single Pole,SINGLE POLE
POINT (-122.26737671374623 37.86407514519279),2499,SHATTUCK,2451,564441.345055,94704,SHATTUCK,2107,21.448,35,4190986.93571,DWIGHT WAY,297,Single Pole,SINGLE POLE
POINT (-122.26537711021942 37.86508002234274),2499,FULTON,2425,564616.355122,94704,FULTON,2206,24.702,25,4191099.81133,HASTE ST,298,Single Pole,SINGLE POLE
POINT (-122.26520650071144 37.864315182763335),2499,FULTON,2425,564632.029965,94704,FULTON,2201,48.045,25,4191015.06908,DWIGHT WAY,299,Single Pole,SINGLE POLE
POINT (-122.25853708209546 37.86503043742054),2499,DWIGHT,2401,565218.046182,94704,DWIGHT,2482,50.208,35,4191099.06758,TELEGRAPH AVE,300,Single Pole,SINGLE POLE
POINT (-122.25845258534655 37.86425605956539),2549,TELEGRAPH,2501,565226.160491,94704,TELEGRAPH,2539,42.277,35,4191013.20773,TELEGRAPH AVE,301,Pole Mast,MASTARM POLE
POINT (-122.27216958454102 37.865148622678014),1999,CHANNING,1901,564018.831123,94704,CHANNING,1900,12.39,25,4191102.74209,CHANNING WAY,302,Single Pole,SINGLE POLE
POINT (-122.26704489776272 37.85950830929197),2733,SHATTUCK,2701,564474.510803,94705,SHATTUCK,2721,18.044,25,4190480.46717,SHATTUCK AVE,303,Single Pole,SINGLE POLE
POINT (-122.26711015718938 37.85965395440381),2733,SHATTUCK,2701,564468.643248,94705,SHATTUCK,2721,19.423,25,4190496.58221,SHATTUCK AVE,304,Single Pole,SINGLE POLE
POINT (-122.26711792576174 37.859506464666964),2733,SHATTUCK,2701,564468.088232,94705,SHATTUCK,2721,21.438,25,4190480.21147,SHATTUCK AVE,305,Single Pole,SINGLE POLE
POINT (-122.26694777991699 37.85954791048513),2733,SHATTUCK,2701,564483.019594,94705,SHATTUCK,2721,16.198,25,4190484.92793,SHATTUCK AVE,306,Pole Mast,MASTARM POLE
POINT (-122.25912666057556 37.86127012885061),2419,DERBY,2401,565169.49825,94705,DERBY,2706,37.167,25,4190681.44262,TELEGRAPH AVE,307,Pole Mast,MASTARM POLE
POINT (-122.25915675352668 37.86130669076286),2419,DERBY,2401,565166.818332,94705,DERBY,2706,37.433,25,4190685.478,TELEGRAPH AVE,308,Single Pole,SINGLE POLE
POINT (-122.25908919316642 37.86146021272111),2419,DERBY,2401,565172.626881,94704,DERBY,2650,38.51,25,4190702.55849,TELEGRAPH AVE,309,Single Pole,SINGLE POLE
POINT (-122.25914263138915 37.861420870475115),2419,DERBY,2401,565167.960723,94704,DERBY,2650,38.601,25,4190698.15634,TELEGRAPH AVE,310,Single Pole,SINGLE POLE
POINT (-122.25878804763684 37.86137415914635),2499,DERBY,2421,565199.192192,94705,DERBY,2700,35.086,25,4190693.22138,REGENT ST,311,Single Pole,SINGLE POLE
POINT (-122.25882574893075 37.861344687172405),2499,DERBY,2421,565195.901904,94705,DERBY,2700,33.4,25,4190689.9253,REGENT ST,312,Single Pole,SINGLE POLE
POINT (-122.2587500647441 37.864118830962084),2499,BLAKE,2457,565200.115719,94704,BLAKE,2556,30.031,25,4190997.77399,TELEGRAPH AVE,313,Single Pole,SINGLE POLE
POINT (-122.25873024539729 37.86405700913519),2499,BLAKE,2457,565201.912695,94704,BLAKE,2556,40.57,25,4190990.92878,TELEGRAPH AVE,314,Pole Mast,MASTARM POLE
POINT (-122.258755791663 37.86422682828899),2499,BLAKE,2457,565199.516545,94704,BLAKE,2430,35.407,25,4191009.75278,DWIGHT WAY,315,Single Pole,SINGLE POLE
POINT (-122.25870333105922 37.864243370192305),2499,BLAKE,2457,565204.116394,94704,BLAKE,2430,41.624,25,4191011.62457,DWIGHT WAY,316,Single Pole,SINGLE POLE
POINT (-122.25847354450951 37.86406320781166),2599,TELEGRAPH,2551,565224.486816,94704,TELEGRAPH,2587,40.773,35,4190991.79603,TELEGRAPH AVE,317,Single Pole,SINGLE POLE
POINT (-122.28946915662651 37.86120592224938),2499,SAN PABLO,2401,562500.498006,94702,SAN PABLO,2451,-19.266,35,4190653.56884,SAN PABLO AVE,318,Pole Mast,MASTARM POLE
POINT (-122.28971818748849 37.861177366626634),2499,SAN PABLO,2401,562478.616377,94702,SAN PABLO,2448,-18.6,35,4190650.23446,SAN PABLO AVE,319,Single Pole,SINGLE POLE
POINT (-122.29777683401183 37.867846888250064),0,UNIVERSITY,0,561764.177152,94710,UNIVERSITY,824,-21.921,25,4191384.86519,UNIVERSITY AVE,320,Single Pole,SINGLE POLE
POINT (-122.29772336424061 37.867825450216365),2099,6TH,2001,561768.898074,94710,6TH,824,-22.973,35,4191382.52177,UNIVERSITY AVE,321,Pole Mast,MASTARM POLE
POINT (-122.2976487661197 37.86817838886073),1999,6TH,1901,561775.164938,94710,6TH,833,-23.673,35,4191421.73042,UNIVERSITY AVE,322,Pole Mast,MASTARM POLE
POINT (-122.29759872167968 37.8681193503166),1999,6TH,1901,561779.615548,94710,6TH,833,-21.734,35,4191415.21295,UNIVERSITY AVE,323,Single Pole,SINGLE POLE
POINT (-122.29814314214534 37.8691672014145),1999,6TH,1901,561730.85629,94710,6TH,1904,-21.809,35,4191531.11343,SIXTH ST,324,Pole Mast,MASTARM POLE
POINT (-122.29199238838022 37.869071707136285),1199,UNIVERSITY,1101,562271.924256,94702,UNIVERSITY,2001,-19.841,35,4191524.60471,SAN PABLO AVE,325,Pole Mast,MASTARM POLE
POINT (-122.2923365333996 37.86922525288103),1999,SAN PABLO,1901,562241.526302,94702,SAN PABLO,1976,-16.919,35,4191541.41067,SAN PABLO AVE,326,Single Pole,SINGLE POLE
POINT (-122.29207585458414 37.86930762495919),1999,SAN PABLO,1901,562264.384999,94702,SAN PABLO,1101,-19.766,35,4191550.72475,UNIVERSITY AVE,327,Single Pole,SINGLE POLE
POINT (-122.29201219842983 37.86923104958268),1999,SAN PABLO,1901,562270.047762,94702,SAN PABLO,1101,-17.558,35,4191542.27053,UNIVERSITY AVE,328,Single Pole,SINGLE POLE
POINT (-122.3057321050686 37.86628670811274),599,UNIVERSITY,201,561065.747965,94710,UNIVERSITY,599,-28.092,25,4191206.5261,UNIVERSITY AVE,329,Single Pole,SINGLE POLE
POINT (-122.2911355039965 37.86647511337753),1127,ALLSTON,1101,562349.479955,94702,ALLSTON,2197,-13.844,25,4191237.07962,SAN PABLO AVE,330,Single Pole,SINGLE POLE
POINT (-122.29110903507913 37.86634143281087),1127,ALLSTON,1101,562351.92085,94702,ALLSTON,2201,-16.351,25,4191222.26528,SAN PABLO AVE,331,Single Pole,SINGLE POLE
POINT (-122.29108687583343 37.86637416775571),1127,ALLSTON,1101,562353.841532,94702,ALLSTON,2201,-16.025,25,4191225.91264,SAN PABLO AVE,332,Single Pole,SINGLE POLE
POINT (-122.29678072523173 37.865316688996245),2199,6TH,2101,561853.90636,94710,6TH,2131,-22.076,35,4191104.795,SIXTH ST,333,Pole Mast,MASTARM POLE
POINT (-122.29182909316751 37.86769735986764),1099,ADDISON,1023,562287.444279,94702,ADDISON,2100,-16.066,25,4191372.22721,SAN PABLO AVE,334,Pole Mast,MASTARM POLE
POINT (-122.2919114309488 37.867877174579476),1099,ADDISON,1023,562280.050588,94702,ADDISON,2096,-16.786,25,4191392.12248,SAN PABLO AVE,335,Single Pole,SINGLE POLE
POINT (-122.29136004473891 37.86627894661658),1099,ALLSTON,1021,562329.895114,94702,ALLSTON,2200,-16.944,25,4191215.16537,SAN PABLO AVE,336,Pole Mast,MASTARM POLE
POINT (-122.29143503002355 37.8663030839036),1099,ALLSTON,1021,562323.278797,94702,ALLSTON,2200,-17.111,25,4191217.79367,SAN PABLO AVE,337,Single Pole,SINGLE POLE
POINT (-122.29146336598522 37.8664079477676),1099,ALLSTON,1021,562320.697745,94702,ALLSTON,2198,-16.467,25,4191229.40913,SAN PABLO AVE,338,Single Pole,SINGLE POLE
POINT (-122.2914509048196 37.866443636998596),1099,ALLSTON,1021,562321.764522,94702,ALLSTON,2198,-16.483,25,4191233.37733,SAN PABLO AVE,339,Single Pole,SINGLE POLE
POINT (-122.2978546478381 37.86808935863603),829,UNIVERSITY,801,561757.130009,94710,UNIVERSITY,811,-21.792,25,4191411.71614,UNIVERSITY AVE,340,Pole Mast,MASTARM POLE
POINT (-122.29753207458947 37.86795590059807),899,UNIVERSITY,831,561785.614305,94710,UNIVERSITY,830,-20.602,35,4191397.12203,UNIVERSITY AVE,341,Single Pole,SINGLE POLE
POINT (-122.2945142857654 37.86848204557059),2099,9TH,2001,562050.606304,94710,9TH,990,-13.606,25,4191457.50128,UNIVERSITY AVE,342,Single Pole,SINGLE POLE
POINT (-122.29446181638343 37.868483325544034),2099,9TH,2001,562055.219379,94710,9TH,990,-13.692,25,4191457.67818,UNIVERSITY AVE,343,Single Pole,SINGLE POLE
POINT (-122.29429960409193 37.868557077780814),2099,9TH,2001,562069.424779,94710,9TH,1000,-14.881,25,4191465.96873,UNIVERSITY AVE,344,Single Pole,SINGLE POLE
POINT (-122.29429848015504 37.86860041513414),1013,UNIVERSITY,1001,562069.48781,94710,UNIVERSITY,1000,-13.715,35,4191470.77813,UNIVERSITY AVE,345,Single Pole,SINGLE POLE
POINT (-122.29237480564353 37.869169353993705),1099,UNIVERSITY,1015,562238.2073,94702,UNIVERSITY,1976,-16.675,35,4191535.18295,SAN PABLO AVE,346,Pole Mast,MASTARM POLE
POINT (-122.29223412363598 37.86896344257605),1099,UNIVERSITY,1015,562250.754022,94710,UNIVERSITY,1074,-13.743,35,4191512.43071,UNIVERSITY AVE,347,Pole Mast,MASTARM POLE
POINT (-122.29229107533442 37.86899151050373),1099,UNIVERSITY,1015,562245.72049,94710,UNIVERSITY,1074,-17.158,35,4191515.50713,UNIVERSITY AVE,348,Single Pole,SINGLE POLE
POINT (-122.2982459280176 37.869377090799645),825,HEARST,801,561721.640327,94710,HEARST,1816,-19.834,25,4191554.3331,SIXTH ST,349,Single Pole,SINGLE POLE
POINT (-122.29797626763256 37.869264021156354),899,HEARST,827,561745.452493,94710,HEARST,1901,-23.854,25,4191541.96616,SIXTH ST,350,Single Pole,SINGLE POLE
POINT (-122.28765602478998 37.86979819998718),1259,UNIVERSITY,1251,562652.713922,94702,UNIVERSITY,1261,-7.609,35,4191608.11219,UNIVERSITY AVE,351,Pole Mast,MASTARM POLE
POINT (-122.28758717689006 37.86961677679789),1259,UNIVERSITY,1251,562658.922324,94720,UNIVERSITY,0,-7.22,35,4191588.02954,UNIVERSITY AVE,352,Single Pole,SINGLE POLE
POINT (-122.28736181815825 37.86961637010565),2099,BONAR,2001,562678.744038,94702,BONAR,1248,-8.936,25,4191588.13538,UNIVERSITY AVE,353,Pole Mast,MASTARM POLE
POINT (-122.28747534547185 37.869824966516354),1299,UNIVERSITY,1261,562668.581899,94702,UNIVERSITY,1261,-7.841,35,4191611.20367,UNIVERSITY AVE,354,Single Pole,SINGLE POLE
POINT (-122.29439785831212 37.86882460807401),1999,9TH,1901,562060.55875,94710,9TH,1001,-15.669,25,4191495.5863,UNIVERSITY AVE,355,Single Pole,SINGLE POLE
POINT (-122.29433689557827 37.86881362456667),1999,9TH,1901,562065.929707,94710,9TH,1001,-15.808,25,4191494.40859,UNIVERSITY AVE,356,Single Pole,SINGLE POLE
POINT (-122.29459007053964 37.86873117005237),1999,9TH,1901,562043.731248,94710,9TH,997,-15.875,25,4191485.09118,UNIVERSITY AVE,357,Single Pole,SINGLE POLE
POINT (-122.29456010386902 37.86875707753309),1999,9TH,1901,562046.345539,94710,9TH,997,-15.734,25,4191487.98587,UNIVERSITY AVE,358,Single Pole,SINGLE POLE
POINT (-122.29806175338892 37.86943674906638),1899,6TH,1801,561737.789998,94710,6TH,827,-22.545,35,4191561.07429,HEARST AVE,359,Pole Mast,MASTARM POLE
POINT (-122.29120203731311 37.86652325904991),2199,SAN PABLO,2131,562343.586663,94702,SAN PABLO,2197,-17.704,35,4191242.37749,SAN PABLO AVE,360,Pole Mast,MASTARM POLE
POINT (-122.29169238612819 37.86795801617779),2109,SAN PABLO,2101,562299.248457,94702,SAN PABLO,2111,-17.221,35,4191401.23911,SAN PABLO AVE,361,Pole Mast,MASTARM POLE
POINT (-122.29202528675059 37.869024094980034),2099,SAN PABLO,2001,562269.070619,94702,SAN PABLO,2001,-17.677,35,4191519.29923,SAN PABLO AVE,362,Single Pole,SINGLE POLE
POINT (-122.25874183257956 37.865957409309935),2499,HASTE,2401,565199.219627,94704,HASTE,2464,46.216,25,4191201.77357,TELEGRAPH AVE,363,Single Pole,SINGLE POLE
POINT (-122.26081283635821 37.865675567648815),2499,HASTE,2401,565017.303878,94704,HASTE,2400,43.189,25,4191169.05825,HASTE ST,364,Single Pole,SINGLE POLE
POINT (-122.2587652908441 37.866050746964945),2499,HASTE,2401,565197.073872,94704,HASTE,2432,44.286,25,4191212.11343,TELEGRAPH AVE,365,Single Pole,SINGLE POLE
POINT (-122.26770386885622 37.86939064193157),2199,ALLSTON,2101,564407.941501,94704,ALLSTON,2108,22.387,25,4191576.47427,ALLSTON WAY,366,Single Pole,SINGLE POLE
POINT (-122.26772673908658 37.86949443903914),2199,ALLSTON,2101,564405.839619,94704,ALLSTON,2187,23.749,25,4191587.97529,SHATTUCK AVE,367,Single Pole,SINGLE POLE
POINT (-122.26743670728806 37.86572218782845),2199,CHANNING,2101,564434.63406,94704,CHANNING,2401,19.944,25,4191169.63743,SHATTUCK AVE,368,Single Pole,SINGLE POLE
POINT (-122.26738816034924 37.86575955166641),2199,CHANNING,2101,564438.871933,94704,CHANNING,2401,21.23,25,4191173.8161,SHATTUCK AVE,369,Single Pole,SINGLE POLE
POINT (-122.26742275709198 37.86587451045488),2199,CHANNING,2101,564435.728445,94704,CHANNING,2399,21.159,25,4191186.54724,SHATTUCK AVE,370,Single Pole,SINGLE POLE
POINT (-122.25097770884524 37.865964367048576),2859,DWIGHT,2841,565882.135696,94704,DWIGHT,2499,51.438,25,4191207.99772,PIEDMONT AVE,371,Single Pole,SINGLE POLE
POINT (-122.25074991763317 37.86587188543144),2859,DWIGHT,2841,565902.254188,94704,DWIGHT,2450,50.816,25,4191197.89769,WARRING ST,372,Single Pole,SINGLE POLE
POINT (-122.2583865276908 37.86519542065116),2499,TELEGRAPH,2451,565231.143098,94704,TELEGRAPH,2499,50.473,35,4191117.47761,TELEGRAPH AVE,373,Single Pole,SINGLE POLE
POINT (-122.25843645335215 37.865217039851586),2499,TELEGRAPH,2451,565226.732216,94704,TELEGRAPH,2499,50.752,35,4191119.8415,TELEGRAPH AVE,374,Single Pole,SINGLE POLE
POINT (-122.25855535557592 37.86520456673267),2499,TELEGRAPH,2451,565216.284808,94704,TELEGRAPH,2482,50.575,35,4191118.37485,TELEGRAPH AVE,375,Single Pole,SINGLE POLE
POINT (-122.25857911477169 37.86594339803772),2499,TELEGRAPH,2451,565213.544618,94704,TELEGRAPH,2455,43.593,35,4191200.33281,TELEGRAPH AVE,376,Single Pole,SINGLE POLE
POINT (-122.25889551027576 37.86776393887975),2599,DURANT,2501,565184.110624,94704,DURANT,2500,52.484,25,4191402.10411,DURANT AVE,377,Single Pole,SINGLE POLE
POINT (-122.25664126675753 37.86802383199841),2399,BOWDITCH,2321,565382.156217,94704,BOWDITCH,2600,51.266,25,4191432.51616,DURANT AVE,378,Single Pole,SINGLE POLE
POINT (-122.25678255136923 37.86800179600473),2399,BOWDITCH,2321,565369.749217,94704,BOWDITCH,2328,51.363,25,4191429.97293,BOWDITCH ST,379,Single Pole,SINGLE POLE
POINT (-122.26313833519494 37.86554329178784),2423,ELLSWORTH,2401,564812.871859,94704,ELLSWORTH,2301,30.434,25,4191152.76419,HASTE ST,380,Single Pole,SINGLE POLE
POINT (-122.25853620237044 37.86598562821573),2599,HASTE,2501,565217.281707,94704,HASTE,2455,43.874,25,4191205.04829,TELEGRAPH AVE,381,Single Pole,SINGLE POLE
POINT (-122.2589310929353 37.86693127386664),2499,CHANNING,2401,565181.714662,94704,CHANNING,2392,48.89,25,4191309.69296,TELEGRAPH AVE,382,Pole Mast,MASTARM POLE
POINT (-122.28180449083357 37.86727682038077),1499,ALLSTON,1401,563169.532274,94702,ALLSTON,2200,-4.064,25,4191332.30495,SACRAMENTO ST,383,Single Pole,SINGLE POLE
POINT (-122.28186700618183 37.86740114748875),1499,ALLSTON,1401,563163.927942,94702,ALLSTON,2152,0.085,25,4191346.05727,SACRAMENTO ST,384,Single Pole,SINGLE POLE
POINT (-122.28166662507498 37.867278067612475),2299,SACRAMENTO,2201,563181.656965,94702,SACRAMENTO,2200,-1.683,35,4191332.53695,SACRAMENTO ST,385,Single Pole,SINGLE POLE
POINT (-122.28154983355078 37.86751521695606),2167,SACRAMENTO,2101,563191.72781,94703,SACRAMENTO,2153,3.313,35,4191358.92823,SACRAMENTO ST,386,Single Pole,SINGLE POLE
POINT (-122.2816718481463 37.867506774572206),2167,SACRAMENTO,2101,563181.002533,94702,SACRAMENTO,2152,-2.133,35,4191357.90919,SACRAMENTO ST,387,Single Pole,SINGLE POLE
POINT (-122.26814035561365 37.868504897687764),2099,KITTREDGE,2051,564370.320813,94704,KITTREDGE,2060,23.131,25,4191477.89864,ALLSTON WAY,388,Single Pole,SINGLE POLE
POINT (-122.26815286081934 37.86838535325488),2099,KITTREDGE,2051,564369.325367,94704,KITTREDGE,2090,22.99,25,4191464.62684,KITTREDGE ST,389,Single Pole,SINGLE POLE
POINT (-122.26780680398464 37.86769740048365),2299,SHATTUCK,2251,564400.362151,94704,SHATTUCK,2276,21.947,35,4191388.53514,SHATTUCK AVE,390,Single Pole,SINGLE POLE
POINT (-122.2676966075635 37.86771900137462),2299,SHATTUCK,2251,564410.035287,94704,SHATTUCK,2105,22.957,35,4191391.00773,BANCROFT WAY,391,Single Pole,SINGLE POLE
POINT (-122.26364964936907 37.867131316276065),2299,DURANT,2201,564766.506542,94704,DURANT,2298,35.683,25,4191328.6041,DURANT AVE,392,Single Pole,SINGLE POLE
POINT (-122.26567710246931 37.86687801940304),2299,DURANT,2201,564588.398617,94704,DURANT,2200,25.26,25,4191299.09506,DURANT AVE,393,Single Pole,SINGLE POLE
POINT (-122.26367067929833 37.86728219427367),2299,DURANT,2201,564764.524734,94704,DURANT,2241,38.081,25,4191345.32992,DURANT AVE,394,Single Pole,SINGLE POLE
POINT (-122.25386358087373 37.86576762391311),2499,COLLEGE,2431,565628.472681,94704,COLLEGE,0,61.596,35,4191184.13486,DWIGHT WAY,395,Pole Mast,MASTARM POLE
POINT (-122.25412298465704 37.86650345062501),2499,COLLEGE,2431,565605.002831,94704,COLLEGE,2612,60.284,35,4191265.59422,HASTE ST,396,Single Pole,SINGLE POLE
POINT (-122.25417837764455 37.86756159770064),2399,COLLEGE,2321,565599.192691,94704,COLLEGE,2345,62.32,35,4191382.95904,COLLEGE AVE,397,Single Pole,SINGLE POLE
POINT (-122.25434453711699 37.86823864386233),2399,COLLEGE,2321,565583.977641,94704,COLLEGE,2333,60.458,35,4191457.96227,COLLEGE AVE,398,Single Pole,SINGLE POLE
POINT (-122.2544991402687 37.86829226372942),2399,COLLEGE,2321,565570.332127,94704,COLLEGE,0,61.381,35,4191463.80178,COLLEGE AVE,399,Single Pole,SINGLE POLE
POINT (-122.26101546393501 37.86575886439765),2399,HASTE,2301,564999.407562,94704,HASTE,2418,42.205,25,4191178.15941,DANA ST,400,Single Pole,SINGLE POLE
POINT (-122.26780199161058 37.86570457393807),2099,CHANNING,2001,564402.519737,94704,CHANNING,2410,18.736,25,4191167.43146,SHATTUCK AVE,401,Single Pole,SINGLE POLE
POINT (-122.26768475234202 37.8656772873048),2099,CHANNING,2001,564412.855804,94704,CHANNING,2410,18.419,25,4191164.48449,SHATTUCK AVE,402,Single Pole,SINGLE POLE
POINT (-122.26782083712375 37.865821157928),2099,CHANNING,2001,564400.760246,94707,CHANNING,2352,23.007,25,4191180.35322,SHATTUCK AVE,403,Single Pole,SINGLE POLE
POINT (-122.26773268149421 37.86586316780043),2099,CHANNING,2001,564408.47813,94707,CHANNING,2352,21.312,25,4191185.07513,SHATTUCK AVE,404,Single Pole,SINGLE POLE
POINT (-122.26750959541063 37.86495939721065),2449,SHATTUCK,2401,564428.886894,94704,SHATTUCK,2440,21.371,35,4191084.9542,SHATTUCK AVE,405,Single Pole,SINGLE POLE
POINT (-122.26758471703053 37.86569866019344),2449,SHATTUCK,2401,564421.635739,94704,SHATTUCK,2410,19.035,35,4191166.92457,SHATTUCK AVE,406,Single Pole,SINGLE POLE
POINT (-122.25402392317402 37.86577975286221),2699,DWIGHT,2641,565614.358582,94704,DWIGHT,2612,59.425,35,4191185.36797,HASTE ST,407,Single Pole,SINGLE POLE
POINT (-122.2540080310174 37.865633780826506),2699,DWIGHT,2641,565615.885691,94704,DWIGHT,2504,60.064,35,4191169.1835,COLLEGE AVE,408,Single Pole,SINGLE POLE
POINT (-122.25141025391636 37.86594017571296),2839,DWIGHT,2801,565844.110661,94704,DWIGHT,2513,51.071,25,4191205.00856,PIEDMONT AVE,409,Single Pole,SINGLE POLE
POINT (-122.2511203826334 37.8658124804893),0,PIEDMONT,0,565869.721832,94704,PIEDMONT,2513,51.066,25,4191191.04454,PIEDMONT AVE,410,Single Pole,SINGLE POLE
POINT (-122.26085540155819 37.86583229645443),2419,DANA,2403,565013.422634,94704,DANA,2407,41.961,25,4191186.41808,DANA ST,411,Single Pole,SINGLE POLE
POINT (-122.26783002274271 37.866594355245205),2099,DURANT,2001,564399.279838,94707,DURANT,2352,22.797,25,4191266.13482,SHATTUCK AVE,412,Pole Mast,MASTARM POLE
POINT (-122.26759420760904 37.86590175694907),2399,SHATTUCK,2341,564420.624187,94707,SHATTUCK,2352,21.258,35,4191189.45233,SHATTUCK AVE,413,Single Pole,SINGLE POLE
POINT (-122.2542033197437 37.86663878282195),2699,HASTE,2601,565597.81718,94704,HASTE,0,59.645,25,4191280.55288,CHANNING WAY,414,Single Pole,SINGLE POLE
POINT (-122.2540158511758 37.866614931289874),0,COLLEGE,0,565614.327805,94704,COLLEGE,2425,57.025,35,4191278.03845,COLLEGE AVE,415,Single Pole,SINGLE POLE
POINT (-122.25397886454095 37.86647664882323),2799,HASTE,2701,565617.703999,94704,HASTE,2431,59.538,25,4191262.72202,COLLEGE AVE,416,Single Pole,SINGLE POLE
POINT (-122.27258141523869 37.866918660057166),1899,BANCROFT,1821,563981.076182,94704,BANCROFT,0,10.168,25,4191298.84878,M L KING JR WAY,417,Pole Mast,MASTARM POLE
POINT (-122.27224208535394 37.865275381587615),2399,MARTIN LUTHER KING J,2301,564012.344393,94704,MARTIN LUTHER KING J,0,9.725,35,4191116.75661,M L KING JR WAY,418,Pole Mast,MASTARM POLE
POINT (-122.26743840135862 37.86679601142283),2199,DURANT,2101,564433.550321,94704,DURANT,2333,24.382,25,4191288.77853,SHATTUCK AVE,419,Single Pole,SINGLE POLE
POINT (-122.26584885699964 37.866816009979644),2399,FULTON,2321,564573.345136,94704,FULTON,2140,27.034,25,4191292.09609,DURANT AVE,420,Single Pole,SINGLE POLE
POINT (-122.26571085515175 37.86683871817189),2399,FULTON,2321,564585.464352,94704,FULTON,2200,24.848,25,4191294.7113,DURANT AVE,421,Single Pole,SINGLE POLE
POINT (-122.25855520042738 37.866826315062),2599,CHANNING,2501,565214.869534,94704,CHANNING,2409,46.862,25,4191298.31114,TELEGRAPH AVE,422,Single Pole,SINGLE POLE
POINT (-122.25870967801063 37.8669134783027),2599,CHANNING,2501,565201.205024,94704,CHANNING,2409,46.512,25,4191307.87378,TELEGRAPH AVE,423,Single Pole,SINGLE POLE
POINT (-122.25872607306543 37.86690806562262),2599,CHANNING,2501,565199.768166,94704,CHANNING,2409,47.099,25,4191307.26208,TELEGRAPH AVE,424,Single Pole,SINGLE POLE
POINT (-122.25872936001021 37.866983406360326),2599,CHANNING,2501,565199.412398,94704,CHANNING,2375,45.351,25,4191315.61889,TELEGRAPH AVE,425,Single Pole,SINGLE POLE
POINT (-122.2683319648396 37.87019491743185),2099,CENTER,2001,564351.998524,94704,CENTER,2150,27.723,25,4191665.27738,SHATTUCK AVE,426,Single Pole,SINGLE POLE
POINT (-122.26831360254123 37.87033980672082),2099,CENTER,2001,564353.487321,94704,CENTER,2144,26.426,25,4191681.36585,SHATTUCK AVE,427,Single Pole,SINGLE POLE
POINT (-122.26343918984549 37.867176832755874),2399,DURANT,2301,564784.978189,94704,DURANT,2300,34.518,25,4191333.79958,DURANT AVE,428,Single Pole,SINGLE POLE
POINT (-122.25417796716137 37.8674353899766),2429,COLLEGE,2401,565599.340651,94704,COLLEGE,2700,59.706,35,4191368.95609,CHANNING WAY,429,Single Pole,SINGLE POLE
POINT (-122.25433330755352 37.867418723017884),2699,CHANNING,2601,565585.692188,94704,CHANNING,0,56.904,25,4191366.99735,CHANNING WAY,430,Single Pole,SINGLE POLE
POINT (-122.25439473213206 37.867540547518495),2699,CHANNING,2601,565580.181886,94704,CHANNING,0,65.012,25,4191380.47147,COLLEGE AVE,431,Pole Mast,MASTARM POLE
POINT (-122.26807275157059 37.86762194856205),2099,BANCROFT,2001,564377.035737,94704,BANCROFT,2276,21.286,25,4191379.98035,SHATTUCK AVE,432,Single Pole,SINGLE POLE
POINT (-122.26793732258932 37.86768283605668),2099,BANCROFT,2001,564388.894725,94704,BANCROFT,2276,21.579,25,4191386.82963,SHATTUCK AVE,433,Single Pole,SINGLE POLE
POINT (-122.2680375695432 37.8675110385611),2099,BANCROFT,2001,564380.226559,94704,BANCROFT,2300,21.831,25,4191367.69895,SHATTUCK AVE,434,Single Pole,SINGLE POLE
POINT (-122.26758440980525 37.866823846803264),2339,SHATTUCK,2301,564420.68338,94704,SHATTUCK,2333,24.121,35,4191291.76664,SHATTUCK AVE,435,Single Pole,SINGLE POLE
POINT (-122.26788498597038 37.867462397986564),2339,SHATTUCK,2301,564393.689344,94704,SHATTUCK,2300,20.871,35,4191362.40751,SHATTUCK AVE,436,Single Pole,SINGLE POLE
POINT (-122.26779233546682 37.86750450521344),2339,SHATTUCK,2301,564401.802786,94704,SHATTUCK,2300,21.015,35,4191367.14251,SHATTUCK AVE,437,Single Pole,SINGLE POLE
POINT (-122.26781498405589 37.86680147690238),2339,SHATTUCK,2301,564400.422454,94704,SHATTUCK,2300,23.028,35,4191289.12554,SHATTUCK AVE,438,Single Pole,SINGLE POLE
POINT (-122.26609389930339 37.86785466608521),2199,BANCROFT,2101,564550.885836,94704,BANCROFT,2288,27.032,35,4191407.16782,FULTON ST,439,Single Pole,SINGLE POLE
POINT (-122.26601985423468 37.8677286410206),2319,FULTON,2301,564557.508094,94704,FULTON,2190,32.065,25,4191393.23577,BANCROFT WAY,440,Single Pole,SINGLE POLE
POINT (-122.26594666801302 37.867741487814776),2319,FULTON,2301,564563.934424,94704,FULTON,2190,29.502,25,4191394.71213,BANCROFT WAY,441,Single Pole,SINGLE POLE
POINT (-122.26596357670313 37.86789834231639),0,BANCROFT,0,564562.310212,94704,,2288,27.116,35,4191412.10323,FULTON ST,442,Single Pole,SINGLE POLE
POINT (-122.25414383694952 37.86745872631287),2799,CHANNING,2701,565602.321929,94704,CHANNING,2700,59.572,25,4191371.5697,CHANNING WAY,443,Single Pole,SINGLE POLE
POINT (-122.26112549932637 37.86743730343217),2499,DURANT,2401,564988.255244,94704,DURANT,2436,44.21,25,4191364.30771,DURANT AVE,444,Single Pole,SINGLE POLE
POINT (-122.25879890103522 37.86702091069137),2399,TELEGRAPH,2351,565193.262792,94704,TELEGRAPH,2375,47.072,35,4191319.73101,TELEGRAPH AVE,445,Single Pole,SINGLE POLE
POINT (-122.26123049651513 37.86760339891262),2349,DANA,2301,564978.873893,94704,DANA,2418,45.481,25,4191382.66371,BANCROFT WAY,446,Single Pole,SINGLE POLE
POINT (-122.26759160179837 37.86849134573972),2199,KITTREDGE,2101,564418.599155,94704,KITTREDGE,2110,25.406,25,4191476.77386,KITTREDGE ST,447,Single Pole,SINGLE POLE
POINT (-122.2676646495535 37.86858615097173),2199,KITTREDGE,2101,564412.091462,94704,KITTREDGE,2231,24.364,25,4191487.24168,SHATTUCK AVE,448,Single Pole,SINGLE POLE
POINT (-122.26585944403273 37.86791407853044),2299,FULTON,2231,564571.456254,94704,FULTON,2200,23.328,25,4191413.92165,BANCROFT WAY,449,Single Pole,SINGLE POLE
POINT (-122.2658685327688 37.86791692920765),2299,FULTON,2231,564570.654243,94704,FULTON,2200,26.567,25,4191414.23158,BANCROFT WAY,450,Single Pole,SINGLE POLE
POINT (-122.27287767106387 37.86883840837964),1899,ALLSTON,1829,563953.359393,94703,ALLSTON,2100,15.044,25,4191511.64547,M L KING JR WAY,451,Single Pole,SINGLE POLE
POINT (-122.27280632534269 37.86869685333008),1899,ALLSTON,1829,563959.756485,94704,ALLSTON,2200,12.943,25,4191495.98913,M L KING JR WAY,452,Single Pole,SINGLE POLE
POINT (-122.27239602023643 37.86699124920519),2299,MARTIN LUTHER KING J,2201,563997.320721,94703,MARTIN LUTHER KING J,2239,9.374,35,4191307.02988,M L KING JR WAY,453,Single Pole,SINGLE POLE
POINT (-122.25931511840054 37.86874963156725),2499,BANCROFT,2401,565146.335261,94720,BANCROFT,2301,51.017,35,4191511.17531,BANCROFT WAY,454,Single Pole,SINGLE POLE
POINT (-122.26003205471638 37.86867093880439),2499,BANCROFT,2401,565083.345735,94720,BANCROFT,2301,47.723,35,4191501.94432,BANCROFT WAY,455,Pole Mast,MASTARM POLE
POINT (-122.25996969534162 37.86852390493109),2499,BANCROFT,2401,565088.959986,94704,BANCROFT,2462,54.387,35,4191485.67455,BANCROFT WAY,456,Pole Mast,MASTARM POLE
POINT (-122.259258093963 37.868609505036964),2499,BANCROFT,2401,565151.473865,94704,BANCROFT,2300,54.195,35,4191495.66854,TELEGRAPH AVE,457,Single Pole,SINGLE POLE
POINT (-122.2589446491764 37.8679270728067),2349,TELEGRAPH,2301,565179.64473,94704,TELEGRAPH,2347,53.43,35,4191420.16938,TELEGRAPH AVE,458,Single Pole,SINGLE POLE
POINT (-122.25433489727793 37.86828747155055),2799,DURANT,2701,565584.782262,94704,DURANT,2333,60.918,25,4191463.38571,COLLEGE AVE,459,Single Pole,SINGLE POLE
POINT (-122.27255913897156 37.86873753112274),1999,ALLSTON,1901,563981.463011,94704,ALLSTON,2223,12.575,25,4191500.67096,M L KING JR WAY,460,Single Pole,SINGLE POLE
POINT (-122.27053454089753 37.868998322170114),1999,ALLSTON,1901,564159.311281,94704,ALLSTON,2223,15.295,25,4191530.99595,M L KING JR WAY,461,Single Pole,SINGLE POLE
POINT (-122.27059136752342 37.869129575182505),1999,ALLSTON,1901,564154.198978,94704,ALLSTON,0,21.416,25,4191545.52042,CENTER ST,462,Single Pole,SINGLE POLE
POINT (-122.27035899118688 37.86899426911114),2219,MILVIA,2201,564174.755304,94704,MILVIA,0,14.314,25,4191530.66729,MILVIA ST,463,Single Pole,SINGLE POLE
POINT (-122.2568207177041 37.868200479661056),2319,BOWDITCH,2301,565366.216398,94704,BOWDITCH,2316,50.542,25,4191451.99012,BOWDITCH ST,464,Single Pole,SINGLE POLE
POINT (-122.25668482762772 37.86822430997853),2319,BOWDITCH,2301,565378.147692,94704,BOWDITCH,2601,50.345,25,4191454.72929,DURANT AVE,465,Single Pole,SINGLE POLE
POINT (-122.2703453551709 37.869030188512426),2059,ALLSTON,2001,564175.922974,94704,ALLSTON,0,14.732,25,4191534.66205,MILVIA ST,466,Single Pole,SINGLE POLE
POINT (-122.25453882596355 37.86849640421439),2319,COLLEGE,2301,565566.660249,94704,COLLEGE,2647,63.759,35,4191486.42362,DURANT AVE,467,Single Pole,SINGLE POLE
POINT (-122.25439675639194 37.86845559992002),2319,COLLEGE,2301,565579.192283,94704,COLLEGE,2701,63.881,35,4191481.9966,DURANT AVE,468,Single Pole,SINGLE POLE
POINT (-122.26807356805195 37.86926003185338),2099,ALLSTON,2061,564375.538331,94704,ALLSTON,2060,20.545,25,4191561.72778,ALLSTON WAY,469,Single Pole,SINGLE POLE
POINT (-122.2682317194244 37.86928409701864),2099,ALLSTON,2061,564361.607347,94704,ALLSTON,2060,29.179,25,4191564.28932,ALLSTON WAY,470,Single Pole,SINGLE POLE
POINT (-122.26828021818167 37.86939515459065),2099,ALLSTON,2061,564357.244936,94704,ALLSTON,2190,25.75,25,4191576.57819,SHATTUCK AVE,471,Single Pole,SINGLE POLE
POINT (-122.27289365710664 37.869627350337765),2199,MARTIN LUTHER KING J,2151,563951.271046,94703,MARTIN LUTHER KING J,2100,22.613,35,4191599.16885,M L KING JR WAY,472,Single Pole,SINGLE POLE
POINT (-122.27259703633648 37.86888199814032),2199,MARTIN LUTHER KING J,2151,563978.005456,94704,MARTIN LUTHER KING J,0,12.795,35,4191516.6742,CENTER ST,473,Pole Mast,MASTARM POLE
POINT (-122.26796905097356 37.86947741444142),2199,SHATTUCK,2155,564384.54219,94704,SHATTUCK,2187,22.599,35,4191585.9186,SHATTUCK AVE,474,Single Pole,SINGLE POLE
POINT (-122.27067931990231 37.870054074895414),1999,CENTER,1901,564145.661787,94704,CENTER,2118,20.86,25,4191648.03496,MILVIA ST,475,Single Pole,SINGLE POLE
POINT (-122.27070112200578 37.86988570353225),1999,CENTER,1901,564143.89038,94704,CENTER,0,21.174,25,4191629.3379,CENTER ST,476,Single Pole,SINGLE POLE
POINT (-122.27266718087314 37.86962198124955),1999,CENTER,1901,563971.195578,94704,CENTER,0,20.158,25,4191598.72825,CENTER ST,477,Single Pole,SINGLE POLE
POINT (-122.27046426042708 37.86986520618639),2199,MILVIA,2151,564164.740935,94704,MILVIA,2175,18.154,25,4191627.22731,MILVIA ST,478,Single Pole,SINGLE POLE
POINT (-122.27040069525512 37.869160082266816),2199,MILVIA,2151,564170.943765,94704,MILVIA,2001,16.192,25,4191549.03554,ALLSTON WAY,479,Single Pole,SINGLE POLE
POINT (-122.28415274976895 37.87003880310674),2099,ACTON,2001,562960.635883,94702,ACTON,1417,-2.344,25,4191637.16474,ADDISON ST,480,Single Pole,SINGLE POLE
POINT (-122.28210350296783 37.870245558468994),1499,UNIVERSITY,1401,563140.69866,94702,UNIVERSITY,1498,-1.398,35,4191661.48956,UNIVERSITY AVE,481,Pole Mast,MASTARM POLE
POINT (-122.28216245310739 37.870264574661746),1499,UNIVERSITY,1401,563135.49669,94702,UNIVERSITY,1498,-1.31,35,4191663.55998,UNIVERSITY AVE,482,Single Pole,SINGLE POLE
POINT (-122.2841715424377 37.87012660050662),1499,UNIVERSITY,1401,562958.908515,94702,UNIVERSITY,1401,-1.097,35,4191646.89363,UNIVERSITY AVE,483,Single Pole,SINGLE POLE
POINT (-122.28215410599941 37.87050732110148),1499,UNIVERSITY,1401,563136.023949,94702,UNIVERSITY,1499,8.438,35,4191690.49806,UNIVERSITY AVE,484,Pole Mast,MASTARM POLE
POINT (-122.2821331933494 37.87052810176926),1499,UNIVERSITY,1401,563137.846197,94702,UNIVERSITY,1499,3.574,35,4191692.81779,UNIVERSITY AVE,485,Single Pole,SINGLE POLE
POINT (-122.28179810578078 37.87030067196818),2099,SACRAMENTO,2001,563167.512611,94703,SACRAMENTO,1500,0.088,35,4191667.81077,UNIVERSITY AVE,486,Single Pole,SINGLE POLE
POINT (-122.26787472741475 37.870412179416064),2109,CENTER,2101,564392.024473,94704,CENTER,150,25.275,25,4191689.69815,BERKELEY SQ,487,Single Pole,SINGLE POLE
POINT (-122.26789552096686 37.87027974494622),2109,CENTER,2101,564390.31119,94704,CENTER,150,28.81,25,4191674.98934,BERKELEY SQ,488,Single Pole,SINGLE POLE
POINT (-122.26352838305858 37.867332188493954),2329,ELLSWORTH,2301,564776.997268,94704,ELLSWORTH,2314,38.32,25,4191350.97516,BANCROFT WAY,489,Single Pole,SINGLE POLE
POINT (-122.2608028917173 37.86490625157443),2499,DANA,2421,565018.855053,94704,DANA,2446,39.84,25,4191083.70772,DANA ST,490,Single Pole,SINGLE POLE
POINT (-122.26094227539782 37.86563420787411),2499,DANA,2421,565005.954794,94704,DANA,2430,43.905,25,4191164.37912,DANA ST,491,Single Pole,SINGLE POLE
POINT (-122.26066576110325 37.86492139028703),2499,DANA,2421,565030.903698,94704,DANA,2401,37.946,25,4191085.48306,DWIGHT WAY,492,Single Pole,SINGLE POLE
POINT (-122.25383512471373 37.865671876021715),2599,COLLEGE,2501,565631.060912,94704,COLLEGE,2700,58.659,35,4191173.53233,DWIGHT WAY,493,Single Pole,SINGLE POLE
POINT (-122.25396314980578 37.86559759800357),2599,COLLEGE,2501,565619.865382,94704,COLLEGE,2504,60.398,35,4191165.20081,COLLEGE AVE,494,Single Pole,SINGLE POLE
POINT (-122.25859389086587 37.86611531515565),2449,TELEGRAPH,2401,565212.093072,94704,TELEGRAPH,2503,43.732,35,4191219.39733,HASTE ST,495,Single Pole,SINGLE POLE
POINT (-122.25886122701736 37.86681644755703),2449,TELEGRAPH,2401,565187.960536,94704,TELEGRAPH,2400,47.063,35,4191297.00226,TELEGRAPH AVE,496,Single Pole,SINGLE POLE
POINT (-122.28148115819113 37.867396221992934),1549,ALLSTON,1501,563197.869443,94703,ALLSTON,2201,-0.982,25,4191345.77147,SACRAMENTO ST,497,Single Pole,SINGLE POLE
POINT (-122.26802374578847 37.869231652278565),2247,SHATTUCK,2201,564379.944932,94704,SHATTUCK,2060,16.971,35,4191558.61333,ALLSTON WAY,498,Single Pole,SINGLE POLE
POINT (-122.26796341295366 37.86930986259576),2247,SHATTUCK,2201,564385.184062,94704,SHATTUCK,2060,22.666,35,4191567.3325,ALLSTON WAY,499,Single Pole,SINGLE POLE
POINT (-122.267885139229 37.86858753847713),2247,SHATTUCK,2201,564392.696931,94704,SHATTUCK,2060,23.28,35,4191487.24376,ALLSTON WAY,500,Single Pole,SINGLE POLE
POINT (-122.29430527590777 37.87524102074076),1099,CEDAR,1027,562063.318441,94702,CEDAR,1580,-23.19,35,4192207.5598,SAN PABLO AVE,501,Single Pole,SINGLE POLE
POINT (-122.2942826716354 37.875268777531716),1099,CEDAR,1027,562065.283642,94702,CEDAR,1580,-23.058,35,4192210.65486,SAN PABLO AVE,502,Single Pole,SINGLE POLE
POINT (-122.29420968878584 37.875112020804835),1099,CEDAR,1027,562071.833594,94702,CEDAR,1620,-19.876,35,4192193.3106,SAN PABLO AVE,503,Pole Mast,MASTARM POLE
POINT (-122.29426323810593 37.87512568094784),1099,CEDAR,1027,562067.112535,94702,CEDAR,1620,-23.239,35,4192194.79058,SAN PABLO AVE,504,Single Pole,SINGLE POLE
POINT (-122.27081081316383 37.87356169037038),2025,HEARST,2001,564131.055979,94704,HEARST,2000,30.502,25,4192037.12055,HEARST AVE,505,Single Pole,SINGLE POLE
POINT (-122.26004731136061 37.875171519273124),2599,HEARST,2501,565076.285819,94709,HEARST,1865,66.024,25,4192223.18577,EUCLID AVE,506,Pole Mast,MASTARM POLE
POINT (-122.26867910165096 37.87374667975561),1949,SHATTUCK,1901,564318.378245,94704,SHATTUCK,1900,37.659,35,4192059.11262,SHATTUCK AVE,507,Pole Mast,MASTARM POLE
POINT (-122.29959673022732 37.874100307120244),899,CEDAR,841,561598.898518,94710,CEDAR,1529,-23.566,35,4192077.49001,SIXTH ST,508,Pole Mast,MASTARM POLE
POINT (-122.29950104572532 37.87410119792586),899,CEDAR,841,561607.313602,94710,CEDAR,850,-25.361,35,4192077.65192,CEDAR ST,509,Single Pole,SINGLE POLE
POINT (-122.299603923867 37.874205658745275),1599,6TH,1501,561598.17756,94710,6TH,1529,-27.579,35,4192089.17402,SIXTH ST,510,Pole Mast,MASTARM POLE
POINT (-122.29395074879707 37.87513831087976),1699,SAN PABLO,1601,562094.584695,94702,SAN PABLO,1601,-16.221,35,4192196.39979,SAN PABLO AVE,511,Single Pole,SINGLE POLE
POINT (-122.28208598992876 37.87303096888196),1599,DELAWARE,1501,563139.861393,94703,DELAWARE,1502,3.585,25,4191970.54771,DELAWARE ST,512,Pole Mast,MASTARM POLE
POINT (-122.27072646971072 37.87196124413528),0,UNIVERSITY,0,564139.861279,94704,UNIVERSITY,1995,27.344,35,4191859.60553,UNIVERSITY AVE,513,Single Pole,SINGLE POLE
POINT (-122.26860029723613 37.87222970188763),2099,UNIVERSITY,2001,564326.627759,94704,UNIVERSITY,1998,26.202,35,4191890.85508,SHATTUCK AVE,514,Single Pole,SINGLE POLE
POINT (-122.27047182312056 37.87178697813039),2099,UNIVERSITY,2001,564162.408394,94704,UNIVERSITY,2000,30.486,35,4191840.44609,UNIVERSITY AVE,515,Single Pole,SINGLE POLE
POINT (-122.26856037063985 37.872003379317576),2099,UNIVERSITY,2001,564330.336456,94704,UNIVERSITY,2000,28.355,35,4191865.77197,SHATTUCK AVE,516,Single Pole,SINGLE POLE
POINT (-122.27049584243011 37.87190811543583),2099,UNIVERSITY,2001,564160.19161,94704,UNIVERSITY,1949,27.084,35,4191853.8703,MILVIA ST,517,Single Pole,SINGLE POLE
POINT (-122.2680056609525 37.87230621846514),2109,UNIVERSITY,2101,564378.860483,94704,UNIVERSITY,1987,26.557,25,4191899.75516,SHATTUCK AVE,518,Single Pole,SINGLE POLE
POINT (-122.2679785941559 37.872118066939265),2109,UNIVERSITY,2101,564381.404184,94704,UNIVERSITY,48,25.923,25,4191878.89822,SHATTUCK SQ,519,Single Pole,SINGLE POLE
POINT (-122.2678620938397 37.87232010872918),2109,UNIVERSITY,2101,564391.474657,94704,UNIVERSITY,2111,26.652,25,4191901.39533,UNIVERSITY AVE,520,Single Pole,SINGLE POLE
POINT (-122.26640665629861 37.874197568209894),2199,HEARST,2151,564517.845653,94709,HEARST,0,35.813,25,4192110.70839,OXFORD ST,521,Single Pole,SINGLE POLE
POINT (-122.26629048778426 37.8740449785604),1949,OXFORD,1901,564528.194904,94704,OXFORD,1900,35.052,25,4192093.85855,OXFORD ST,522,Single Pole,SINGLE POLE
POINT (-122.26640009551355 37.87398868559206),1949,OXFORD,1901,564518.603902,94704,OXFORD,1900,37.636,25,4192087.53727,OXFORD ST,523,Single Pole,SINGLE POLE
POINT (-122.2663086596587 37.87395074557047),1949,OXFORD,1901,564526.679067,94704,OXFORD,1900,36.847,25,4192083.39098,OXFORD ST,524,Single Pole,SINGLE POLE
POINT (-122.25691494924872 37.875581223163096),2699,HEARST,2601,565351.407937,94709,HEARST,2607,80.46,25,4192270.83184,HEARST AVE,525,Single Pole,SINGLE POLE
POINT (-122.25684940249381 37.87545147787126),2699,HEARST,2601,565357.287518,94720,HEARST,2301,79.81,25,4192256.48283,BANCROFT WAY,526,Single Pole,SINGLE POLE
POINT (-122.29282886186547 37.871776351519465),1199,DELAWARE,1101,562196.078866,94702,DELAWARE,1775,-11.25,25,4191824.13142,SAN PABLO AVE,527,Single Pole,SINGLE POLE
POINT (-122.29275741687606 37.8716526660827),1199,DELAWARE,1101,562202.466122,94702,DELAWARE,1801,-14.206,25,4191810.45652,SAN PABLO AVE,528,Pole Mast,MASTARM POLE
POINT (-122.28212830177647 37.8731872297013),1799,SACRAMENTO,1725,563136.006856,94702,SACRAMENTO,1739,3.907,35,4191987.85642,SACRAMENTO ST,529,Pole Mast,MASTARM POLE
POINT (-122.282245304704 37.873219562199765),1799,SACRAMENTO,1725,563125.688236,94702,SACRAMENTO,1739,5.464,35,4191991.36434,SACRAMENTO ST,530,Single Pole,SINGLE POLE
POINT (-122.26876875244453 37.87374065809539),2099,HEARST,2027,564310.498814,94704,HEARST,1900,34.098,25,4192058.3829,SHATTUCK AVE,531,Single Pole,SINGLE POLE
POINT (-122.26871940928481 37.87394861295023),2099,HEARST,2027,564314.65744,94709,HEARST,1848,34.035,25,4192081.48936,SHATTUCK AVE,532,Single Pole,SINGLE POLE
POINT (-122.26874480820187 37.87391340044508),2099,HEARST,2027,564312.454143,94709,HEARST,1848,37.283,25,4192077.56524,SHATTUCK AVE,533,Single Pole,SINGLE POLE
POINT (-122.29317847881087 37.87173674099004),1099,DELAWARE,1029,562165.362497,94702,DELAWARE,1740,-11.07,25,4191819.50368,SAN PABLO AVE,534,Pole Mast,MASTARM POLE
POINT (-122.2931605561468 37.87175391116753),1099,DELAWARE,1029,562166.924162,94702,DELAWARE,1740,-15.456,25,4191821.42066,SAN PABLO AVE,535,Single Pole,SINGLE POLE
POINT (-122.29313404572913 37.87159187984135),1099,DELAWARE,1029,562169.392804,94702,DELAWARE,1800,-13.102,25,4191803.46081,SAN PABLO AVE,536,Single Pole,SINGLE POLE
POINT (-122.29923630519545 37.87235792832427),815,VIRGINIA,811,561632.049556,94710,VIRGINIA,1650,-25.732,25,4191884.40788,SIXTH ST,537,Single Pole,SINGLE POLE
POINT (-122.29921336128429 37.87237861883009),815,VIRGINIA,811,561634.049912,94710,VIRGINIA,1650,-25.235,25,4191886.71862,SIXTH ST,538,Single Pole,SINGLE POLE
POINT (-122.29915061422145 37.87222398994829),815,VIRGINIA,811,561639.696792,94710,VIRGINIA,1724,-24.698,25,4191869.60359,SIXTH ST,539,Single Pole,SINGLE POLE
POINT (-122.29891389555547 37.87225849886402),1799,6TH,1701,561660.487809,94710,6TH,830,-26.311,35,4191873.58891,VIRGINIA ST,540,Single Pole,SINGLE POLE
POINT (-122.29891535082211 37.87230841842353),899,VIRGINIA,831,561660.318671,94710,VIRGINIA,830,-26.592,25,4191879.12666,VIRGINIA ST,541,Single Pole,SINGLE POLE
POINT (-122.29897177105569 37.87242010731485),899,VIRGINIA,831,561655.263391,94710,VIRGINIA,1647,-24.881,25,4191891.48159,SIXTH ST,542,Single Pole,SINGLE POLE
POINT (-122.2733141606447 37.87338232765756),1899,MARTIN LUTHER KING J,1801,563911.042255,94709,MARTIN LUTHER KING J,0,20.468,35,4192015.50285,HEARST AVE,543,Single Pole,SINGLE POLE
POINT (-122.27312834979415 37.87343420627779),1899,MARTIN LUTHER KING J,1801,563927.339379,94709,MARTIN LUTHER KING J,1901,25.254,35,4192021.3863,HEARST AVE,544,Single Pole,SINGLE POLE
POINT (-122.26610070171267 37.87410183426061),2249,HEARST,2201,564544.837155,94720,HEARST,2301,35.634,25,4192100.29742,BANCROFT WAY,545,Pole Mast,MASTARM POLE
POINT (-122.26615973664464 37.87425660691511),2249,HEARST,2201,564539.509603,94709,HEARST,1899,33.941,25,4192117.42973,OXFORD ST,546,Single Pole,SINGLE POLE
POINT (-122.29390986912709 37.875190568679336),1109,CEDAR,1101,562098.136123,94702,CEDAR,1601,-16.696,35,4192202.22533,SAN PABLO AVE,547,Single Pole,SINGLE POLE
POINT (-122.29398092644564 37.875322779967114),1109,CEDAR,1101,562091.775588,94702,CEDAR,1103,-21.882,35,4192216.84699,HOPKINS ST,548,Single Pole,SINGLE POLE
POINT (-122.26029932364978 37.8752185730725),1899,EUCLID,1801,565054.080724,94709,EUCLID,2483,98.663,25,4192228.23035,HEARST AVE,549,Single Pole,SINGLE POLE
POINT (-122.28245308874105 37.872967299879534),1499,DELAWARE,1425,563107.62919,94702,DELAWARE,1800,0.376,25,4191963.2351,SACRAMENTO ST,550,Single Pole,SINGLE POLE
POINT (-122.28239980701824 37.87294074212253),1499,DELAWARE,1425,563112.33784,94702,DELAWARE,1800,0.453,25,4191960.32425,SACRAMENTO ST,551,Pole Mast,MASTARM POLE
POINT (-122.2824928444183 37.87311767668141),1499,DELAWARE,1425,563104.004886,94702,DELAWARE,1429,0.856,25,4191979.89316,DELAWARE ST,552,Single Pole,SINGLE POLE
POINT (-122.28223335842117 37.87293945977397),1899,SACRAMENTO,1801,563126.978261,94702,SACRAMENTO,1800,3.746,35,4191960.29481,SACRAMENTO ST,553,Single Pole,SINGLE POLE
POINT (-122.27331167175255 37.8732143773655),1899,HEARST,1801,563911.406352,94704,HEARST,1900,20.604,25,4191996.87018,M L KING JR WAY,554,Single Pole,SINGLE POLE
POINT (-122.2732498302079 37.87320889792943),1927,MARTIN LUTHER KING J,1901,563916.849917,94704,MARTIN LUTHER KING J,1900,20.353,35,4191996.30452,M L KING JR WAY,555,Single Pole,SINGLE POLE
POINT (-122.27311421620507 37.873280821963505),1929,HEARST,1901,563928.714668,94704,HEARST,1910,26.348,25,4192004.37707,HEARST AVE,556,Single Pole,SINGLE POLE
POINT (-122.2709777696436 37.873508433253726),1923,MILVIA,1901,564116.418072,94704,MILVIA,0,25.667,25,4192031.09653,MILVIA ST,557,Single Pole,SINGLE POLE
POINT (-122.29979406580962 37.87410422628768),831,CEDAR,819,561581.539429,94710,CEDAR,1526,-23.603,25,4192077.7947,SIXTH ST,558,Single Pole,SINGLE POLE
POINT (-122.29972818138528 37.87400676700642),831,CEDAR,819,561587.41552,94710,CEDAR,830,-24.588,25,4192067.02482,CEDAR ST,559,Pole Mast,MASTARM POLE
POINT (-122.29902208241796 37.87243459413117),1699,6TH,1601,561650.826516,94710,6TH,1647,-24.801,35,4191893.05493,SIXTH ST,560,Pole Mast,MASTARM POLE
POINT (-122.26840016657576 37.87380770181821),2149,HEARST,2101,564342.856901,94704,HEARST,0,34.154,25,4192066.07518,HEARST AVE,561,Single Pole,SINGLE POLE
POINT (-122.26841277907921 37.873772450484005),2149,HEARST,2101,564341.77852,94704,HEARST,0,33.669,25,4192062.15543,HEARST AVE,562,Single Pole,SINGLE POLE
POINT (-122.26845009652645 37.87396164616569),2149,HEARST,2101,564338.331692,94709,HEARST,1849,38.823,25,4192083.12181,SHATTUCK AVE,563,Single Pole,SINGLE POLE
POINT (-122.27089173536687 37.8737668279317),1899,MILVIA,1801,564123.760391,94709,MILVIA,2001,29.183,25,4192059.82562,HEARST AVE,564,Single Pole,SINGLE POLE
POINT (-122.27100451633484 37.87366550647587),1899,MILVIA,1801,564113.929275,94709,MILVIA,1933,30.828,25,4192048.50648,HEARST AVE,565,Single Pole,SINGLE POLE
POINT (-122.25667081123832 37.87547121706076),2755,HEARST,2701,565372.976607,94720,HEARST,2301,83.52,25,4192258.79812,BANCROFT WAY,566,Single Pole,SINGLE POLE
POINT (-122.29300955513968 37.8716124379909),1899,SAN PABLO,1801,562180.324651,94702,SAN PABLO,1800,-12.371,35,4191805.82492,SAN PABLO AVE,567,Single Pole,SINGLE POLE
POINT (-122.2930484816464 37.8715647761472),1899,SAN PABLO,1801,562176.940742,94702,SAN PABLO,1800,-8.502,35,4191800.51102,SAN PABLO AVE,568,Pole Mast,MASTARM POLE
POINT (-122.29290873468449 37.87181436378546),1799,SAN PABLO,1721,562189.022216,94702,SAN PABLO,1775,-14.648,35,4191828.29547,SAN PABLO AVE,569,Pole Mast,MASTARM POLE
POINT (-122.23908224784132 37.87457240511374),0,"CENTENNIAL, OA",0,566920.659106,94720,"CENTENNIAL, OA",2301,181.556,25,4192171.54063,BANCROFT WAY,570,Single Pole,SINGLE POLE
POINT (-122.23888387068992 37.875231338919235),0,"CENTENNIAL, OA",0,566937.51006,94720,"CENTENNIAL, OA",2301,185.442,25,4192244.79261,BANCROFT WAY,571,Pole Mast,MASTARM POLE
POINT (-122.23866029745041 37.87527461617453),0,"CENTENNIAL, OA",0,566957.133373,94720,"CENTENNIAL, OA",2301,184.581,25,4192249.75501,BANCROFT WAY,572,Single Pole,SINGLE POLE
POINT (-122.2388202464913 37.8753615117817),0,"CENTENNIAL, OA",0,566942.987493,94720,"CENTENNIAL, OA",2301,187.087,25,4192259.28089,BANCROFT WAY,573,Single Pole,SINGLE POLE
POINT (-122.2386326417517 37.875376088343266),0,"CENTENNIAL, OA",0,566959.474153,94720,"CENTENNIAL, OA",2301,185.507,25,4192261.03317,BANCROFT WAY,574,Single Pole,SINGLE POLE
POINT (-122.23893924579284 37.87600545470888),0,"CENTENNIAL, OA",0,566931.939905,94720,"CENTENNIAL, OA",2301,212.42,25,4192330.64318,BANCROFT WAY,575,Single Pole,SINGLE POLE
POINT (-122.26606564852179 37.873458680706484),0,UNNAMED UC BERKELEY,0,564548.480971,94720,UNNAMED UC BERKELEY,2301,37.394,25,4192028.96291,BANCROFT WAY,576,Pole Mast,MASTARM POLE
POINT (-122.26599721984478 37.87334567743869),0,UNNAMED UC BERKELEY,0,564554.597985,94720,UNNAMED UC BERKELEY,2301,33.122,25,4192016.47267,BANCROFT WAY,577,Single Pole,SINGLE POLE
POINT (-122.2600895146539 37.87499750288082),0,HAVILAND,0,565072.727512,94720,HAVILAND,2301,63.383,25,4192203.84847,BANCROFT WAY,578,Single Pole,SINGLE POLE
POINT (-122.26015761252283 37.87498935236589),0,HAVILAND,0,565066.745424,94720,HAVILAND,2301,63.745,25,4192202.89673,BANCROFT WAY,579,Single Pole,SINGLE POLE
POINT (-122.23985000501985 37.875865236296406),0,"CENTENNIAL, OA",0,566851.968139,94720,"CENTENNIAL, OA",2301,222.685,25,4192314.4326,BANCROFT WAY,580,Single Pole,SINGLE POLE
POINT (-122.27287372456217 37.871492576854884),1949,UNIVERSITY,1901,563951.411619,94704,UNIVERSITY,1900,23.028,35,4191806.13323,UNIVERSITY AVE,581,Pole Mast,MASTARM POLE
POINT (-122.28437650804125 37.870240768560926),1999,ACTON,1951,562940.783527,94702,ACTON,1399,-0.208,25,4191659.42275,UNIVERSITY AVE,582,Single Pole,SINGLE POLE
POINT (-122.28431857377574 37.87054673595345),1999,ACTON,1951,562945.619229,94702,ACTON,1401,-0.34,25,4191693.40974,UNIVERSITY AVE,583,Single Pole,SINGLE POLE
POINT (-122.2841927653625 37.870256649044194),1999,ACTON,1951,562956.930592,94702,ACTON,1401,-0.819,25,4191661.30859,UNIVERSITY AVE,584,Single Pole,SINGLE POLE
POINT (-122.27974172437972 37.87085091519553),1999,CALIFORNIA,1921,563347.906302,94703,CALIFORNIA,1601,8.423,25,4191730.25582,UNIVERSITY AVE,585,Single Pole,SINGLE POLE
POINT (-122.27971388865164 37.870811828909495),1999,CALIFORNIA,1921,563350.388381,94703,CALIFORNIA,1601,7.6,25,4191725.93761,UNIVERSITY AVE,586,Single Pole,SINGLE POLE
POINT (-122.27055196654617 37.87202053788249),1999,MILVIA,1925,564155.157395,94704,MILVIA,1949,25.479,25,4191866.30492,MILVIA ST,587,Single Pole,SINGLE POLE
POINT (-122.25915972401285 37.868762321942796),2299,SATHER,2201,565159.992355,94720,SATHER,2301,51.429,25,4191512.69178,BANCROFT WAY,588,Single Pole,SINGLE POLE
POINT (-122.25920244040148 37.86878930590451),2299,SATHER,2201,565156.211132,94720,SATHER,2301,52.638,25,4191515.65654,BANCROFT WAY,589,Single Pole,SINGLE POLE
POINT (-122.27049616191337 37.87007464686176),2149,MILVIA,2101,564161.753566,94704,MILVIA,2001,17.147,25,4191650.44314,CENTER ST,590,Single Pole,SINGLE POLE
POINT (-122.2684821030053 37.87197343161956),0,SHATTUCK,0,564337.245587,94704,SHATTUCK,2000,23.057,35,4191862.5029,SHATTUCK AVE,591,Single Pole,SINGLE POLE
POINT (-122.26828834618114 37.872066784747176),0,SHATTUCK,0,564354.206739,94704,SHATTUCK,48,23.902,35,4191872.99498,SHATTUCK SQ,592,Single Pole,SINGLE POLE
POINT (-122.2708261285886 37.87169171550259),2099,MILVIA,2001,564131.329672,94704,MILVIA,1974,31.332,25,4191829.63329,UNIVERSITY AVE,593,Single Pole,SINGLE POLE
POINT (-122.2706177245383 37.8717780021636),2099,MILVIA,2001,564149.584022,94704,MILVIA,2000,30.621,25,4191839.34945,UNIVERSITY AVE,594,Single Pole,SINGLE POLE
POINT (-122.279934579178 37.87078126772905),1599,UNIVERSITY,1501,563331.004226,94703,UNIVERSITY,1597,7.457,35,4191722.39714,UNIVERSITY AVE,595,Single Pole,SINGLE POLE
POINT (-122.27989168244753 37.870568428395515),1599,UNIVERSITY,1501,563334.959614,94703,UNIVERSITY,1598,5.987,35,4191698.81127,UNIVERSITY AVE,596,Single Pole,SINGLE POLE
POINT (-122.28178068713723 37.87056551229372),1599,UNIVERSITY,1501,563168.817751,94703,UNIVERSITY,1501,0.301,35,4191697.20703,UNIVERSITY AVE,597,Single Pole,SINGLE POLE
POINT (-122.28175680201498 37.87032855564037),1599,UNIVERSITY,1501,563171.121274,94703,UNIVERSITY,1500,-0.209,35,4191670.93317,UNIVERSITY AVE,598,Pole Mast,MASTARM POLE
POINT (-122.27968111721223 37.87062538540261),2099,CALIFORNIA,2001,563353.430251,94703,CALIFORNIA,1600,5.721,25,4191705.274,UNIVERSITY AVE,599,Single Pole,SINGLE POLE
POINT (-122.27985272696998 37.87054525043193),2099,CALIFORNIA,2001,563338.405234,94703,CALIFORNIA,1598,6.633,25,4191696.26584,UNIVERSITY AVE,600,Single Pole,SINGLE POLE
POINT (-122.2663348319806 37.873214459254044),1999,OXFORD,1951,564525.019674,94704,OXFORD,1952,36.381,25,4192001.68007,OXFORD ST,601,Pole Mast,MASTARM POLE
POINT (-122.26611110665111 37.87256868944705),1999,OXFORD,1951,564545.259305,94704,OXFORD,1990,36.302,25,4191930.18535,OXFORD ST,602,Single Pole,SINGLE POLE
POINT (-122.26626291574628 37.8725684189245),1999,OXFORD,1951,564531.908605,94704,OXFORD,1990,30.757,25,4191930.05041,OXFORD ST,603,Single Pole,SINGLE POLE
POINT (-122.27472582003958 37.885421673828894),1939,HOPKINS,1901,563776.504307,94709,HOPKINS,1201,31.207,25,4193350.32596,THE ALAMEDA,604,Single Pole,SINGLE POLE
POINT (-122.27489464721768 37.885581936607),1939,HOPKINS,1901,563761.519953,94707,HOPKINS,1161,33.042,25,4193367.99286,THE ALAMEDA,605,Single Pole,SINGLE POLE
POINT (-122.27638021559417 37.888984612110114),1931,MARIN,1901,563627.958494,94707,MARIN,1901,51.097,35,4193744.51216,MARIN AVE,606,Single Pole,SINGLE POLE
POINT (-122.27615455195088 37.888002110010554),1123,THE ALAMEDA,1101,563648.646872,94707,THE ALAMEDA,1103,37.675,35,4193635.65559,THE ALAMEDA,607,Single Pole,SINGLE POLE
POINT (-122.29921476412055 37.87968627348586),1399,8TH,1301,561627.837966,94710,8TH,924,-22.971,25,4192697.5146,GILMAN ST,684,Single Pole,SINGLE POLE
POINT (-122.30084759288103 37.89670031127204),1111,"BRIGHTON, AL",1101,561470.096155,94707,"BRIGHTON, AL",618,-24.416,25,4194584.17945,NEILSON ST,608,Single Pole,SINGLE POLE
POINT (-122.29722381049363 37.884547347978106),1099,"MONROE, AL",0,561798.864142,94710,"MONROE, AL",1172,-19.501,25,4193238.17761,SAN PABLO AVE,609,Pole Mast,MASTARM POLE
POINT (-122.29729195149513 37.88457118922067),1099,"MONROE, AL",0,561792.852231,94710,"MONROE, AL",1172,-18.042,25,4193240.77758,SAN PABLO AVE,610,Single Pole,SINGLE POLE
POINT (-122.29730084606949 37.884692822851655),1099,"MONROE, AL",0,561791.967957,94710,"MONROE, AL",1172,-16.813,25,4193254.26677,SAN PABLO AVE,611,Single Pole,SINGLE POLE
POINT (-122.29699875267879 37.88463153668699),0,"SAN PABLO, AL",0,561818.584733,94710,"SAN PABLO, AL",1172,-17.706,35,4193247.66776,SAN PABLO AVE,612,Single Pole,SINGLE POLE
POINT (-122.26597670822838 37.872586626379736),1999,OXFORD,1951,564557.064241,94720,OXFORD,2301,36.728,25,4191932.26879,BANCROFT WAY,613,Single Pole,SINGLE POLE
POINT (-122.27293385061158 37.86976746735484),2149,MARTIN LUTHER KING J,2101,563947.615052,94703,MARTIN LUTHER KING J,2100,17.126,35,4191614.68788,M L KING JR WAY,614,Single Pole,SINGLE POLE
POINT (-122.2726962645346 37.869799245858246),2149,MARTIN LUTHER KING J,2101,563968.483716,94704,MARTIN LUTHER KING J,2109,17.518,35,4191618.37674,M L KING JR WAY,615,Single Pole,SINGLE POLE
POINT (-122.27267799441468 37.86981478032207),2149,MARTIN LUTHER KING J,2101,563970.077209,94704,MARTIN LUTHER KING J,2109,20.622,35,4191620.11235,M L KING JR WAY,616,Single Pole,SINGLE POLE
POINT (-122.26598627559632 37.870473421920885),2123,OXFORD,2121,564558.067494,94704,OXFORD,2128,34.327,25,4191697.79748,OXFORD ST,617,Single Pole,SINGLE POLE
POINT (-122.26606233373737 37.87066852637624),2199,CENTER,2111,564551.207526,94704,CENTER,2150,33.144,25,4191719.39269,ADDISON ST,618,Single Pole,SINGLE POLE
POINT (-122.26764564815974 37.87042974848063),2199,CENTER,2111,564412.157537,94704,CENTER,2119,24.384,25,4191691.80566,CENTER ST,619,Single Pole,SINGLE POLE
POINT (-122.28183555507901 37.870598650430175),1999,SACRAMENTO,1925,563163.964347,94703,SACRAMENTO,1501,0.445,35,4191700.84684,UNIVERSITY AVE,620,Pole Mast,MASTARM POLE
POINT (-122.26844963332411 37.87109699611173),2089,ADDISON,2001,564340.864489,94704,ADDISON,2104,24.838,25,4191765.28372,SHATTUCK AVE,621,Single Pole,SINGLE POLE
POINT (-122.26833675486942 37.87105210254294),0,SHATTUCK,0,564350.831631,94704,SHATTUCK,2104,24.8,35,4191760.37981,SHATTUCK AVE,622,Single Pole,SINGLE POLE
POINT (-122.26814068974633 37.87113225971758),2099,ADDISON,2091,564368.005878,94704,ADDISON,100,24.18,25,4191769.40892,BERKELEY SQ,623,Single Pole,SINGLE POLE
POINT (-122.26784481755504 37.871167538907315),2099,ADDISON,2091,564393.997684,94704,ADDISON,100,24.545,25,4191773.52741,BERKELEY SQ,624,Single Pole,SINGLE POLE
POINT (-122.26813605742525 37.871260208005),2099,ADDISON,2091,564368.301772,94704,ADDISON,82,25.123,25,4191783.60841,SHATTUCK AVE,625,Single Pole,SINGLE POLE
POINT (-122.26787058390244 37.87129677489539),2099,ADDISON,2091,564391.619548,94704,ADDISON,82,28.723,25,4191787.84795,SHATTUCK AVE,626,Single Pole,SINGLE POLE
POINT (-122.26769221780398 37.87043381817277),0,BERKELEY,0,564408.058006,94704,BERKELEY,2119,25.128,25,4191692.22509,CENTER ST,627,Single Pole,SINGLE POLE
POINT (-122.26758577572912 37.87133380584437),2117,ADDISON,2101,564416.636121,94704,ADDISON,2037,25.154,25,4191792.15415,SHATTUCK AVE,628,Single Pole,SINGLE POLE
POINT (-122.26757751193527 37.87121347078104),2117,ADDISON,2101,564417.468271,94704,ADDISON,2104,24.887,25,4191778.8079,ADDISON ST,629,Single Pole,SINGLE POLE
POINT (-122.26578187552758 37.87073906036158),2119,OXFORD,2101,564575.812407,94720,OXFORD,2301,33.022,25,4191727.41215,BANCROFT WAY,630,Single Pole,SINGLE POLE
POINT (-122.2659109013931 37.870701805199964),2119,OXFORD,2101,564564.497219,94704,OXFORD,2150,33.345,25,4191723.18992,ADDISON ST,631,Single Pole,SINGLE POLE
POINT (-122.27313810542054 37.87142748767773),1899,UNIVERSITY,1801,563928.215975,94703,UNIVERSITY,1840,22.554,35,4191798.73025,UNIVERSITY AVE,632,Single Pole,SINGLE POLE
POINT (-122.27316441912451 37.87164719938083),1899,UNIVERSITY,1801,563925.711223,94704,UNIVERSITY,1950,25.151,35,4191823.08946,M L KING JR WAY,633,Pole Mast,MASTARM POLE
POINT (-122.27309295456656 37.87140332017755),2099,MARTIN LUTHER KING J,2001,563932.207023,94703,MARTIN LUTHER KING J,1840,22.453,35,4191796.07947,UNIVERSITY AVE,634,Pole Mast,MASTARM POLE
POINT (-122.26827446308248 37.87230236542095),1999,SHATTUCK,1951,564355.222568,94704,SHATTUCK,1987,30.263,35,4191899.1426,SHATTUCK AVE,635,Single Pole,SINGLE POLE
POINT (-122.26789066683301 37.872072716104775),0,SHATTUCK,0,564389.177218,94704,SHATTUCK,48,25.657,25,4191873.92722,SHATTUCK SQ,636,Single Pole,SINGLE POLE
POINT (-122.26577069756999 37.87053070850404),0,WEST CRESCENT,0,564576.977585,94720,WEST CRESCENT,2301,32.423,25,4191704.30305,BANCROFT WAY,637,Single Pole,SINGLE POLE
POINT (-122.26774097440386 37.87233732720755),2153,UNIVERSITY,2111,564402.112306,94704,UNIVERSITY,2119,26.827,25,4191903.38949,UNIVERSITY AVE,638,Single Pole,SINGLE POLE
POINT (-122.26766003018236 37.87214831324081),2153,UNIVERSITY,2111,564409.396519,94704,UNIVERSITY,2015,25.85,25,4191882.47323,SHATTUCK AVE,639,Single Pole,SINGLE POLE
POINT (-122.27291893020191 37.871728198618285),1999,MARTIN LUTHER KING J,1921,563947.232517,94704,MARTIN LUTHER KING J,1901,24.462,35,4191832.24474,UNIVERSITY AVE,640,Pole Mast,MASTARM POLE
POINT (-122.27289813487026 37.87167115091805),1999,MARTIN LUTHER KING J,1921,563949.11035,94704,MARTIN LUTHER KING J,1901,19.525,35,4191825.92918,UNIVERSITY AVE,641,Single Pole,SINGLE POLE
POINT (-122.26626622600398 37.8723378387906),2199,UNIVERSITY,2155,564531.817748,94704,UNIVERSITY,2199,27.279,25,4191904.46482,ADDISON ST,642,Single Pole,SINGLE POLE
POINT (-122.26625912900228 37.87251642867633),2199,UNIVERSITY,2155,564532.286412,94704,UNIVERSITY,1990,37.67,25,4191924.28464,OXFORD ST,643,Single Pole,SINGLE POLE
POINT (-122.26610661936122 37.872317530199794),2099,OXFORD,2001,564545.873344,94704,OXFORD,2199,35.644,25,4191902.32177,ADDISON ST,644,Single Pole,SINGLE POLE
POINT (-122.26620587504493 37.87227666605116),2099,OXFORD,2001,564537.179841,94704,OXFORD,2199,34.437,25,4191897.71963,ADDISON ST,645,Single Pole,SINGLE POLE
POINT (-122.26110529472805 37.872236036619775),0,UNNAMED UC BERKELEY,0,564985.816734,94720,UNNAMED UC BERKELEY,2301,-24.84,25,4191896.75116,BANCROFT WAY,646,Single Pole,SINGLE POLE
POINT (-122.26589972364233 37.87233828318522),0,CRESCENT,0,564564.051444,94720,CRESCENT,2301,25.148,25,4191904.76713,BANCROFT WAY,647,Single Pole,SINGLE POLE
POINT (-122.2658540458485 37.87241070732141),0,CRESCENT,0,564568.006712,94720,CRESCENT,2301,25.071,25,4191912.83499,BANCROFT WAY,648,Single Pole,SINGLE POLE
POINT (-122.26638215878232 37.8733596150851),2199,BERKELEY,2161,564520.730389,94704,BERKELEY,1910,35.141,25,4192017.75313,OXFORD ST,649,Single Pole,SINGLE POLE
POINT (-122.26635277031981 37.873391959546666),2199,BERKELEY,2161,564523.287028,94704,BERKELEY,1910,35.165,25,4192021.36164,OXFORD ST,650,Single Pole,SINGLE POLE
POINT (-122.30118810661251 37.87935725869813),899,GILMAN,831,561454.570601,94710,GILMAN,830,-24.202,35,4192659.70883,GILMAN ST,651,Pole Mast,MASTARM POLE
POINT (-122.26697464753067 37.88058611119188),2223,VINE,2201,564462.322584,94709,VINE,1449,54.506,25,4192819.13725,OXFORD ST,652,Single Pole,SINGLE POLE
POINT (-122.2689517247677 37.87836766675404),2119,CEDAR,2101,564290.384917,94709,CEDAR,1607,41.358,35,4192571.63275,SHATTUCK AVE,653,Single Pole,SINGLE POLE
POINT (-122.2689820722593 37.87834445319504),2119,CEDAR,2101,564287.735993,94709,CEDAR,1607,41.182,35,4192569.03665,SHATTUCK AVE,654,Single Pole,SINGLE POLE
POINT (-122.26102367841418 37.87954287531885),1599,EUCLID,1571,564986.575357,94708,EUCLID,1595,86.724,25,4192707.51671,EUCLID AVE,655,Single Pole,SINGLE POLE
POINT (-122.26943082705614 37.880123487492135),2099,VINE,2025,564246.724839,94709,VINE,2044,42.707,25,4192766.11457,VINE ST,656,Pole Mast,MASTARM POLE
POINT (-122.26946359696771 37.880162805044264),2099,VINE,2025,564243.808829,94709,VINE,2044,44.351,25,4192770.45464,VINE ST,657,Single Pole,SINGLE POLE
POINT (-122.26945869016626 37.88029278750845),2099,VINE,2025,564244.127713,94709,VINE,1480,41.798,25,4192784.87957,SHATTUCK AVE,658,Single Pole,SINGLE POLE
POINT (-122.26949931593519 37.880260557109786),2099,VINE,2025,564240.58352,94709,VINE,1480,42.866,25,4192781.27561,SHATTUCK AVE,659,Single Pole,SINGLE POLE
POINT (-122.26912191243542 37.87851372306894),1599,SHATTUCK,1501,564275.290817,94709,SHATTUCK,1550,47.138,35,4192587.72005,SHATTUCK AVE,660,Single Pole,SINGLE POLE
POINT (-122.26903448653248 37.87850366894747),1599,SHATTUCK,1501,564282.988474,94709,SHATTUCK,1549,40.618,35,4192586.66521,SHATTUCK AVE,661,Single Pole,SINGLE POLE
POINT (-122.26931158469667 37.880153056923625),1599,SHATTUCK,1501,564257.186211,94709,SHATTUCK,2100,38.752,35,4192769.47753,VINE ST,662,Single Pole,SINGLE POLE
POINT (-122.26916045269539 37.88031993179714),2139,VINE,2105,564270.331839,94709,VINE,1495,45.138,25,4192788.09619,SHATTUCK AVE,663,Single Pole,SINGLE POLE
POINT (-122.26914195749437 37.88018760131114),2139,VINE,2105,564272.072881,94709,VINE,2100,45.695,25,4192773.42664,VINE ST,664,Single Pole,SINGLE POLE
POINT (-122.26917620734476 37.880158957330586),2139,VINE,2105,564269.085765,94709,VINE,2100,44.332,25,4192770.22538,VINE ST,665,Single Pole,SINGLE POLE
POINT (-122.26620571197193 37.87428162220296),1899,OXFORD,1701,564535.444776,94709,OXFORD,1899,34.615,25,4192120.17285,OXFORD ST,666,Single Pole,SINGLE POLE
POINT (-122.28311461801127 37.8789143758954),1499,ROSE,1493,563044.378422,94702,ROSE,1475,6.811,35,4192622.62774,ROSE ST,667,Single Pole,SINGLE POLE
POINT (-122.28311055383834 37.87880939940559),1499,ROSE,1493,563044.824958,94702,ROSE,1500,7.217,35,4192610.98275,SACRAMENTO ST,668,Single Pole,SINGLE POLE
POINT (-122.28287331717645 37.87888126732417),1549,SACRAMENTO,1501,563065.62735,94703,SACRAMENTO,1500,7.037,35,4192619.11718,ROSE ST,669,Single Pole,SINGLE POLE
POINT (-122.28299490665503 37.87879356243415),1549,SACRAMENTO,1501,563055.009108,94702,SACRAMENTO,1500,13.155,35,4192609.30342,SACRAMENTO ST,670,Single Pole,SINGLE POLE
POINT (-122.30138186517539 37.87922191433864),1399,6TH,1301,561437.644151,94710,6TH,816,-27.294,35,4192644.56502,GILMAN ST,671,Pole Mast,MASTARM POLE
POINT (-122.25673686007588 37.87561557914044),1899,LA LOMA,1801,565367.040106,94709,LA LOMA,2701,80.617,25,4192274.76888,HEARST AVE,672,Single Pole,SINGLE POLE
POINT (-122.26978676120638 37.88194830987729),2099,ROSE,2051,564213.839206,94709,ROSE,1400,46.668,35,4192968.3371,SHATTUCK AVE,673,Single Pole,SINGLE POLE
POINT (-122.27009807148205 37.881906004276836),2099,ROSE,2051,564186.499434,94709,ROSE,1400,40.307,35,4192963.42852,SHATTUCK AVE,674,Single Pole,SINGLE POLE
POINT (-122.2703249494741 37.88202634318062),2099,ROSE,2051,564166.443257,94709,ROSE,2089,46.882,35,4192976.62444,ROSE ST,675,Single Pole,SINGLE POLE
POINT (-122.27648537979682 37.88788985133964),1899,MONTEREY,1821,563619.652784,94707,MONTEREY,1100,43.475,35,4193622.97444,THE ALAMEDA,676,Single Pole,SINGLE POLE
POINT (-122.27652524600451 37.88798290122931),1899,MONTEREY,1821,563616.06685,94707,MONTEREY,1835,38.832,35,4193633.27135,MONTEREY AVE,677,Single Pole,SINGLE POLE
POINT (-122.24706909513054 37.880455744902925),0,,0,566212.960068,94720,,2301,315.763,25,4192818.61235,BANCROFT WAY,678,Single Pole,SINGLE POLE
POINT (-122.28280652163828 37.87658191703629),1499,CEDAR,1401,563073.462742,94702,CEDAR,1600,-0.315,35,4192364.04502,SACRAMENTO ST,679,Single Pole,SINGLE POLE
POINT (-122.28287760475044 37.8767396911965),1499,CEDAR,1401,563067.077019,94702,CEDAR,1564,-0.751,35,4192381.50186,SACRAMENTO ST,680,Single Pole,SINGLE POLE
POINT (-122.28267086511963 37.876607295586396),1623,SACRAMENTO,1601,563085.371847,94702,SACRAMENTO,1600,8.071,35,4192366.95268,SACRAMENTO ST,681,Single Pole,SINGLE POLE
POINT (-122.2993209914764 37.879853867373164),901,GILMAN,901,561618.356228,94710,GILMAN,901,-22.667,35,4192716.03998,GILMAN ST,682,Pole Mast,MASTARM POLE
POINT (-122.2992512442135 37.879704587674496),1399,8TH,1301,561624.614569,94710,8TH,924,-22.825,25,4192699.52315,GILMAN ST,683,Single Pole,SINGLE POLE
POINT (-122.29908720959362 37.87973250025413),1399,8TH,1301,561639.016465,94710,8TH,950,-26.305,25,4192702.72816,GILMAN ST,685,Single Pole,SINGLE POLE
POINT (-122.28247043033821 37.87663792036616),1521,CEDAR,1501,563102.97273,94702,CEDAR,1605,-0.259,35,4192370.48555,SACRAMENTO ST,686,Single Pole,SINGLE POLE
POINT (-122.28253734349141 37.87677022315318),1521,CEDAR,1501,563096.974531,94703,CEDAR,1501,-0.76,35,4192385.11923,CEDAR ST,687,Single Pole,SINGLE POLE
POINT (-122.28264808817532 37.876803842915216),1599,SACRAMENTO,1551,563087.206742,94703,SACRAMENTO,1501,5.513,35,4192388.77456,CEDAR ST,688,Single Pole,SINGLE POLE
POINT (-122.27384123419094 37.877871881601806),1899,CEDAR,1827,563860.81037,94703,CEDAR,1849,27.486,35,4192513.26631,CEDAR ST,689,Single Pole,SINGLE POLE
POINT (-122.27382175095661 37.87774499757877),1899,CEDAR,1827,563862.633082,94709,CEDAR,1600,24.971,35,4192499.20206,M L KING JR WAY,690,Single Pole,SINGLE POLE
POINT (-122.27360623502466 37.877755847138104),1699,MARTIN LUTHER KING J,1601,563881.57666,94709,MARTIN LUTHER KING J,1601,23.723,35,4192500.5534,M L KING JR WAY,691,Single Pole,SINGLE POLE
POINT (-122.27378645440729 37.87773358131266),1699,MARTIN LUTHER KING J,1601,563865.747389,94709,MARTIN LUTHER KING J,1600,28.836,35,4192497.95915,M L KING JR WAY,692,Pole Mast,MASTARM POLE
POINT (-122.27355377099646 37.87779813824218),1923,CEDAR,1901,563886.154587,94709,CEDAR,1601,24.286,35,4192505.28148,M L KING JR WAY,693,Single Pole,SINGLE POLE
POINT (-122.2735842624963 37.87790597115196),1923,CEDAR,1901,563883.380021,94709,CEDAR,1553,25.718,35,4192517.22456,M L KING JR WAY,694,Single Pole,SINGLE POLE
POINT (-122.26095825944543 37.879440814475274),2599,CEDAR,2517,564992.418247,94708,CEDAR,2500,87.995,35,4192696.2385,CEDAR ST,695,Single Pole,SINGLE POLE
POINT (-122.2692828843648 37.87846046374328),2099,CEDAR,2025,564261.179908,94709,CEDAR,1550,50.412,35,4192581.69987,SHATTUCK AVE,696,Single Pole,SINGLE POLE
POINT (-122.26923718285899 37.8783239292825),2099,CEDAR,2025,564265.318451,94709,CEDAR,1600,45.067,35,4192566.58307,SHATTUCK AVE,697,Single Pole,SINGLE POLE
POINT (-122.26905988398309 37.87834345191848),1649,SHATTUCK,1601,564280.893952,94709,SHATTUCK,1607,51.455,35,4192568.87098,SHATTUCK AVE,698,Single Pole,SINGLE POLE
POINT (-122.26911151189552 37.87833590058736),1649,SHATTUCK,1601,564276.359968,94709,SHATTUCK,1600,40.329,35,4192567.99772,SHATTUCK AVE,699,Single Pole,SINGLE POLE
POINT (-122.26700148689692 37.87875326502691),2199,CEDAR,2121,564461.559732,94709,CEDAR,1550,49.631,35,4192615.76023,OXFORD ST,700,Single Pole,SINGLE POLE
POINT (-122.26693220929084 37.87865714096249),2199,CEDAR,2121,564467.736239,94709,CEDAR,1600,50.457,35,4192605.14338,OXFORD ST,701,Single Pole,SINGLE POLE
POINT (-122.26678743213033 37.87865395548151),1699,OXFORD,1601,564480.471484,94709,OXFORD,2200,51.416,25,4192604.89059,CEDAR ST,702,Single Pole,SINGLE POLE
POINT (-122.26674797127633 37.87869057698464),2249,CEDAR,2201,564483.90981,94709,CEDAR,2200,52.147,35,4192608.98092,CEDAR ST,703,Single Pole,SINGLE POLE
POINT (-122.3014864527216 37.879388526780104),821,GILMAN,801,561428.307837,94710,GILMAN,821,-25.611,35,4192662.98185,GILMAN ST,704,Single Pole,SINGLE POLE
POINT (-122.2829016205809 37.87900406668967),1517,ROSE,1501,563063.033849,94703,ROSE,1501,6.252,35,4192632.72296,ROSE ST,705,Single Pole,SINGLE POLE
POINT (-122.26114854877818 37.87938406768791),2499,CEDAR,2447,564975.733491,94709,CEDAR,1600,110.392,35,4192689.80944,EUCLID AVE,706,Single Pole,SINGLE POLE
POINT (-122.2612213005186 37.87947742652507),2499,CEDAR,2447,564969.253643,94708,CEDAR,1592,105.681,35,4192700.11727,EUCLID AVE,707,Single Pole,SINGLE POLE
POINT (-122.2612065125518 37.87949790836762),2499,CEDAR,2447,564970.536323,94708,CEDAR,1592,102.095,35,4192702.39987,EUCLID AVE,708,Single Pole,SINGLE POLE
POINT (-122.27368152091738 37.87792294859077),1599,MARTIN LUTHER KING J,1501,563874.81188,94709,MARTIN LUTHER KING J,1553,29.025,35,4192519.04195,M L KING JR WAY,709,Pole Mast,MASTARM POLE
POINT (-122.26920478080118 37.880332378005704),1499,SHATTUCK,1451,564266.422569,94709,SHATTUCK,1495,45.742,35,4192789.44701,SHATTUCK AVE,710,Pole Mast,MASTARM POLE
POINT (-122.26931195652755 37.88032777072948),1499,SHATTUCK,1451,564257.000996,94709,SHATTUCK,1480,45.184,35,4192788.86171,SHATTUCK AVE,711,Single Pole,SINGLE POLE
POINT (-122.24552144258625 37.879102509967076),0,"CENTENNIAL, OA",0,566350.277728,94720,"CENTENNIAL, OA",2301,292.966,25,4192669.56679,BANCROFT WAY,712,Single Pole,SINGLE POLE
POINT (-122.24608630429425 37.87980301721694),0,"CENTENNIAL, OA",0,566299.974176,94720,"CENTENNIAL, OA",2301,303.725,25,4192746.8884,BANCROFT WAY,713,Single Pole,SINGLE POLE
POINT (-122.24597066142479 37.87981740831122),0,"CENTENNIAL, OA",0,566310.130924,94720,"CENTENNIAL, OA",2301,304.366,25,4192748.56718,BANCROFT WAY,714,Single Pole,SINGLE POLE
POINT (-122.24614033293042 37.879921597916216),0,"CENTENNIAL, OA",0,566295.116356,94720,"CENTENNIAL, OA",2301,303.89,25,4192760.00672,BANCROFT WAY,715,Pole Mast,MASTARM POLE
POINT (-122.24599896190024 37.87987829680176),0,"CENTENNIAL, OA",0,566307.587565,94720,"CENTENNIAL, OA",2301,313.655,25,4192755.30295,BANCROFT WAY,716,Single Pole,SINGLE POLE
POINT (-122.2958780026916 37.880357988199826),1399,SAN PABLO,1301,561920.717636,94702,SAN PABLO,1300,-18.506,35,4192774.25229,SAN PABLO AVE,717,Pole Mast,MASTARM POLE
POINT (-122.2706839858254 37.881948396509664),0,SHATTUCK,0,564134.93791,94709,SHATTUCK,2025,42.197,35,4192967.72998,ROSE ST,718,Single Pole,SINGLE POLE
POINT (-122.27052373090397 37.88185255452237),0,SHATTUCK,0,564149.113384,94709,SHATTUCK,1425,54.056,35,4192957.20539,HENRY ST,719,Single Pole,SINGLE POLE
POINT (-122.27033628505549 37.881881073221905),1449,SHATTUCK,1401,564165.572068,94709,SHATTUCK,2089,53.36,25,4192960.49863,ROSE ST,720,Single Pole,SINGLE POLE
POINT (-122.2829734989293 37.879012388995754),1499,SACRAMENTO,1401,563056.705405,94703,SACRAMENTO,1501,6.508,35,4192633.5975,ROSE ST,721,Pole Mast,MASTARM POLE
POINT (-122.28307760813837 37.8789876544092),1499,SACRAMENTO,1401,563047.570732,94702,SACRAMENTO,1475,3.609,35,4192630.78331,ROSE ST,722,Single Pole,SINGLE POLE
POINT (-122.29906329176728 37.8797844344837),933,GILMAN,933,561641.076751,94710,GILMAN,950,-20.998,35,4192708.5068,GILMAN ST,723,Pole Mast,MASTARM POLE
POINT (-122.29595458348162 37.880381252495674),1099,GILMAN,1049,561913.963609,94702,GILMAN,1300,-18.63,35,4192776.78221,SAN PABLO AVE,724,Single Pole,SINGLE POLE
POINT (-122.29600325274748 37.88056277704168),1099,GILMAN,1049,561909.53066,94706,GILMAN,1049,-18.395,35,4192796.89101,GILMAN ST,725,Single Pole,SINGLE POLE
POINT (-122.29605156312707 37.880499852053916),1099,GILMAN,1049,561905.335777,94706,GILMAN,1049,-19.074,35,4192789.87676,GILMAN ST,726,Pole Mast,MASTARM POLE
POINT (-122.29571742942139 37.88058431986074),1123,GILMAN,1101,561934.648849,94706,GILMAN,1299,-12.792,35,4192799.4706,SAN PABLO AVE,727,Pole Mast,MASTARM POLE
POINT (-122.29561921305233 37.880468701313234),1123,GILMAN,1101,561943.38327,94702,GILMAN,1301,-14.351,35,4192786.70755,SAN PABLO AVE,728,Pole Mast,MASTARM POLE
POINT (-122.2956103146043 37.88043591767153),1123,GILMAN,1101,561944.193403,94702,GILMAN,1301,-17.057,35,4192783.07645,SAN PABLO AVE,729,Single Pole,SINGLE POLE
POINT (-122.26714624083733 37.880440216977256),2199,VINE,2141,564447.359871,94709,VINE,2160,58.613,25,4192802.83192,VINE ST,730,Pole Mast,MASTARM POLE
POINT (-122.2672087224852 37.88053853739672),2199,VINE,2141,564441.779617,94709,VINE,2163,59.067,25,4192813.69758,VINE ST,731,Single Pole,SINGLE POLE
POINT (-122.26679302408827 37.878795984088214),1599,OXFORD,1501,564479.856064,94709,OXFORD,1555,51.844,25,4192620.64414,OXFORD ST,732,Single Pole,SINGLE POLE
POINT (-122.26698252896671 37.880442008840724),1599,OXFORD,1501,564461.755209,94709,OXFORD,1501,57.613,25,4192803.14362,OXFORD ST,733,Single Pole,SINGLE POLE
POINT (-122.26699312980858 37.88045766536297),1599,OXFORD,1501,564460.809388,94709,OXFORD,1501,50.021,25,4192804.87269,OXFORD ST,734,Single Pole,SINGLE POLE
POINT (-122.29915971229003 37.87990104533873),1299,8TH,1201,561632.500198,94710,8TH,933,-22.643,25,4192721.38121,GILMAN ST,735,Single Pole,SINGLE POLE
POINT (-122.29929489875606 37.87987720694192),1299,8TH,1201,561620.631188,94710,8TH,901,-26.012,25,4192718.64683,GILMAN ST,736,Pole Mast,MASTARM POLE
POINT (-122.27419660962069 37.88135505900314),1899,ROSE,1827,563826.550566,94703,ROSE,1408,29.079,35,4192899.489,M L KING JR WAY,737,Single Pole,SINGLE POLE
POINT (-122.27422202056779 37.88148072304086),1899,ROSE,1827,563824.207553,94709,ROSE,1346,30.28,35,4192913.41385,M L KING JR WAY,738,Single Pole,SINGLE POLE
POINT (-122.28342555203616 37.880972637181294),1499,HOPKINS,1451,563015.280477,94702,HOPKINS,1491,9.749,35,4192850.7857,HOPKINS ST,739,Pole Mast,MASTARM POLE
POINT (-122.28330125422748 37.88089594767183),1399,SACRAMENTO,1301,563026.275991,94702,SACRAMENTO,1330,6.033,35,4192842.36074,SACRAMENTO ST,740,Single Pole,SINGLE POLE
POINT (-122.28331368704978 37.88080635394199),1399,SACRAMENTO,1301,563025.259244,94702,SACRAMENTO,1330,3.229,35,4192832.41105,SACRAMENTO ST,741,Single Pole,SINGLE POLE
POINT (-122.30130497284313 37.87947916800208),1299,6TH,1201,561444.192349,94710,6TH,831,-25.706,25,4192673.15801,GILMAN ST,742,Pole Mast,MASTARM POLE
POINT (-122.28312906917313 37.88099530937933),1529,HOPKINS,1501,563041.333827,94702,HOPKINS,1325,5.92,35,4192853.50126,SACRAMENTO ST,743,Single Pole,SINGLE POLE
POINT (-122.28320938765289 37.88109132084995),1529,HOPKINS,1501,563034.188595,94707,HOPKINS,1505,7.475,35,4192864.09949,HOPKINS ST,744,Single Pole,SINGLE POLE
POINT (-122.27400288844531 37.88137151534406),1499,MARTIN LUTHER KING J,1401,563843.57216,94709,MARTIN LUTHER KING J,1401,29.964,35,4192901.4478,M L KING JR WAY,745,Single Pole,SINGLE POLE
POINT (-122.2741488168045 37.88132368063315),1499,MARTIN LUTHER KING J,1401,563830.78032,94703,MARTIN LUTHER KING J,1408,29.22,35,4192896.04002,M L KING JR WAY,746,Pole Mast,MASTARM POLE
POINT (-122.27396131667746 37.881436651174184),1919,ROSE,1901,563847.171609,94709,ROSE,1401,32.631,35,4192908.70256,M L KING JR WAY,747,Single Pole,SINGLE POLE
POINT (-122.27084035744235 37.88191752710075),2049,ROSE,2001,564121.212673,94709,ROSE,2025,41.807,35,4192964.19741,ROSE ST,748,Single Pole,SINGLE POLE
POINT (-122.27123777928334 37.88541227047766),2019,EUNICE,2001,564083.235038,94709,EUNICE,0,55.871,25,4193351.67314,BERRYMAN ST,749,Single Pole,SINGLE POLE
POINT (-122.27135486706334 37.885387139988794),2019,EUNICE,2001,564072.960442,94709,EUNICE,0,54.743,25,4193348.80449,BERRYMAN ST,750,Pole Mast,MASTARM POLE
POINT (-122.27141068480533 37.88552763779452),2019,EUNICE,2001,564067.931021,94707,EUNICE,0,51.647,25,4193364.35494,SUTTER ST,751,Single Pole,SINGLE POLE
POINT (-122.27652229694421 37.88813424203533),1099,THE ALAMEDA,1001,563616.196913,94707,THE ALAMEDA,1835,44.433,35,4193650.06487,MONTEREY AVE,752,Single Pole,SINGLE POLE
POINT (-122.27638781766801 37.88828317188198),1099,THE ALAMEDA,1001,563627.892997,94707,THE ALAMEDA,0,38.171,35,4193666.68068,MONTEREY AVE,753,Single Pole,SINGLE POLE
POINT (-122.27639884814886 37.888701802040806),1099,THE ALAMEDA,1001,563626.562839,94707,THE ALAMEDA,0,44.271,35,4193713.12106,MONTEREY AVE,754,Single Pole,SINGLE POLE
POINT (-122.27108157741527 37.88545264010808),2099,EUNICE,2021,564096.935573,94709,EUNICE,2026,53.369,25,4193356.25958,EUNICE ST,755,Single Pole,SINGLE POLE
POINT (-122.26700732416595 37.88061051970004),1499,OXFORD,1401,564459.428267,94709,OXFORD,1449,54.499,25,4192821.82302,OXFORD ST,756,Single Pole,SINGLE POLE
POINT (-122.26715380188632 37.8805757081111),1499,OXFORD,1401,564446.576965,94709,OXFORD,2163,54.95,25,4192817.8596,VINE ST,757,Single Pole,SINGLE POLE
POINT (-122.26719590504403 37.882253016554834),1499,OXFORD,1401,564441.412162,94709,OXFORD,2200,58.84,25,4193003.93157,ROSE ST,758,Single Pole,SINGLE POLE
POINT (-122.2673277344431 37.882246719623105),1499,OXFORD,1401,564429.824611,94709,OXFORD,1400,58.714,25,4193003.14153,OXFORD ST,759,Single Pole,SINGLE POLE
POINT (-122.27400756690832 37.881533424034814),1399,MARTIN LUTHER KING J,1301,563843.020832,94709,MARTIN LUTHER KING J,1909,37.395,35,4192919.40774,ROSE ST,760,Single Pole,SINGLE POLE
POINT (-122.27404788595582 37.881547368682284),1399,MARTIN LUTHER KING J,1301,563839.463044,94709,MARTIN LUTHER KING J,1909,34.591,35,4192920.92793,ROSE ST,761,Pole Mast,MASTARM POLE
POINT (-122.2741769713632 37.88151390118915),1399,MARTIN LUTHER KING J,1301,563828.140621,94709,MARTIN LUTHER KING J,1346,28.933,35,4192917.12606,M L KING JR WAY,762,Single Pole,SINGLE POLE
POINT (-122.27248173895279 37.888743978523415),2013,HOPKINS,1963,563970.964107,94707,HOPKINS,1995,47.059,25,4193720.47985,EL DORADO AVE,763,Pole Mast,MASTARM POLE
POINT (-122.27245991178702 37.88838004278734),1123,SUTTER,1101,563973.19856,94707,SUTTER,1100,47.288,25,4193680.11488,SUTTER ST,764,Single Pole,SINGLE POLE
POINT (-122.27247619256144 37.888547854385294),1123,SUTTER,1101,563971.621829,94707,SUTTER,1105,45.677,25,4193698.7226,SUTTER ST,765,Single Pole,SINGLE POLE
POINT (-122.27228710900962 37.88857414789943),1123,SUTTER,1101,563988.225212,94707,SUTTER,1105,48.792,25,4193701.77032,SUTTER ST,766,Pole Mast,MASTARM POLE
POINT (-122.27224933309526 37.88847155405974),1123,SUTTER,1101,563991.636076,94707,SUTTER,1105,46.836,25,4193690.41254,SUTTER ST,767,Single Pole,SINGLE POLE
POINT (-122.28801090208901 37.888615365987036),1441,"MARIN, AL",1407,562605.570281,94707,"MARIN, AL",1519,-3.049,35,4193695.67524,SOLANO AVE,768,Pole Mast,MASTARM POLE
POINT (-122.29271716193085 37.88763030507938),0,"MARIN, AL",0,562192.569766,94706,"MARIN, AL",1201,-10.75,35,4193583.23294,EVELYN AVE,769,Single Pole,SINGLE POLE
POINT (-122.29281156899586 37.88780915739352),0,"MARIN, AL",0,562184.11761,94706,"MARIN, AL",1201,-10.588,35,4193603.01378,EVELYN AVE,770,Pole Mast,MASTARM POLE
POINT (-122.27496763115828 37.885563651936216),1199,THE ALAMEDA,1147,563755.118204,94707,THE ALAMEDA,1161,33.987,35,4193365.91367,THE ALAMEDA,771,Pole Mast,MASTARM POLE
POINT (-122.27130396195447 37.88555408168614),1199,SUTTER,1171,564077.292574,94707,SUTTER,0,53.071,25,4193367.3618,SUTTER ST,772,Single Pole,SINGLE POLE
POINT (-122.2711228644304 37.88555647734868),1199,SUTTER,1171,564093.215588,94709,SUTTER,2061,51.647,25,4193367.75249,EUNICE ST,773,Single Pole,SINGLE POLE
POINT (-122.27118353270554 37.88557241463921),1199,SUTTER,1171,564087.866734,94709,SUTTER,2061,52.085,25,4193369.47939,EUNICE ST,774,Pole Mast,MASTARM POLE
POINT (-122.2749897810005 37.88525762836058),1899,HOPKINS,1821,563753.434287,94709,HOPKINS,1200,31.485,25,4193331.94497,THE ALAMEDA,775,Single Pole,SINGLE POLE
POINT (-122.27512458589712 37.88541392920108),1899,HOPKINS,1821,563741.445818,94707,HOPKINS,1160,32.213,25,4193349.19468,JOSEPHINE ST,776,Pole Mast,MASTARM POLE
POINT (-122.27487276568336 37.88525835148653),1201,THE ALAMEDA,1201,563763.723901,94709,THE ALAMEDA,1200,31.193,35,4193332.10483,THE ALAMEDA,777,Pole Mast,MASTARM POLE
POINT (-122.29834776329257 37.88792304563433),1099,"BUCHANAN, AL",1041,561697.211186,94710,"BUCHANAN, AL",1172,-17.577,35,4193611.97438,SAN PABLO AVE,778,Single Pole,SINGLE POLE
POINT (-122.26736830549045 37.88226406328047),2199,ROSE,2125,564426.242686,94709,ROSE,1400,58.519,35,4193005.03743,OXFORD ST,779,Single Pole,SINGLE POLE
POINT (-122.26740097418609 37.88236672791421),2199,ROSE,2125,564423.279387,94709,ROSE,1344,58.472,35,4193016.40632,OXFORD ST,780,Single Pole,SINGLE POLE
POINT (-122.2671556260773 37.88228985659266),2223,ROSE,2201,564444.922252,94709,ROSE,2200,61.963,35,4193008.04686,ROSE ST,781,Single Pole,SINGLE POLE
POINT (-122.2705075062807 37.88202453818277),1399,HENRY,1301,564150.391451,94709,HENRY,2089,49.355,25,4192976.29919,ROSE ST,782,Single Pole,SINGLE POLE
POINT (-122.27467249869584 37.885514348476924),1939,HOPKINS,1901,563781.113084,94709,HOPKINS,1201,30.72,25,4193360.64546,THE ALAMEDA,783,Single Pole,SINGLE POLE
POINT (-122.30806120911312 37.88493338801987),0,"EASTSHORE, AL",0,560845.544421,94710,"EASTSHORE, AL",1100,-22.293,25,4193273.88641,EASTSHORE HWY,784,Pole Mast,MASTARM POLE
POINT (-122.30824337844311 37.884904786335056),0,"EASTSHORE, AL",0,560829.54866,94710,"EASTSHORE, AL",1100,-22.721,25,4193270.59439,EASTSHORE HWY,785,Single Pole,SINGLE POLE
POINT (-122.30806708967606 37.88470137340307),0,"EASTSHORE, AL",0,560845.218275,94710,"EASTSHORE, AL",1100,-16.974,25,4193248.13951,EASTSHORE HWY,786,Single Pole,SINGLE POLE
POINT (-122.30825022748093 37.88477377160472),0,"EASTSHORE, AL",0,560829.05408,94710,"EASTSHORE, AL",1100,-26.043,25,4193256.05301,EASTSHORE HWY,787,Single Pole,SINGLE POLE
POINT (-122.30825013597104 37.8846484987724),0,"EASTSHORE, AL",0,560829.165045,94710,"EASTSHORE, AL",1100,-27.217,25,4193242.15412,EASTSHORE HWY,788,Single Pole,SINGLE POLE
POINT (-122.29762508378602 37.886602890446625),1099,"SAN PABLO, AL",1001,561761.860934,94710,"SAN PABLO, AL",1172,-22.304,35,4193465.97814,SAN PABLO AVE,789,Single Pole,SINGLE POLE
POINT (-122.29709093272515 37.884760648168175),1099,"SAN PABLO, AL",1001,561810.369959,94710,"SAN PABLO, AL",1172,-14.624,35,4193261.93169,SAN PABLO AVE,790,Pole Mast,MASTARM POLE
POINT (-122.29761510262384 37.88665267226281),1117,"MARIN, AL",1101,561762.696933,94710,"MARIN, AL",1172,-21.4,35,4193471.50794,SAN PABLO AVE,791,Single Pole,SINGLE POLE
POINT (-122.30168343391757 37.8874820401313),0,"BUCHANAN, AL",0,561404.263066,94710,"BUCHANAN, AL",1101,-26.017,35,4193560.84267,EIGHTH ST,792,Pole Mast,MASTARM POLE
POINT (-122.3007773976176 37.88753305741102),1099,"JACKSON, AL",1001,561483.891389,94710,"JACKSON, AL",1101,-24.978,25,4193567.10017,EIGHTH ST,793,Pole Mast,MASTARM POLE
POINT (-122.30097955029645 37.887522273543055),1099,"JACKSON, AL",1001,561466.124729,94710,"JACKSON, AL",1101,-24.43,25,4193565.7698,EIGHTH ST,794,Single Pole,SINGLE POLE
POINT (-122.29799465546758 37.886682888964685),1099,"MARIN, AL",0,561729.295501,94710,"MARIN, AL",1172,-20.186,35,4193474.6097,SAN PABLO AVE,795,Pole Mast,MASTARM POLE
POINT (-122.29791299195607 37.88660886202933),1099,"MARIN, AL",0,561736.538874,94710,"MARIN, AL",1172,-21.458,35,4193466.44996,SAN PABLO AVE,796,Single Pole,SINGLE POLE
POINT (-122.29802619802864 37.88693041283601),1099,"MARIN, AL",0,561726.315429,94710,"MARIN, AL",1172,-17.823,35,4193502.05167,SAN PABLO AVE,797,Single Pole,SINGLE POLE
POINT (-122.29806094669058 37.88689366713165),1099,"MARIN, AL",0,561723.290407,94710,"MARIN, AL",1172,-14.853,35,4193497.9523,SAN PABLO AVE,798,Pole Mast,MASTARM POLE
POINT (-122.29825964123116 37.88767092240807),0,"SAN PABLO, AL",0,561705.170211,94710,"SAN PABLO, AL",1172,-18.719,35,4193584.05832,SAN PABLO AVE,799,Pole Mast,MASTARM POLE
POINT (-122.29802807678189 37.88778207057305),0,"SAN PABLO, AL",0,561725.439118,94710,"SAN PABLO, AL",1172,-17.368,35,4193596.54382,SAN PABLO AVE,800,Single Pole,SINGLE POLE
POINT (-122.29777049321453 37.886941602233975),0,"SAN PABLO, AL",0,561748.791585,94710,"SAN PABLO, AL",1172,-17.815,35,4193503.46244,SAN PABLO AVE,801,Pole Mast,MASTARM POLE
POINT (-122.29252139823663 37.887690976127985),1257,"MARIN, AL",1237,562209.732442,94706,"MARIN, AL",1201,-10.966,35,4193590.09492,EVELYN AVE,802,Pole Mast,MASTARM POLE
POINT (-122.2882848439419 37.88874383586822),1359,"MARIN, AL",1321,562581.373544,94707,"MARIN, AL",1519,-0.947,35,4193709.74545,SOLANO AVE,803,Single Pole,SINGLE POLE
POINT (-122.28837497482175 37.88850522981888),1359,"MARIN, AL",1321,562573.650224,94707,"MARIN, AL",1519,-2.48,35,4193683.21071,SOLANO AVE,804,Single Pole,SINGLE POLE
POINT (-122.28815708281428 37.88855723810571),1037,"SANTA FE, AL",1001,562592.764767,94707,"SANTA FE, AL",1519,-2.646,25,4193689.12749,SOLANO AVE,805,Single Pole,SINGLE POLE
POINT (-122.30843951898389 37.88713695086497),0,I80 EEAT (OFF RAMP) BUCHANAN,0,560810.465112,94710,I80 Eeat (OFF RAMP) BUCHANAN,1100,-25.982,20,4193518.12899,EASTSHORE HWY,806,Single Pole,SINGLE POLE
POINT (-122.3081532784295 37.887094021330874),0,I80 EEAT (OFF RAMP) BUCHANAN,0,560835.670463,94710,I80 Eeat (OFF RAMP) BUCHANAN,1100,-27.281,20,4193513.55244,EASTSHORE HWY,807,Pole Mast,MASTARM POLE
POINT (-122.30819500609039 37.88725597620198),0,"BUCHANAN, AL",0,560831.867753,94710,"BUCHANAN, AL",1100,-22.949,35,4193531.49501,EASTSHORE HWY,808,Pole Mast,MASTARM POLE
POINT (-122.26722589959849 37.882434453538195),1399,OXFORD,1303,564438.616768,94709,OXFORD,2201,58.596,25,4193024.0409,ROSE ST,809,Single Pole,SINGLE POLE
POINT (-122.26718269096075 37.88241325662244),1399,OXFORD,1303,564442.435082,94709,OXFORD,2201,58.769,25,4193021.71966,ROSE ST,810,Single Pole,SINGLE POLE
POINT (-122.26735110434058 37.88240530910914),1399,OXFORD,1303,564427.632181,94709,OXFORD,1344,58.629,25,4193020.72129,OXFORD ST,811,Single Pole,SINGLE POLE
POINT (-122.27670325699746 37.88877846185728),1899,MARIN,1835,563599.729638,94707,MARIN,1000,43.699,35,4193721.41908,THE ALAMEDA,812,Single Pole,SINGLE POLE
POINT (-122.27684885041101 37.8889786260132),1899,MARIN,1835,563586.755533,94707,MARIN,964,42.017,35,4193743.52913,THE ALAMEDA,813,Pole Mast,MASTARM POLE
POINT (-122.30857320317429 37.88722731727441),0,I580,0,560798.635877,94710,I580,1100,-25.016,60,4193528.06859,EASTSHORE HWY,814,Single Pole,SINGLE POLE
POINT (-122.30961230772441 37.88782449350868),0,,0,560706.773303,94710,,1100,-29.25,20,4193593.6491,EASTSHORE HWY,815,Pole Mast,MASTARM POLE
POINT (-122.30810301641662 37.88755097788268),0,,0,560839.713984,94710,,1100,-22.213,20,4193564.28582,EASTSHORE HWY,816,Pole Mast,MASTARM POLE
POINT (-122.29355461151253 37.89069023113676),899,"MASONIC, AL",801,562116.359534,94707,"MASONIC, AL",1519,-9.636,25,4193922.17946,SOLANO AVE,817,Single Pole,SINGLE POLE
POINT (-122.30834332117723 37.887502260264085),0,I580,0,560818.623804,94710,I580,1100,-21.601,20,4193558.72356,EASTSHORE HWY,818,Single Pole,SINGLE POLE
POINT (-122.27233135670306 37.889044691522166),1099,FOUNTAIN,1001,563983.927012,94707,FOUNTAIN,0,43.548,25,4193753.94742,HOPKINS ST,819,Single Pole,SINGLE POLE
POINT (-122.27246318813228 37.88895408863968),1099,FOUNTAIN,1001,563972.413435,94707,FOUNTAIN,1995,44.035,25,4193743.80474,EL DORADO AVE,820,Single Pole,SINGLE POLE
POINT (-122.27893588999692 37.88943174284435),0,MARIN,0,563402.850903,94707,,1760,34.681,35,4193792.38217,MARIN AVE,821,Single Pole,SINGLE POLE
POINT (-122.2806195858463 37.893186019040726),1799,TACOMA,1701,563251.590614,94707,TACOMA,830,25.943,25,4194207.7848,COLUSA AVE,822,Single Pole,SINGLE POLE
POINT (-122.28052970700494 37.893115799190234),1799,TACOMA,1701,563259.552636,94707,TACOMA,1780,26.263,25,4194200.05468,TACOMA AVE,823,Single Pole,SINGLE POLE
POINT (-122.2803283536053 37.893187252735196),859,COLUSA,841,563277.19632,94707,COLUSA,849,19.449,35,4194208.11879,COLUSA AVE,824,Single Pole,SINGLE POLE
POINT (-122.28045700227906 37.893112596836616),859,COLUSA,841,563265.948498,94707,COLUSA,1780,19.892,35,4194199.74894,TACOMA AVE,825,Pole Mast,MASTARM POLE
POINT (-122.28888170440564 37.89089097943493),1441,"SOLANO, AL",1415,562527.073908,94707,"SOLANO, AL",1519,4.898,35,4193947.57495,SOLANO AVE,826,Pole Mast,MASTARM POLE
POINT (-122.28886983758801 37.89074618858311),1441,"SOLANO, AL",1415,562528.240087,94707,"SOLANO, AL",1519,3.288,35,4193931.51814,SOLANO AVE,827,Single Pole,SINGLE POLE
POINT (-122.28806145989047 37.88884586750232),999,"SANTA FE, AL",901,562600.929289,94707,"SANTA FE, AL",1519,-0.782,25,4193721.21577,SOLANO AVE,828,Single Pole,SINGLE POLE
POINT (-122.28864528843752 37.89089748412512),1499,"SOLANO, AL",1471,562547.856558,94707,"SOLANO, AL",1519,6.793,35,4193948.45574,SOLANO AVE,829,Single Pole,SINGLE POLE
POINT (-122.28864381870817 37.890781573013875),1499,"SOLANO, AL",1471,562548.083889,94707,"SOLANO, AL",1519,6.226,35,4193935.59515,SOLANO AVE,830,Pole Mast,MASTARM POLE
POINT (-122.27697405945027 37.891361614810116),1929,SOLANO,1901,563573.696456,94707,SOLANO,917,38.082,25,4194007.84065,THE ALAMEDA,831,Single Pole,SINGLE POLE
POINT (-122.27729349635486 37.89155591421917),1899,SOLANO,1871,563545.441584,94707,SOLANO,898,45.707,35,4194029.18102,THE ALAMEDA,832,Single Pole,SINGLE POLE
POINT (-122.29877265081643 37.89025272609047),1119,"SOLANO, AL",1101,561657.906669,94710,"SOLANO, AL",1172,-18.2,35,4193870.17622,SAN PABLO AVE,833,Pole Mast,MASTARM POLE
POINT (-122.29971543410757 37.89221118434204),1099,"WASHINGTON, AL",1041,561573.376286,94710,"WASHINGTON, AL",1172,-16.56,25,4194086.8476,SAN PABLO AVE,834,Pole Mast,MASTARM POLE
POINT (-122.29978279216242 37.89237530615162),1099,"WASHINGTON, AL",1041,561567.317687,94710,"WASHINGTON, AL",1172,-16.777,25,4194105.01372,SAN PABLO AVE,835,Single Pole,SINGLE POLE
POINT (-122.27874062471746 37.889355753982784),1011,COLUSA,1001,563420.08631,94707,COLUSA,1800,27.111,25,4193784.08476,MARIN AVE,836,Pole Mast,MASTARM POLE
POINT (-122.27997052383782 37.891245686294056),1799,SOLANO,1791,563310.321735,94707,SOLANO,1800,31.865,35,4193992.9412,SOLANO AVE,837,Single Pole,SINGLE POLE
POINT (-122.27900664865913 37.88970339222408),999,COLUSA,901,563396.395984,94707,COLUSA,1761,29.892,25,4193822.47424,MARIN AVE,838,Single Pole,SINGLE POLE
POINT (-122.27881728111143 37.88966545779596),999,COLUSA,901,563413.079896,94707,COLUSA,1801,28.401,25,4193818.39453,MARIN AVE,839,Single Pole,SINGLE POLE
POINT (-122.27717308937228 37.891348601292805),941,THE ALAMEDA,901,563556.207246,94707,THE ALAMEDA,908,46.941,35,4194006.26154,THE ALAMEDA,840,Single Pole,SINGLE POLE
POINT (-122.27701019276353 37.89152471767372),0,THE ALAMEDA,0,563570.379341,94707,,899,39.675,25,4194025.91345,THE ALAMEDA,841,Single Pole,SINGLE POLE
POINT (-122.27998799883302 37.891430826923816),899,COLUSA,877,563308.626195,94707,COLUSA,1797,28.261,35,4194013.47103,SOLANO AVE,842,Pole Mast,MASTARM POLE
POINT (-122.27975985856982 37.89144856198983),899,COLUSA,877,563328.670976,94707,COLUSA,1801,28.509,35,4194015.59307,SOLANO AVE,843,Single Pole,SINGLE POLE
POINT (-122.29920886388504 37.89029020827098),1099,"SOLANO, AL",1037,561619.518761,94710,"SOLANO, AL",1172,-17.178,35,4193874.04648,SAN PABLO AVE,844,Pole Mast,MASTARM POLE
POINT (-122.29914403530131 37.89037844526066),1099,"SOLANO, AL",1037,561625.146563,94710,"SOLANO, AL",1172,-17.94,35,4193883.87972,SAN PABLO AVE,845,Single Pole,SINGLE POLE
POINT (-122.29911861662355 37.89015693616014),1099,"SOLANO, AL",1037,561627.5655,94710,"SOLANO, AL",1172,-18.229,35,4193859.31951,SAN PABLO AVE,846,Single Pole,SINGLE POLE
POINT (-122.29903438901876 37.89011700859171),999,"SAN PABLO, AL",901,561635.005113,94710,"SAN PABLO, AL",1172,-16.857,35,4193854.94484,SAN PABLO AVE,847,Pole Mast,MASTARM POLE
POINT (-122.2987829128671 37.89018517333835),999,"SAN PABLO, AL",901,561657.060855,94710,"SAN PABLO, AL",1172,-16.46,35,4193862.67352,SAN PABLO AVE,848,Single Pole,SINGLE POLE
POINT (-122.29804222853275 37.88800175618032),999,"SAN PABLO, AL",901,561724.011468,94710,"SAN PABLO, AL",1172,-16.94,35,4193620.90951,SAN PABLO AVE,849,Pole Mast,MASTARM POLE
POINT (-122.28031124932221 37.89324135797526),1847,TACOMA,1801,563278.653539,94707,TACOMA,849,26.717,25,4194214.13401,COLUSA AVE,850,Single Pole,SINGLE POLE
POINT (-122.28040390413754 37.89330610340884),1847,TACOMA,1801,563270.451767,94707,TACOMA,1805,27.923,25,4194221.25421,TACOMA AVE,851,Single Pole,SINGLE POLE
POINT (-122.27784647861644 37.89494569372216),739,THE ALAMEDA,721,563493.907382,94707,THE ALAMEDA,730,35.611,25,4194404.90817,THE ALAMEDA,852,Single Pole,SINGLE POLE
POINT (-122.27769789235332 37.89497702923111),739,THE ALAMEDA,721,563506.945107,94707,THE ALAMEDA,727,38.083,25,4194408.48658,THE ALAMEDA,853,Single Pole,SINGLE POLE
POINT (-122.30018981873184 37.88782598853552),999,"MADISON, AL",901,561535.315188,94710,"MADISON, AL",1101,-20.582,25,4193599.98875,EIGHTH ST,854,Pole Mast,MASTARM POLE
POINT (-122.29372349709023 37.890648488283574),1251,"SOLANO, AL",1241,562101.544243,94707,"SOLANO, AL",1519,-9.155,35,4193917.43588,SOLANO AVE,855,Pole Mast,MASTARM POLE
POINT (-122.29363563663196 37.890478631263434),1251,"SOLANO, AL",1241,562109.412405,94707,"SOLANO, AL",1519,-13.788,35,4193898.64805,SOLANO AVE,856,Single Pole,SINGLE POLE
POINT (-122.29261507194833 37.887862994211886),999,"MASONIC, AL",901,562201.351075,94706,"MASONIC, AL",1201,-10.659,25,4193609.11732,EVELYN AVE,857,Single Pole,SINGLE POLE
POINT (-122.29277965189026 37.88784441338752),999,"MASONIC, AL",901,562186.894761,94706,"MASONIC, AL",1201,-11.208,25,4193606.94722,EVELYN AVE,858,Single Pole,SINGLE POLE
POINT (-122.29346606346641 37.890492157692066),999,"MASONIC, AL",901,562124.312103,94707,"MASONIC, AL",1519,-8.007,25,4193900.26215,SOLANO AVE,859,Pole Mast,MASTARM POLE
POINT (-122.2995347116239 37.89248081776568),749,"SAN PABLO, AL",701,561589.042741,94710,"SAN PABLO, AL",1172,-17.766,35,4194116.88404,SAN PABLO AVE,860,Pole Mast,MASTARM POLE
POINT (-122.29886707542074 37.890429461020126),899,"SAN PABLO, AL",801,561649.456099,94710,"SAN PABLO, AL",1172,-18.713,35,4193889.72237,SAN PABLO AVE,861,Pole Mast,MASTARM POLE
POINT (-122.2994904693579 37.892315296685894),799,"SAN PABLO, AL",751,561593.070541,94710,"SAN PABLO, AL",1172,-16.88,35,4194098.54846,SAN PABLO AVE,862,Single Pole,SINGLE POLE
POINT (-122.3078848281523 37.89321301375617),0,I80 WEST (OFF RAMP) 580 E,0,560854.239233,94710,I80 West (OFF RAMP) 580 E,1100,-17.692,20,4194192.64288,EASTSHORE HWY,863,Single Pole,SINGLE POLE
POINT (-122.30990166787505 37.88808456149427),0,"BUCHANAN, AL",0,560681.115715,94710,"BUCHANAN, AL",1100,-26.324,25,4193622.31612,EASTSHORE HWY,864,Single Pole,SINGLE POLE
POINT (-122.30986560969285 37.8880253173447),0,"BUCHANAN, AL",0,560684.335171,94710,"BUCHANAN, AL",1100,-25.7,25,4193615.76678,EASTSHORE HWY,865,Single Pole,SINGLE POLE
POINT (-122.30091104533447 37.89596404097284),1099,"CLAY, AL",1041,561465.128891,94707,"CLAY, AL",0,-17.12,25,4194502.44688,NEILSON ST,866,Pole Mast,MASTARM POLE
POINT (-122.30098157392194 37.89610743046287),1099,"CLAY, AL",1041,561458.809346,94707,"CLAY, AL",654,-20.945,25,4194518.30984,NEILSON ST,867,Single Pole,SINGLE POLE
POINT (-122.30066275462977 37.89604737648696),599,"SAN PABLO, AL",551,561486.890805,94707,"SAN PABLO, AL",0,-21.319,35,4194511.85728,NEILSON ST,868,Single Pole,SINGLE POLE
POINT (-122.30064021074031 37.89600616988833),599,"SAN PABLO, AL",551,561488.906865,94707,"SAN PABLO, AL",0,-20.432,35,4194507.2998,NEILSON ST,869,Single Pole,SINGLE POLE
POINT (-122.30070772440048 37.8961802602699),549,"SAN PABLO, AL",501,561482.826388,94707,"SAN PABLO, AL",634,-23.502,35,4194526.57096,NEILSON ST,870,Pole Mast,MASTARM POLE
POINT (-122.30112070319052 37.89662946771183),549,"SAN PABLO, AL",501,561446.142679,94707,"SAN PABLO, AL",618,-27.765,35,4194576.13964,NEILSON ST,871,Pole Mast,MASTARM POLE
POINT (-122.30117378689718 37.89678714438038),499,"SAN PABLO, AL",401,561441.343823,94707,"SAN PABLO, AL",618,-24.6,35,4194593.59961,NEILSON ST,872,Single Pole,SINGLE POLE
POINT (-122.30094095079612 37.89691483723063),499,"SAN PABLO, AL",401,561461.709368,94707,"SAN PABLO, AL",604,-27.991,35,4194607.9205,NEILSON ST,873,Pole Mast,MASTARM POLE
